X,Y,OBJECTID,NAME,ADDRESS,TOWN,MUNICIPALITY,POSTAL_CODE,PHONE,FAX,PROFIT_TYPE,AGES,HOURS,INTERSECTION,SUBSIDY,ACCESSIBILITY,PARKING,WEBSITE,GlobalID,LANGUAGE,CWELCC
652280.004,4855587.831,728,"P.R.Y.D.E., William Dunbar",1030 Glenanna Road,PICKERING,PICKERING,L1V 5E5,(905) 626-2066,,0,44m - 12yrs, 6:30:00AM -  6:00:00PM,Glenanna Rd and Dixie Rd,Yes,Wheelchair Accessible Inside and Outside,"Parking On site, designated handicapped",http://www.prydelearningcentres.ca,{7E7E0BD3-3F94-4575-8DEF-2823290609BA},,Yes
678181.865,4863852.761,730,Lydia Trull Schoolage Program,80 Avondale Drive,COURTICE,CLARINGTON,L1E 3C2,(905) 442-4445,,0,44m - 12yrs, 7:00:00AM -  6:00:00PM,Trulls and Avondale Drive,Yes,Wheelchair Accessible Inside and Outside,"Parking On site, designated handicapped",http://www.ymcagta.org,{0B1A6EA6-9BDD-4586-B145-276A69877ECB},,Yes
665825.507,4860463.505,731,Whitby Early Learning & Child Care Centre,501 Dunlop Street East,WHITBY,WHITBY,L1N 1S8,(905) 668-4751,,0,18m - 6yrs, 7:00:00AM -  6:00:00PM,Reynolds St and Dunlop St East,Yes,Wheelchair Accessible Inside and Outside,Parking On site,http://www.durham.ca,{589474FB-0896-4E4A-8663-009D80C46E21},,Yes
660126.998,4855331.599,732,"P.R.Y.D.E., Southwood Park",28 Lambard Crescent,AJAX,AJAX,L1S 1M5,(905) 427-1435,,0,44m - 12yrs, 7:00:00AM -  6:00:00PM,Harwood Ave and Dryer Drive,Yes,Wheelchair Accessible Inside and Outside,"Parking On site, designated handicapped",http://www.prydelearningcentres.ca,{4683A734-241A-40AD-83A5-ECB18C56ACEC},,Yes
673957.229,4863599.356,733,"EduKids Child Care, Harmony Oshawa",15 Harmony Road North,OSHAWA,OSHAWA,L1G 6K8,(905) 576-4677,,1,Infant - 12yrs, 6:30:00AM -  6:15:00PM,Harmony and King St,Yes,Wheelchair Accessible Not accessible,Parking On site,http://www.edukids.ca,{E7690794-7965-400C-AB34-FEA0AFEB57E6},,Yes
675483.298,4863204.1,734,St. John XXIII YMCA,195 Athabasca Street,OSHAWA,OSHAWA,L1H 7J2,(905) 904-0537,,0,44m - 12yrs, 7:00:00AM -  6:00:00PM,Athabasca St. and Olive Ave,Yes,Wheelchair Accessible Inside and Outside,"Parking On site, designated handicapped",http://www.ymcagta.org,{A6393786-5B01-4142-B789-9BB5B72F8B7E},,Yes
663261.432,4869264.757,735,Meadowcrest YMCA Before and After School Program,20 Vipond Road,BROOKLIN,WHITBY,L1M 1B3,(289) 927-6473,,0,44m - 12yrs, 7:00:00AM -  6:00:00PM,Baldwin and Winchester Rd,Yes,Wheelchair Accessible Inside and Outside,"Parking On site, designated handicapped",http://www.ymcagta.org,{6CCCFEB9-A405-4C1B-AE70-518C785AE09D},,Yes
652840.504,4856720.136,736,"P.R.Y.D.E., Maple Ridge",2010 Bushmill Street,PICKERING,PICKERING,L1X 2M2,(905) 831-4513,,0,18m - 12yrs, 7:00:00AM -  6:00:00PM,Liverpool and Finch,Yes,Wheelchair Accessible Inside and Outside,"Parking On site, designated handicapped",http://www.prydelearningcentres.ca,{7357FB22-5982-4BB7-B525-CF13C0538256},,Yes
650470.313,4852581.961,737,"Helping Hands Daycare, Rougemount",376 Kingston Road Unit 9,PICKERING,PICKERING,L1V 6K4,(905) 509-2115,,1,Infant - 12yrs, 6:30:00AM -  6:00:00PM,Rougemount and Kingston Road,Yes,Wheelchair Accessible Inside and Outside,"Parking On site, designated handicapped",http://www.helpinghandsdaycare.ca,{13094949-DA71-4875-A8FF-20A996998C70},,Yes
664773.93,4857918.956,738,"Schoolhouse Playcare, Whitby Shores",485 Whitby Shores Greenway,WHITBY,WHITBY,L1N 0G8,(905) 668-9258,,0,44m - 12yrs, 6:30:00AM -  6:30:00PM,Victoria and Brock St,Yes,Wheelchair Accessible Inside and Outside,"Parking On site, designated handicapped",http://www.schoolhouseplaycare.ca,{3B00D3A0-AC1D-4531-8AFB-C9CADF18A447},,Yes
673645.768,4868311.58,739,Norman G Powers YMCA Before and After School Program,1555 Coldstream Drive,OSHAWA,OSHAWA,L1K 3B5,(289) 928-0745,,0,44m - 12yrs, 6:30:00AM -  6:30:00PM,Townline Rd and Coldstream Dr,Yes,Wheelchair Accessible Inside and Outside,"Parking On site, designated handicapped",http://www.ymcagta.org,{DA6D04E3-D7C6-479E-967A-2BE099224EB1},,Yes
670953.805,4858024.231,740,Alpha's Bilingual Childcare Inc.,1200 Phillip Murray Ave Unit 1-4,OSHAWA,OSHAWA,L1J 6Z8,(416) 856-5646,,1,Infant - 6yrs, 6:00:00AM -  6:00:00PM,Phillip Murray and Stevenson,Yes,Wheelchair Accessible Inside and Outside,"Parking On site, designated handicapped",http://www.alphasbilingualchildcare.com,{5756FBFA-8498-4495-8F28-37BD96526ABE},,No
656852.631,4860888.115,741,"Smart Start Learning Centre & Childcare, Williamson","201 Williamson Drive W, Unit 1-3",AJAX,AJAX,L1T 0J8,(905) 424-7762,,1,Infant - 12yrs, 6:30:00AM -  6:30:00PM,Westney and Williamson,Yes,Wheelchair Accessible Inside and Outside,"Parking On site, designated handicapped",http://www.smartstartlearningdaycares.com,{582E7559-EB7F-4FC4-A474-9A4DF606CA2D},,Yes
657733.452,4856787.226,742,"Helping Hands Daycare, Westney",458 Fairall Street,AJAX,AJAX,L1S 1R6,(905) 427-4900,,1,Infant - 12yrs, 6:30:00AM -  6:15:00PM,Westney and Fairall Street,Yes,Wheelchair Accessible Inside and Outside,"Parking On site, designated handicapped",http://www.helpinghandsdaycare.ca,{67543785-D5ED-410F-BAF0-0E6DAAE806FE},,Yes
651053.928,4885687.151,744,Joseph Gould YMCA Child Care Centre,144 Planks Lane,UXBRIDGE,UXBRIDGE,L9P 1M6,(905) 862-2750,,0,18m - 12yrs, 7:00:00AM -  6:00:00PM,Reach St and Franklin,Yes,Wheelchair Accessible Inside and Outside,"Parking On site, designated handicapped",http://www.ymcagta.org,{DD0D7125-3311-4039-A59D-9CE6D3B7966C},,Yes
662469.738,4869682.672,745,St. Bridget YMCA Before and After School,200 Carnwith Drive West,BROOKLIN,WHITBY,L1M 2J8,(289) 928-2274,,0,44m - 12yrs, 7:00:00AM -  6:00:00PM,Carnwith Drive and Ashburn Road,Yes,Wheelchair Accessible Inside and Outside,"Parking On site, designated handicapped",http://www.ymcagta.org,{A4655201-4BED-4255-B2CD-B517883AA083},,Yes
673564.093,4862726.531,747,Clara Hughes Early Learning & Child Care Centre,610 Taylor Avenue,OSHAWA,OSHAWA,L1H 2E7,(905) 404-8012,,0,18m - 12yrs, 6:45:00AM -  6:00:00PM,Wilson Rd and Olive Ave,Yes,Wheelchair Accessible Inside and Outside,"Parking On site, designated handicapped",http://www.durham.ca,{85308BD2-C975-4D5B-864A-6307E37D1C08},,Yes
677709.793,4864757.409,748,Courtice North YMCA Before and After School,1675 Nash Road,COURTICE,CLARINGTON,L1E 2Y4,(289) 927-6734,,0,44m - 12yrs, 7:00:00AM -  6:00:00PM,Trulls Rd and Nash Rd,Yes,Wheelchair Accessible Inside and Outside,"Parking On site, designated handicapped",http://www.ymcagta.org,{CE305D3B-6A17-4180-8C6A-B48A0349652E},,Yes
651632.405,4853657.364,749,Helping Hands Daycare (Pickering),734 Kingston Road Suite 201,PICKERING,PICKERING,L1V 1A8,(905) 837-2273,,1,Infant - 12yrs, 6:30:00AM -  6:00:00PM,Kingston Rd and Whites Rd,Yes,Wheelchair Accessible Inside and Outside,"Parking On site, designated handicapped",http://www.helpinghandsdaycare.ca,{6ED4700A-F426-4E50-B0D3-B043A0B68702},,Yes
653428.262,4854180.893,750,Montessori Casa Private School and Childcare Ltd.,1203 St. Martin's Drive,Pickering,PICKERING,L1W 1M9,(905) 837-0000,,1,18m - 6yrs, 7:30:00AM -  5:30:00PM,Liverpool and Bayly,No,Wheelchair Accessible Outside Only,Parking On site,,{8080D278-61F9-43AF-A108-45CA740B8214},,No
676613.383,4862729.594,751,"Compass ELC, Courtice",78 Glenabby Drive,COURTICE,CLARINGTON,L1E 2B6,(905) 432-7630,,0,Infant - 12yrs, 6:30:00AM -  6:00:00PM,Glenabbey Dr & Prestonvale Rd,Yes,Wheelchair Accessible Inside and Outside,Parking On site,http://www.compasselc.com,{5A0F273F-B3B0-47A8-AE77-245059FF1A7F},,Yes
692702.952,4864753.585,752,"P.R.Y.D.E., St. Francis of Assisi",1774 Rudell Crescent,NEWCASTLE,CLARINGTON,L1B 1E2,(905) 987-5727,,0,30m - 12yrs, 7:00:00AM -  6:00:00PM,Highway 2 and Highway 115,Yes,Wheelchair Accessible Inside and Outside,"Parking On site, designated handicapped",http://www.prydelearningcentres.ca,{74057DFC-322C-4E2E-989F-6570749E806E},,Yes
671018.642,4861007.275,782,"Les Lucioles, Oshawa",362 Hillside Avenue,OSHAWA,OSHAWA,L1J 6L7,(905) 728-1421,,0,Infant - 12yrs, 6:30:00AM -  6:00:00PM,Park Rd and Hillside Ave,Yes,Wheelchair Accessible Inside and Outside,"Parking On site, designated handicapped",http://www.lesluciolesinc.ca,{CA88B189-2BF7-454B-94C8-EF7250F88659},Bilingual,Yes
661907.729,4855202.132,784,"Helping Hands Daycare, Lakeside",60 Ashbury Boulevard,AJAX,AJAX,L1Z 1L3,(905) 427-4122,,1,Infant - 12yrs, 6:30:00AM -  6:15:00PM,Ashbury and Audley,Yes,Wheelchair Accessible Inside and Outside,"Parking On site, designated handicapped",http://www.helpinghandsdaycare.ca,{17C37FE2-EC6A-4C0F-9E6A-2142AF2669E6},,Yes
671698.236,4862717.878,785,Magic Pencils Learning Centre,11 Celina Street,OSHAWA,OSHAWA,L1H 4M9,(905) 436-7474,,1,Infant - 12yrs, 6:00:00AM -  6:00:00PM,Athol St E and King St East,Yes,Wheelchair Accessible Inside and Outside,"Parking On site, designated handicapped",,{116F610E-C88C-4561-A105-C4D94F862166},,Yes
656174.154,4858914.584,787,"P.R.Y.D.E., St. Patrick",280 Delaney Drive,AJAX,AJAX,L1T 3N5,(905) 428-0531,,0,18m - 12yrs, 6:30:00AM -  6:00:00PM,Church Street and Delaney Drive,Yes,Wheelchair Accessible Inside and Outside,"Parking On site, designated handicapped",http://www.prydelearningcentres.ca,{E4193411-A0C4-42F8-9224-2DC9CE6AA956},,Yes
674304.098,4886655.047,788,"Kids' Campus Child Care, Cartwright",10 Alexander Street,BLACKSTOCK,SCUGOG,L0B 1B0,(905) 725-0123,,0,68m - 12yrs, 7:00:00AM -  6:00:00PM,Old Scugog and Alexander,Yes,Wheelchair Accessible Inside and Outside,"Parking On site, designated handicapped",http://www.kidscampus.ca,{60840C24-B4C4-45B7-AB2E-B28717700298},,Yes
649281.551,4885448.223,789,"Stonemoor School Age, Quaker Village",291 Brock Street West Box 664,UXBRIDGE,UXBRIDGE,L9P 1G1,(905) 862-2153,,0,6y - 12yrs, 6:30:00AM -  6:00:00PM,Brock Street and Centre Street,Yes,Wheelchair Accessible Inside and Outside,"Parking On site, designated handicapped",http://www.uxbridge.com/stonemoor,{CC28A9C7-9E23-430C-AFF7-06664A5171B6},,Yes
663464.07,4886547.055,791,S.A. Cawker YMCA School-Age Program,16200 Old Simcoe Road,PORT PERRY,SCUGOG,L9L 1P3,(289) 927-3713,,0,44m - 12yrs, 7:00:00AM -  6:00:00PM,Reach St and Old Simcoe Rd,Yes,Wheelchair Accessible Inside and Outside,"Parking On site, designated handicapped",http://www.ymcagta.org,{F4C8C84C-1CE5-4632-A28E-453FFB239978},,Yes
664978.157,4870200.986,792,St. John Paul II YMCA School Age,160 Cachet Boulevard,BROOKLIN,WHITBY,L1M 2Y9,(289) 927-5836,,0,44m - 12yrs, 7:00:00AM -  6:00:00PM,Thickson and Carnwith Dr E,Yes,Wheelchair Accessible Inside and Outside,"Parking On site, designated handicapped",http://www.ymcagta.org,{37BDC122-A63D-410E-B78D-3CC3F8A3FF80},,Yes
652094.766,4854025.081,794,St. Paul's On The Hill Child Care Centre,882 Kingston Road,PICKERING,PICKERING,L1V 1A8,(905) 839-2501,,0,Infant - 12yrs, 6:45:00AM -  6:15:00PM,Kingston and White's Rd,Yes,Wheelchair Accessible Inside and Outside,Parking On site,http://www.edukids.ca,{6FF01B14-D8D7-426A-A808-4487271B2F83},,Yes
671856.312,4868023.343,795,St. John Bosco YMCA School Age Program,1600 Clearbrook Drive,OSHAWA,OSHAWA,L1K 2P6,(289) 923-1107,,0,44m - 12yrs, 7:00:00AM -  6:00:00PM,Clearbrook Dr and Coldstream Dr,Yes,Wheelchair Accessible Inside and Outside,"Parking On site, designated handicapped",http://www.ymcagta.org,{78BF3D99-7936-4305-8247-11F353502BA7},,Yes
657839.946,4857669.613,796,"Les Lucioles, Ajax",71 Ritchie Avenue,AJAX,AJAX,L1S 5S6,(905) 427-7690,,0,18m - 12yrs, 7:00:00AM -  6:00:00PM,Westney Rd and Ritchie Ave,Yes,Wheelchair Accessible Inside and Outside,"Parking On site, designated handicapped",http://www.lesluciolesinc.ca,{02AADD6D-08F7-4566-9657-94E51D3CF6D1},Bilingual,Yes
666953.875,4864460.397,797,"P.R.Y.D.E., St. Mark",95 Waller Street,WHITBY,WHITBY,L1R 1Z7,(905) 721-1758,,0,18m - 12yrs, 6:30:00AM -  6:00:00PM,Thickson Road and Dryden Blvd.,Yes,Wheelchair Accessible Inside and Outside,"Parking On site, designated handicapped",http://www.prydelearningcentres.ca,{41D52639-150C-4BF6-9B3B-4C0409EF9333},,Yes
669691.298,4861642.933,799,Waverly YMCA Child Care Centre,100 Waverly Street South,OSHAWA,OSHAWA,L1J 5V1,(905) 571-1919,,0,Infant - 12yrs, 7:00:00AM -  6:00:00PM,Stevenson Rd and Waverly St S,Yes,Wheelchair Accessible Inside and Outside,"Parking On site, designated handicapped",http://www.ymcagta.org,{A145361B-F3D8-4A12-B0A5-D3F6F8AA8048},,Yes
655406.764,4858501.378,800,"Schoolhouse Playcare, Eagle Ridge",425 Delaney Drive,AJAX,AJAX,L1T 4N1,(905) 426-9146,,0,44m - 12yrs, 6:30:00AM -  6:30:00PM,Church Street and Delaney Drive,Yes,Wheelchair Accessible Inside and Outside,"Parking On site, designated handicapped",http://www.schoolhouseplaycare.ca,{CA2B28E7-F367-457D-AA3C-58C80BE49EE7},,Yes
649894.996,4870747.375,801,Me and My Friends Child Care,5067 Old Brock Road,CLAREMONT,PICKERING,L1Y 1B3,(905) 408-0123,,1,Infant - 12yrs, 6:45:00AM -  6:00:00PM,Central St and Brock Road,Yes,Wheelchair Accessible Not accessible,Parking On site,http://www.meandmyfriendschildcare.com,{52D20C94-4DBE-46C6-AEE4-8223E8251627},,Yes
694089.246,4865022.374,802,Newcastle YMCA Child Care Centre,50 Glass Court,NEWCASTLE,CLARINGTON,L1B 1M5,(905) 987-5305,,0,18m - 12yrs, 6:45:00AM -  6:00:00PM,Mill St and Edward,Yes,Wheelchair Accessible Not accessible,Parking On site,http://www.ymcagta.org,{49AD383B-380C-4B70-AE69-60FF84E268B2},,Yes
674284.402,4885977.353,803,Blackstock Co-Operative Nursery School,3440 Church Street P.O. Box 11,BLACKSTOCK,SCUGOG,L0B 1B0,(905) 986-4585,,0,30m - 5yrs, 9:00:00AM - 11:30:00AM,Church St and Old Scugog Rd,No,Wheelchair Accessible Inside and Outside,Parking On site,http://www.blackstocknurseryschool.ca,{549CCB21-69D4-4B32-AE79-D53729115D8D},,Yes
667450.395,4861270.836,804,Learning Jungle Thickson,1525 Dundas Street East,WHITBY,WHITBY,L1N 2K4,(905) 666-4700,,1,Infant - 6yrs, 7:00:00AM -  6:00:00PM,Thickson and Dundas St E,Yes,Wheelchair Accessible Inside and Outside,"Parking On site, designated handicapped",http://www.learningjungle.com,{CF863DB8-D953-4BB2-9F22-9D2D1B91B179},,Yes
652061.42,4852710.446,805,Colwell Nursery School and Kindergarten,755 Oklahoma Drive,PICKERING,PICKERING,L1W 2H4,(905) 839-0074,,1,18m - 12yrs, 7:00:00AM -  6:00:00PM,Whites Road and Hwy 401,Yes,Wheelchair Accessible Inside and Outside,"Parking On site, designated handicapped",http://www.colwellnurseryschool.com,{8BA6E308-9F5D-43A5-BEFD-DFE2F7C38331},,Yes
656503.753,4857597.114,807,The Elephant Room,545A Kingston Road West,AJAX,AJAX,L1S 6M1,(905) 683-8399,,1,Infant - 12yrs, 7:00:00AM -  6:00:00PM,Kingston Rd W and Church St,Yes,Wheelchair Accessible Inside and Outside,Parking On site,http://www.theelephantroomdaycare.com,{830B42EC-F6E3-470D-9304-E98EBECEE85F},,Yes
673703.06,4858904.771,808,Babies 'N' Blocks,1400 Ritson Road South,OSHAWA,OSHAWA,L1J 6N5,(905) 432-2632,,1,Infant - 12yrs, 6:00:00AM -  6:00:00PM,Valley Drive and Simcoe,Yes,Wheelchair Accessible Inside and Outside,"Parking On site, designated handicapped",http://www.babiesnblocks.ca,{F999EDF7-50B1-44EF-AE97-1D34EC8BDF0D},,Yes
650790.949,4888641.588,838,"Stonemoor Day Care, Uxbridge",763 Davis Drive,UXBRIDGE,UXBRIDGE,L9P 1R3,(905) 852-3510,,0,18m - 5yrs, 6:30:00AM -  6:00:00PM,Durham Road 1 and Davis Drive,Yes,Wheelchair Accessible Not accessible,Parking On site,http://www.uxbridge.com/stonemoor,{93BE63AD-DD41-4DD9-B1FE-3A633BD2B3ED},,Yes
673236.451,4858741.563,839,Lakewoods Early Learning & Child Care Centre,353 Chaleur Avenue,OSHAWA,OSHAWA,L1J 1G5,(905) 725-1425,,0,18m - 12yrs, 7:00:00AM -  6:00:00PM,Phillip Murray and Cedar St,Yes,Wheelchair Accessible Inside and Outside,"Parking On site, designated handicapped",http://www.durham.ca,{AAF633E6-29A8-4CFC-91DD-0DFC83121A84},,Yes
673884.894,4862278.204,840,Evangel Day Care Centre,374 Farewell Avenue,OSHAWA,OSHAWA,L1H 6M2,(905) 725-3191,,0,18m - 12yrs, 6:00:00AM -  6:00:00PM,Olive & Harmony,Yes,Wheelchair Accessible Not accessible,Parking On site,http://www.evangeldaycare.ca,{1B6CB141-928B-42AB-8E6B-E731A6575FC4},,Yes
660074.234,4858789.972,841,"The Apple Tree Preschool & Learning Centre, Ajax",365 Kingston Road East,AJAX,AJAX,L1Z 1W3,(905) 655-7205,,1,Infant - 12yrs, 6:30:00AM -  6:30:00PM,Salem and Kingston Rd,Yes,Wheelchair Accessible Inside and Outside,"Parking On site, designated handicapped",http://www.theappletreepreschool.com,{6A546655-8DDB-4667-8395-6C69EB82836D},,Yes
649753.099,4853219.745,842,St. Monica YMCA School Age Program,275 Twyn Rivers Drive,PICKERING,PICKERING,L1V 1E3,(289) 923-1382,,0,44m - 12yrs, 7:00:00AM -  6:00:00PM,Twyn Rivers Dr and Altona Rd,Yes,Wheelchair Accessible Inside and Outside,"Parking On site, designated handicapped",http://www.ymcagta.org,{3738820C-2F1E-4C6B-9373-96913DC3D63D},,Yes
684076.46,4863554.53,844,"Compass ELC, Bowmanville Holy Family",125 Aspen Springs Drive,BOWMANVILLE,CLARINGTON,L1C 0C6,(905) 697-3030,,0,Infant - 12yrs, 7:00:00AM -  6:00:00PM,Aspens Spring Dr and West Side Dr,Yes,Wheelchair Accessible Inside and Outside,"Parking On site, designated handicapped",http://www.compasselc.com,{6A9DB657-1D0C-4C67-AD50-4053EC23EA7E},,Yes
659225.888,4854342.756,846,"P.R.Y.D.E., Duffin's Bay",66 Pittman Crescent,AJAX,AJAX,L1S 3G3,(905) 626-5351,,0,44m - 12yrs, 7:00:00AM -  6:00:00PM,Harwood Avenue and Clover Ridge,Yes,Wheelchair Accessible Inside and Outside,"Parking On site, designated handicapped",http://www.prydelearningcentres.ca,{9AD9A3A3-C2BB-49E2-9A0A-9DF8D517816D},,Yes
663812.529,4885051.413,847,R.H. Cornish YMCA Before and After School Program,494 Queen Street,PORT PERRY,SCUGOG,L1L 1K2,(905) 904-0432,,0,44m - 12yrs, 7:00:00AM -  6:00:00PM,Queen St and Simcoe St,Yes,Wheelchair Accessible Inside and Outside,"Parking On site, designated handicapped",http://www.ymcagta.org,{8665D6DD-A83B-4985-97EE-FE9C0C2962AF},,Yes
685258.99,4867363.457,848,"EduKids Child Care, Bowmanville",2665 Concession Road 3,BOWMANVILLE,CLARINGTON,L1C 3K6,(905) 697-8522,,1,Infant - 12yrs, 6:30:00AM -  6:15:00PM,Liberty Street and Concession Rd 3,Yes,Wheelchair Accessible Inside and Outside,"Parking On site, designated handicapped",http://www.edukids.ca,{BCF5CD14-A703-4271-AD9F-0718E4B9A1A1},,Yes
664278.144,4870616.026,849,"Schoolhouse Playcare, Brooklin Village",25 Selkirk Drive,BROOKLIN,WHITBY,L1M 2L5,(905) 655-5600,,0,18m - 12yrs, 6:30:00AM -  6:30:00PM,Baldwin and Columbus,Yes,Wheelchair Accessible Inside and Outside,"Parking On site, designated handicapped",http://www.schoolhouseplaycare.ca,{0E2B42FD-692F-4963-B5B4-DD594D779FB3},,Yes
685540.395,4864859.099,850,Edna Thomson Early Learning & Child Care Centre,410 North Scugog Court,BOWMANVILLE,CLARINGTON,L1C 3K2,(905) 623-6717,,0,18m - 7yrs, 7:00:00AM -  6:00:00PM,Conc Rd 3 & Reg Rd 57,Yes,Wheelchair Accessible Not accessible,Parking On site,http://www.durham.ca,{7DC88C19-4146-402A-ACFC-E1795D63BED7},,Yes
677026.499,4862507.33,851,Dr. G.J. MacGillivray YMCA School Age Program,75 Meadowglade Road,COURTICE,CLARINGTON,L1E 3D7,(905) 243-1049,,0,44m - 12yrs, 7:00:00AM -  6:00:00PM,Prestonvale and Bloor,Yes,Wheelchair Accessible Inside and Outside,"Parking On site, designated handicapped",http://www.ymcagta.org,{B5824109-1C30-48DC-98E0-7A623BC77778},,Yes
664681.021,4863576.644,852,St. Matthew YMCA Child Care Centre,60 Willowbrook Drive,WHITBY,WHITBY,L1R 1S6,(905) 430-1747,,0,18m - 12yrs, 6:45:00AM -  6:00:00PM,Brock and Rossland Road,Yes,Wheelchair Accessible Inside and Outside,"Parking On site, designated handicapped",http://www.ymcagta.org,{AB80AABC-F19C-4514-AEEC-6F12F37BA922},,Yes
663922.876,4869002.389,853,Brooklin Day Nursery,14 Church Street,WHITBY,WHITBY,L1M 1A5,(905) 655-3864,,0,Infant - 12yrs, 7:00:00AM -  6:00:00PM,Winchester Rd (#7) and Hwy #12,Yes,Wheelchair Accessible Not accessible,Parking On site,,{89487718-2A03-4F75-A19F-9ED78D34B9D2},,Yes
663777.626,4869050.616,854,Brooklin Mill Montessori School Inc.,25 Cassels Road East,BROOKLIN,WHITBY,L1M 1A4,(905) 655-0656,,1,Infant - 6yrs, 7:00:00AM -  6:00:00PM,Baldwin St N and Winchester Rd E,No,Wheelchair Accessible Inside and Outside,Parking On site,http://www.brooklinmillmontessori.ca,{308596DF-B5C7-428B-8E42-FB321E8E4E7D},,No
665455.424,4860736.156,855,Perry House Child Care Services,129 Perry Street,WHITBY,WHITBY,L1N 4B7,(905) 668-9476,,0,Infant - 12yrs, 6:30:00AM -  6:30:00PM,Brock St and Dundas St E,Yes,Wheelchair Accessible Not accessible,Parking Street Parking,http://www.perryhouse.org,{EF5F8A2C-0858-4C76-8BF8-746B821BB7AC},,Yes
667835.873,4863096.751,856,St. Paul YMCA Before & After School (Nursery School),200 Garrard Road,WHITBY,WHITBY,L1N 3K6,(905) 576-8998,,0,30m - 12yrs, 7:00:00AM -  6:00:00PM,Garrard Rd and Rossland Rd,Yes,Wheelchair Accessible Inside and Outside,"Parking On site, designated handicapped",http://www.ymcagta.org,{2E754C4C-F503-4909-96A5-212EE3EDCE52},,Yes
675811.728,4861844.736,857,Royal Bear Childcare Centre,701 Grandview Street North Unit 1-2B,OSHAWA,OSHAWA,L1K 0N2,(289) 240-9188,,1,Infant - 7yrs, 6:30:00AM -  6:00:00PM,Rossland Rd E and Harmony,Yes,Wheelchair Accessible Inside and Outside,"Parking On site, designated handicapped",http://www.royalbearchildcare.com,{7DEBFBB8-CFE2-4856-A2AA-99B649703EF1},,Yes
673755.257,4864200.358,858,Vincent Massey Oshawa Before and After School Program,211 Harmony Road North,OSHAWA,OSHAWA,L1G 6L4,(905) 436-3663,,0,44m - 12yrs, 6:30:00AM -  6:00:00PM,Harmony Rd and Adelaide,Yes,Wheelchair Accessible Inside and Outside,"Parking On site, designated handicapped",http://www.umbrelladaycare.com,{963F6478-3B4B-46CA-A0D9-5D7215A298A6},,Yes
665301.1,4864353.178,859,"Schoolhouse Playcare, Fallingbrook",155 Fallingbrook Street,WHITBY,WHITBY,L1R 2G2,(905) 665-5896,,0,44m - 12yrs, 7:00:00AM -  6:00:00PM,Taunton Road and Anderson,Yes,Wheelchair Accessible Inside and Outside,"Parking On site, designated handicapped",http://www.schoolhouseplaycare.ca,{42659AC3-A9CD-4CD3-BC23-43804835D491},,Yes
668217.411,4860624.299,860,Bellwood Before and After School Program,30 Bellwood Drive,WHITBY,WHITBY,L1N 8M4,(905) 240-4904,,0,44m - 12yrs, 6:30:00AM -  6:00:00PM,Thickson and Bellwood Dr,Yes,Wheelchair Accessible Inside and Outside,"Parking On site, designated handicapped",http://www.umbrelladaycare.com,{9265B7B4-C75F-44ED-96BD-C470F316287A},,Yes
657947.768,4858927.911,861,"P.R.Y.D.E., St. Jude",68 Coles Avenue,AJAX,AJAX,L1T 3H5,(905) 428-9732,,0,30m - 12yrs, 6:30:00AM -  6:00:00PM,Westney Road and Highway 2,Yes,Wheelchair Accessible Inside and Outside,"Parking On site, designated handicapped",http://www.prydelearningcentres.ca,{26A8F76E-F696-492C-802E-885FDB26EAB9},,Yes
671467.59,4867723.381,862,"Kids' Campus Child Care, Sherwood",633 Ormond Drive,OSHAWA,OSHAWA,L1K 2W6,(905) 626-7037,,0,44m - 12yrs, 6:30:00AM -  6:30:00PM,Wilson and Ormond,Yes,Wheelchair Accessible Inside and Outside,"Parking On site, designated handicapped",http://www.kidscampus.ca,{9B374895-E9D0-4F8A-8502-302B0E43F950},,Yes
653734.841,4857912.916,863,"Schoolhouse Playcare, Valley Farm",1615 Pepperwood Gate,PICKERING,PICKERING,L1X 2K5,(905) 686-2489,,0,18m - 12yrs, 6:45:00AM -  6:30:00PM,Brock Rd and Finch Ave,Yes,Wheelchair Accessible Inside and Outside,"Parking On site, designated handicapped",http://www.schoolhouseplaycare.ca,{BD6AFE5A-2B22-4726-B823-F8AA95BD5186},,Yes
665902.378,4863389.861,865,"Schoolhouse Playcare, Glen Dhu",29 Fallingbrook Street,WHITBY,WHITBY,L1R 1M7,(905) 430-1898,,0,18m - 12yrs, 6:30:00AM -  6:30:00PM,Rossland Rd and Anderson Rd,Yes,Wheelchair Accessible Inside and Outside,"Parking On site, designated handicapped",http://www.schoolhouseplaycare.ca,{4A41C9E0-2D9D-4852-B4B6-D488038D9A47},,Yes
664278.133,4868931.214,866,St. Thomas' Child Care Centre,"101 Winchester Road East, PO Box 274",BROOKLIN,WHITBY,L1M 1B5,(905) 655-6226,,0,Infant - 12yrs, 6:30:00AM -  6:30:00PM,Winchester Road and Anderson,Yes,Wheelchair Accessible Inside and Outside,"Parking On site, designated handicapped",http://www.edukids.ca,{109E3509-17FB-4E42-902E-B92DF3AEA0CE},,Yes
652039.007,4853850.056,867,Bayfair Daycare,817 Kingston Road,PICKERING,PICKERING,L1V 1A9,(905) 839-1842,,0,Infant - 12yrs, 6:30:00AM -  6:00:00PM,Whites Rd and Kingston Rd,Yes,Wheelchair Accessible Outside Only,"Parking On site, designated handicapped",http://www.bayfairdaycare.com,{927D2422-9EEE-4540-81D1-5CA882579F69},,Yes
655199.767,4865507.1,868,"Stonemoor School Age, Valley View",3530 Westney Road North,GREENWOOD,PICKERING,L0H 1H0,(416) 458-2114,,0,44m - 12yrs, 6:30:00AM -  6:00:00PM,Hwy 7 and Westney Road,Yes,Wheelchair Accessible Inside and Outside,"Parking On site, designated handicapped",http://www.uxbridge.com/stonemoor,{015DE715-14D4-4376-AF2D-CE9F2FB10F85},,Yes
658067.889,4861654.051,869,"P.R.Y.D.E., St. Josephine Bakhita",51 Williamson Drive East,AJAX,AJAX,L1T 0A9,(905) 426-1151,,0,Infant - 12yrs, 7:00:00AM -  6:00:00PM,Salem and Taunton,Yes,Wheelchair Accessible Inside and Outside,"Parking On site, designated handicapped",http://www.prydelearningcentres.ca,{9A994722-8A3F-491D-B740-F20B609BE811},,Yes
652689.727,4854553.461,870,Bridges Kinder Connection,1066 Dunbarton Road,PICKERING,PICKERING,L1V 1G8,(905) 831-9161,,1,Infant - 12yrs, 6:45:00AM -  6:00:00PM,Hwy #2 and Dixie Rd,Yes,Wheelchair Accessible Inside and Outside,Parking On site,http://www.bridgeskinderconnection.com,{67B31F99-7DBD-480E-8BFE-0D52BD69391A},,Yes
672693.646,4863966.832,871,Coronation YMCA Before and After School,445 Adelaide Ave E,OSHAWA,OSHAWA,L1G 2A4,(289) 927-3798,,0,44m - 12yrs, 7:00:00AM -  6:00:00PM,Central Park Blvd N and Adelaide Ave E,Yes,Wheelchair Accessible Inside and Outside,"Parking On site, designated handicapped",http://www.ymcagta.org,{10D24220-FB8B-4B99-A040-21F63F4BCDFB},,Yes
656074.175,4857385.857,872,St. George's School & Day Care Centre,77 Randall Drive,AJAX,AJAX,L1S 6L4,(905) 683-0545,,0,Infant - 12yrs, 6:45:00AM -  6:15:00PM,Church Street and Kingston Road,Yes,Wheelchair Accessible Inside and Outside,"Parking On site, designated handicapped",http://www.edukids.ca,{F6352225-EE32-4CB5-95F2-01FEF9BF77AB},,Yes
666953.501,4861317.735,874,"Fairy Glen Day Care, St. Theresa",173 Crawforth Street North,WHITBY,WHITBY,L1N 3S4,(905) 666-3154,,0,Infant - 12yrs, 7:00:00AM -  6:00:00PM,Anderson and Highway 2,Yes,Wheelchair Accessible Inside and Outside,"Parking On site, designated handicapped",http://www.fairyglendaycare.com,{819D7D8A-1909-4858-B6BB-1C27CA774E7E},,Yes
671627.063,4860157.35,875,Park Child Care Centre,795 Park Road South,OSHAWA,OSHAWA,L1J 4J9,(905) 433-0600,,1,18m - 7yrs, 6:00:00AM -  6:00:00PM,Park Rd S and Bloor St W,Yes,Wheelchair Accessible Outside Only,Parking On site,http://www.parkchildcare.ca,{4586641F-C74B-43B9-BBE3-645E8A3ADC05},,Yes
652479.339,4854356.682,876,"Muppets Children's Centre, Pickering",986 Dunbarton Road,PICKERING,PICKERING,L1V 1G8,(905) 420-3211,,1,18m - 13yrs, 6:45:00AM -  6:00:00PM,Kingston Rd and Fairport Rd,Yes,Wheelchair Accessible Not accessible,Parking On site,http://www.victoriavillage.com,{50097B9C-7C4B-44A0-A8DB-42C14C161C5F},,Yes
657059.44,4858811.922,877,Jubilee Childcare Centre,31 Brennan Road,AJAX,AJAX,L1T 2G2,(905) 239-9556,,1,Infant - 12yrs, 7:30:00AM -  6:00:00AM,Westney Rd and Kingston Road,Yes,Wheelchair Accessible Outside Only,"Parking On site, designated handicapped",http://www.jubileechildcare.ca,{41394CE3-B8DF-4BB7-9082-EFF2B3F198F1},,No
685203.343,4866557.035,878,St. Elizabeth YMCA School Age Program,610 Longworth Avenue,BOWMANVILLE,CLARINGTON,L1C 5B8,(289) 927-2921,,0,44m - 12yrs, 7:00:00AM -  6:00:00PM,Liberty St N and Longworth Ave,Yes,Wheelchair Accessible Inside and Outside,"Parking On site, designated handicapped",http://www.ymcagta.org,{E76832BE-8EE2-4CA8-A152-CA63A4BD7480},,Yes
667261.816,4859531.853,879,Kendalwood Montessori School,104 Consumers Drive,WHITBY,WHITBY,L1N 5T3,(905) 665-4766,,1,Infant - 5yrs, 7:00:00AM -  6:00:00PM,Brock and Consumers Dr,No,Wheelchair Accessible Inside and Outside,Parking On site,http://www.kendalwoodmontessori.com,{1AE66F7D-E3EF-4DD4-9F05-3D3298599CF2},,No
657081.914,4860752.517,880,St. Andre Besette YMCA Before and After School,60 Seggar Avenue,AJAX,AJAX,L1T 4Y4,(289) 200-3217,,0,44m - 12yrs, 7:00:00AM -  6:00:00PM,Westney and Seggar Ave,Yes,Wheelchair Accessible Inside and Outside,"Parking On site, designated handicapped",http://www.ymcagta.org,{6C4B02C7-AEDF-4B9A-9685-77617AD852BB},,Yes
684614.767,4863206.614,881,Dr. Ross Tilley YMCA Child Care Centre,45 Westside Drive,BOWMANVILLE,CLARINGTON,L1C 4Y8,(905) 697-3171,,0,30m - 12yrs, 7:00:00AM -  6:00:00PM,Baseline and Waverly,Yes,Wheelchair Accessible Inside and Outside,Parking On site,http://www.ymcagta.org,{865D6EDB-E2C3-4B5D-9148-43FF6F047FB0},,Yes
655847.65,4912055.856,882,"Stonemoor, McCaskill's Mills",85 Albert Street,CANNINGTON,BROCK,L0E 1E0,(705) 432-8800,,0,Infant - 12yrs, 6:15:00AM -  6:00:00PM,Cameron St and Albert St,Yes,Wheelchair Accessible Inside and Outside,"Parking On site, designated handicapped",http://www.uxbridge.com/stonemoor,{65D232C7-AFEC-4244-8E6B-FEC21574317C},,Yes
658938.878,4856001.626,883,Ajax Early Learning & Child Care Centre,22 Centennial Road,AJAX,AJAX,L1S 3K4,(905) 683-4001,,0,Infant - 6yrs, 7:00:00AM -  6:00:00PM,Bayly St and Monarch Rd,Yes,Wheelchair Accessible Inside and Outside,Parking On site,http://www.durham.ca,{1B2667DE-D9C5-43D3-A9FE-67243772ED65},,Yes
670476.964,4868588.552,884,Kedron YMCA Child Care Centre,1935 Ritson Road North,OSHAWA,OSHAWA,L1H 7K5,(905) 720-2727,,0,30m - 12yrs, 6:45:00AM -  6:00:00PM,Conlin Rd and Ritson Rd N,Yes,Wheelchair Accessible Inside and Outside,"Parking On site, designated handicapped",http://www.ymcagta.org,{B0C0D654-BFE4-4595-8E93-5FF7176B4DFD},,Yes
663150.015,4863142.979,885,St. Luke YMCA Before and After School,55 Twin Streams Road,WHITBY,WHITBY,L1P 1N9,(905) 904-0545,,0,44m - 12yrs, 7:00:00AM -  6:00:00PM,Twin Streams Rd and Cochrane St,Yes,Wheelchair Accessible Inside and Outside,"Parking On site, designated handicapped",http://www.ymcagta.org,{57322C17-B7F9-47A1-835B-57FD038E3486},,Yes
660121.666,4857455.987,886,"EduKids Child Care, Salem",255 Salem Road #10-13,AJAX,AJAX,L1Z 0B1,(905) 426-5515,,1,Infant - 12yrs, 6:45:00AM -  6:15:00PM,Salem and Hwy 401,Yes,Wheelchair Accessible Inside and Outside,"Parking On site, designated handicapped",http://www.edukids.ca,{FE6C983C-68D1-4658-A216-95F29DD0F433},,Yes
669934.466,4863403.468,887,St. Christopher YMCA School Age Program,431 Annapolis Avenue,OSHAWA,OSHAWA,L1J 2Y5,(289) 928-2711,,0,44m - 12yrs, 7:00:00AM -  6:00:00PM,Annapolis Ave and Gibbons St,Yes,Wheelchair Accessible Inside and Outside,"Parking On site, designated handicapped",http://www.ymcagta.org,{DCE76996-358D-4B96-917C-FC754694E0CB},,Yes
649407.905,4854490.229,888,Montessori Mantra,1884 Altona Road,PICKERING,PICKERING,L1V 1M7,(905) 509-4773,,1,Infant - 6yrs, 7:00:00AM -  6:00:00PM,Altona and Sheppard,No,Wheelchair Accessible Inside Only,"Parking On site, designated handicapped",http://www.montessorimantra.com,{9758A80A-E2C7-4BD6-B85A-06645C12DF5D},,No
659079.728,4856314.974,889,"EduKids Child Care, Bayly",75 Bayly Street West,AJAX,AJAX,L1S 7K7,(905) 427-1112,,1,Infant - 12yrs, 6:45:00AM -  6:15:00PM,Harwood and Bayly,Yes,Wheelchair Accessible Inside and Outside,"Parking On site, designated handicapped",http://www.edukids.ca,{B6A10CA9-454B-4525-9F92-79D3ADB5CDC0},,Yes
664742.093,4863797.261,890,"Schoolhouse Playcare, Ormiston",20 Forest Heights Street,WHITBY,WHITBY,L1R 1T5,(905) 430-3346,,0,18m - 12yrs, 6:30:00AM -  6:30:00PM,Taunton Rd and Garden St,Yes,Wheelchair Accessible Inside and Outside,"Parking On site, designated handicapped",http://www.schoolhouseplaycare.ca,{D05994D7-A286-49C2-8A0A-730292DE6857},,Yes
657948.709,4862209.255,891,"Smart Start Montessori & Childcare, Middlecote",81 Middlecote Drive,AJAX,AJAX,L1T 0K3,(905) 686-5000,,1,Infant - 12yrs, 6:30:00AM -  6:30:00PM,Salem and Taunton,Yes,Wheelchair Accessible Inside and Outside,"Parking On site, designated handicapped",http://www.smartstartlearningdaycares.com,{6DA9F072-C655-45E7-9A6F-FE7DD1FF108E},,Yes
670991.959,4864564.64,892,Dr. SJ Phillips YMCA Before and After School,625 Simcoe Street North,OSHAWA,OSHAWA,L1G 4V5,(289) 928-0423,,0,44m - 12yrs, 7:00:00AM -  6:00:00PM,Simcoe St N and Rossland Rd,Yes,Wheelchair Accessible Inside and Outside,"Parking On site, designated handicapped",http://www.ymcagta.org,{7B674E20-D453-4EE8-9259-7480801D56C2},,Yes
651190.968,4855469.042,895,Gandatsetiagon Before and After School Age Program,1868 Parkside Drive,PICKERING,PICKERING,L1W 2H7,(905) 420-6419,,0,44m - 12yrs, 6:30:00AM -  6:30:00PM,Finch Ave & Whites Road,Yes,Wheelchair Accessible Inside and Outside,"Parking On site, designated handicapped",http://www.umbrelladaycare.com,{590E6A88-3D37-473E-883C-84639EA81F2B},,Yes
663922.53,4869100.307,896,Village of Brooklin Co-operative Playschool,45 Cassels Road E,BROOKLIN,WHITBY,L1M 1A4,(437) 223-8608,,0,30m - 5yrs, 9:00:00AM -  3:30:00PM,Winchester and Baldwin,Yes,Wheelchair Accessible Inside Only,"Parking On site, designated handicapped",http://www.vbcplayschool.ca,{C2218E24-B45F-4ACF-BAD4-19D95CCDBECE},,Yes
675998.503,4864255.756,898,S.T. Worden Before and After School Program,1462 Nash Road,COURTICE,CLARINGTON,L1E 1S7,(905) 240-5255,,0,44m - 12yrs, 7:00:00AM -  6:00:00PM,Nash Road and Townline Road,Yes,Wheelchair Accessible Inside and Outside,"Parking On site, designated handicapped",http://www.umbrelladaycare.com,{F4BBC989-37C3-4BEC-919D-0316A0BB2F22},,Yes
658619.912,4854215.543,900,"P.R.Y.D.E., Lakeside",4 Parkes Drive,AJAX,AJAX,L1S 4X1,(905) 622-5260,,0,44m - 12yrs, 7:00:00AM -  6:00:00PM,Findley Ave and Parkes Ave,Yes,Wheelchair Accessible Inside and Outside,"Parking On site, designated handicapped",http://www.prydelearningcentres.ca,{AB712E0F-E067-4CDD-BF3D-262C9A294E04},,Yes
659939.123,4858358.252,901,"Schoolhouse Playcare, Cadarackque",15 Miles Drive,AJAX,AJAX,L1Z 1C7,(905) 428-3331,,0,18m - 12yrs, 6:30:00AM -  6:00:00PM,Highway 2 and Salem Rd,Yes,Wheelchair Accessible Inside and Outside,"Parking On site, designated handicapped",http://www.schoolhouseplaycare.ca,{42D3E6A6-BB82-47E7-9176-989C25E081E0},,Yes
685963.375,4866981.504,902,"Compass ELC, Harold Longworth",350 Longworth Avenue,BOWMANVILLE,CLARINGTON,L1C 5J5,(905) 429-9687,,0,44m - 12yrs, 6:30:00AM -  6:00:00PM,Longworth Ave and Brooking Street,Yes,Wheelchair Accessible Inside and Outside,"Parking On site, designated handicapped",http://www.compasselc.com,{75179634-06F8-41C5-9175-5D81E96BC850},,Yes
664034.076,4885255.277,904,Where We Grow Early Learning Centre,399 Queen Street,PORT PERRY,SCUGOG,L9L 1L4,(905) 985-0800,,1,18m - 6yrs, 6:30:00AM -  6:00:00PM,Rosa St and Queen St,No,Wheelchair Accessible Outside Only,Parking On site,http://www.wherewegrow.com,{223CC6DA-A8B6-47A7-A0B5-3686C8E7682E},,No
678451.226,4864476.686,905,"Helping Hands Daycare, Courtice",2727 Courtice Road Suite 201,COURTICE,CLARINGTON,L1E 3A2,(905) 721-0101,,1,Infant - 6yrs, 6:15:00AM -  6:30:00PM,Highway 2 and Courtice,Yes,Wheelchair Accessible Outside Only,"Parking On site, designated handicapped",http://www.helpinghandsdaycare.ca,{D6D07A76-3BFF-4893-AF4A-1FB98FC00D38},,Yes
659245.073,4860942.944,908,Tender Years Child Care Centre 2,"338 Rossland Road East, Unit 5",AJAX,AJAX,L1Z 0L9,(905) 683-2559,,1,Infant - 12yrs, 6:30:00AM -  6:30:00PM,Rossland and Salem,Yes,Wheelchair Accessible Inside and Outside,Parking On site,http://www.tenderyearschildcare.ca,{CFA62179-8305-41F2-B930-3B027392B887},,Yes
673271.681,4858786.598,909,Lakewoods ELCC Before and After School,323 Chaleur Avenue,OSHAWA,OSHAWA,L1J 1G5,(905) 725-1425,,0,44m - 12yrs, 6:30:00AM -  6:00:00PM,Cedar St and Phillip Murray Ave,Yes,Wheelchair Accessible Inside and Outside,"Parking On site, designated handicapped",http://www.durham.ca,{30E80E82-4F35-477D-883A-8824AFE14AFE},,Yes
658597.906,4857870.042,910,Lord Elgin Preschool and School Age Program,24 Ontario Street,AJAX,AJAX,L1S 1T6,(905) 427-7780,,0,30m - 12yrs, 6:30:00AM -  6:00:00PM,Harwood and Highway 2,Yes,Wheelchair Accessible Inside and Outside,"Parking On site, designated handicapped",http://www.umbrelladaycare.com,{A8144B99-2793-42BD-B450-4230F2412FC8},,Yes
663477.098,4886414.819,911,The Children's House Montessori School,16150 Old Simcoe Road,PORT PERRY,SCUGOG,L9L 1P3,(905) 985-3431,,1,18m - 12yrs, 7:00:00AM -  6:00:00PM,Reach St and Old Simcoe Rd,Yes,Wheelchair Accessible Inside and Outside,Parking On site,http://www.childrenshouse.ca,{20597394-5A46-4B8E-9021-D55A4DFD85BC},,Yes
656755.96,4912449.476,912,"Stonemoor Nursery School, Cannington",91 Elliot Street,CANNINGTON,BROCK,L0E 1E0,(705) 340-8986,,0,30m - 6yrs, 9:30:00AM - 11:30:00AM,Cameron St and Elliot St,Yes,Wheelchair Accessible Inside and Outside,"Parking On site, designated handicapped",http://www.uxbridge.com/stonemoor,{3020071A-4816-4140-9CE5-CADDD7941BB5},,Yes
685195.004,4863935.257,913,Happy Apple Children's Centre,104 Waverly Road Unit 206,BOWMANVILLE,CLARINGTON,L1C 3W9,(905) 623-8607,,1,30m - 12yrs, 5:30:00AM -  6:00:00PM,Hwy 401 and Waverly,Yes,Wheelchair Accessible Not accessible,"Parking On site, designated handicapped",,{2CE4F884-8621-41AD-8BD7-52E9A40A6C7F},,Yes
685358.089,4863565.325,914,Waverley Before & After School Age Program,168 Waverley Road,BOWMANVILLE,CLARINGTON,L1C 3Y8,(905) 697-3475,,0,44m - 12yrs, 6:30:00AM -  6:00:00PM,Waverley Road and Hwy 57,Yes,Wheelchair Accessible Inside and Outside,"Parking On site, designated handicapped",http://www.umbrelladaycare.com,{E3EBF847-C549-4E8D-AECB-EA9C9565BE63},,Yes
650245.057,4854313.672,915,St. Elizabeth Seton YMCA Child Care Centre,490 Strouds Lane,PICKERING,PICKERING,L1V 6W7,(905) 831-9724,,0,18m - 12yrs, 7:00:00AM -  6:00:00PM,Whites Rd and Strouds Lane,Yes,Wheelchair Accessible Inside Only,"Parking On site, designated handicapped",http://www.ymcagta.org,{E854191F-1CE1-4FB0-AB9B-6751D9C93821},,Yes
656227.566,4857877.866,916,"Schoolhouse Playcare, Lincoln Alexander",95 Church Street North,AJAX,AJAX,L1T 2W4,(905) 619-3627,,0,18m - 12yrs, 6:45:00AM -  6:15:00PM,Highway 2 and Church Street,Yes,Wheelchair Accessible Inside and Outside,"Parking On site, designated handicapped",http://www.schoolhouseplaycare.ca,{DF238A00-9B7C-446E-82A9-DA45A34859BF},,Yes
664790.359,4869056.748,917,"Helping Hands Daycare, Brooklin","5959 Anderson Street, Unit 2A",BROOKLIN,WHITBY,L1M 2E9,(905) 655-3522,,1,Infant - 6yrs, 6:30:00AM -  6:30:00PM,Anderson and Winchester,Yes,Wheelchair Accessible Inside and Outside,"Parking On site, designated handicapped",http://www.helpinghandsdaycare.ca,{3D749A85-373F-481B-835E-AED863672D02},,Yes
654401.907,4858139.242,918,"Les Lucioles, Pickering",2235 Brock Road,PICKERING,PICKERING,L1V 2P8,(905) 683-3553,,0,18m - 12yrs, 6:30:00AM -  6:00:00PM,Brock and Taunton Rd,Yes,Wheelchair Accessible Inside and Outside,"Parking On site, designated handicapped",http://www.lesluciolesinc.ca,{702CB813-1102-4455-AC0A-50CBA91F59C3},Bilingual,Yes
658261.727,4861845.127,919,"Kids' Campus Child Care, Da Vinci",61 Williamson Drive East,AJAX,AJAX,L1T 0A9,(905) 259-5248,,0,44m - 12yrs, 7:00:00AM -  6:30:00PM,Taunton Road and Williamson Dr,Yes,Wheelchair Accessible Inside and Outside,"Parking On site, designated handicapped",http://www.kidscampus.ca,{4BE0335B-8269-4311-B9E9-C16FC1B3B677},,Yes
652675.229,4855576.815,920,Vaughan Willard YMCA Child Care,1911 Dixie Road North,PICKERING,PICKERING,L1V 1V4,(905) 839-3007,,0,30m - 12yrs, 7:00:00AM -  6:00:00PM,Dixie and Glenanna,Yes,Wheelchair Accessible Inside and Outside,"Parking On site, designated handicapped",http://www.ymcagta.org,{56FA2424-FD67-4372-9418-0C6FABEC6BBA},,Yes
663019.904,4861271.703,921,Colonel JE Farewell YMCA Before & After School Program,810 McQuay Boulevard,WHITBY,WHITBY,L1P 1J1,(289) 830-2437,,0,44m - 12yrs, 7:00:00AM -  6:00:00PM,McQuay and Michael Blvd,Yes,Wheelchair Accessible Inside and Outside,"Parking On site, designated handicapped",http://www.ymcagta.org,{718697AA-7B7D-4DF1-B84F-7C06759FF9AA},,Yes
667024.001,4864925.037,922,"Schoolhouse Playcare, Sir Samuel Steele",55 Bakerville Street,WHITBY,WHITBY,L1R 2K4,(905) 579-2896,,0,44m - 12yrs, 6:30:00AM -  6:30:00PM,Dryden Blvd and Thickson Rd,Yes,Wheelchair Accessible Inside and Outside,"Parking On site, designated handicapped",http://www.schoolhouseplaycare.ca,{170EEE28-AE96-4484-BA70-9B89146C6B79},,Yes
656811.1,4858718.138,923,Westney Heights YMCA Before and After School,45 Brennan Road,AJAX,AJAX,L1T 1X8,(289) 927-3543,,0,44m - 12yrs, 7:00:00AM -  6:00:00PM,Highway 2 and Westney Road,Yes,Wheelchair Accessible Inside and Outside,"Parking On site, designated handicapped",http://www.ymcagta.org,{5FB893E2-4F7F-4C0B-8762-53F1881D6D94},,Yes
680965.883,4871352.009,924,Hampton YMCA Before and After School,43 Ormiston Street,HAMPTON,CLARINGTON,L0B 1J0,(289) 927-2959,,0,44m - 12yrs, 7:00:00AM -  6:00:00PM,Old Scugog Rd and Ormiston St,Yes,Wheelchair Accessible Inside and Outside,"Parking On site, designated handicapped",http://www.ymcagta.org,{5A2C5274-6760-428F-A89E-4C89DEB0AED8},,Yes
685494.056,4865006.982,925,Central Bowmanville YMCA School Age Program,120 Wellington St,BOWMANVILLE,CLARINGTON,L1C 1V9,(905) 925-4500,,0,44m - 12yrs, 7:00:00AM -  6:00:00PM,Wellington and Scugog St,Yes,Wheelchair Accessible Inside and Outside,"Parking On site, designated handicapped",http://www.ymcagta.org,{A74EA458-BEE6-4813-9A18-5E18B8C6AF64},,Yes
684760.671,4866809.408,926,"Compass ELC, Charles Bowman Schoolage",195 Bons Avenue,BOWMANVILLE,CLARINGTON,L1C 0H8,(905) 259-9283,,0,44m - 12yrs, 6:30:00AM -  6:00:00PM,Bons Avenue and Scugog Street,Yes,Wheelchair Accessible Inside and Outside,"Parking On site, designated handicapped",http://www.compasselc.com,{2850DFA1-3559-4E00-8045-1764F8D1D631},,Yes
663773.039,4863715.583,927,"Kids' Campus Child Care, Jack Miner",144 Whitburn Street,WHITBY,WHITBY,L1R 2N1,(905) 621-4550,,0,44m - 12yrs, 6:30:00AM -  6:30:00PM,Brock St and Taunton Rd,Yes,Wheelchair Accessible Inside and Outside,"Parking On site, designated handicapped",http://www.kidscampus.ca,{7E5DC916-076C-4DAF-B21C-1B02610189C8},,Yes
654154.57,4855515.281,928,"EduKids Child Care, Glenanna",1875 Glenanna Road Unit 101,PICKERING,PICKERING,L1V 3V6,(905) 831-9966,,1,Infant - 12yrs, 6:45:00AM -  6:15:00PM,Kingston Rd and Liverpool Rd,Yes,Wheelchair Accessible Inside and Outside,Parking On site,http://www.edukids.ca,{7103C957-24D4-4200-BBED-8A5BB44F4448},,Yes
669434.697,4862984.438,930,"Les Lucioles, Ecole Antonine Maillet",615 Ridgeway Avenue,OSHAWA,OSHAWA,L1J 2W3,(905) 438-0469,,0,18m - 12yrs, 7:00:00AM -  6:00:00PM,Rossland and Stevenson,Yes,Wheelchair Accessible Inside and Outside,Parking At an Adjacent Site,http://www.lesluciolesinc.ca,{22BFDE05-FCB6-4672-B0D1-2C3F02F7AEF0},Bilingual,Yes
662796.687,4869771.131,931,Chris Hadfield YMCA Before and After School,160 Carnwith Drive West,BROOKLIN,WHITBY,L1M 0A5,(289) 927-6953,,0,44m - 12yrs, 7:00:00AM -  6:00:00PM,Ashburn Rd and Columbus Rd W,Yes,Wheelchair Accessible Inside and Outside,"Parking On site, designated handicapped",http://www.ymcagta.org,{670446F2-F170-411D-B774-5F0302F8F189},,Yes
667691.839,4863665.983,932,Children's Montessori Day Care,1850 Rossland Road East,WHITBY,WHITBY,L1N 3P2,(905) 723-3998,,1,18m - 6yrs, 6:30:00AM -  6:30:00PM,Rossland and Garrard,Yes,Wheelchair Accessible Inside and Outside,Parking On site,http://www.childrensMDC.com,{4258F720-2C04-4398-93E5-5D6CB4B1A1EC},,Yes
652609.537,4856418.331,933,St. Isaac Jogues YMCA Before and After School,1166 Finch Avenue,PICKERING,PICKERING,L1V 1J6,(289) 923-8259,,0,44m - 12yrs, 7:00:00AM -  6:00:00PM,Finch Ave and Liverpool Rd,Yes,Wheelchair Accessible Inside and Outside,"Parking On site, designated handicapped",http://www.ymcagta.org,{C61A18CC-DA36-41E8-B4A9-A63A550BF0EE},,Yes
665124.072,4860727.259,934,"Kids & Company, Whitby",142 Byron Street North,WHITBY,WHITBY,L1N 4M9,(905) 430-0818,,1,Infant - 12yrs, 7:00:00AM -  6:00:00PM,Mary St and Brock St N,Yes,Wheelchair Accessible Inside and Outside,Parking On site,http://www.kidsandcompany.com,{63FF79C4-D25F-4224-99E9-B76189907B75},,Yes
663322.13,4861048.445,935,"The Apple Tree Preschool & Learning Centre, Whitby","900 Bonacord Avenue, Unit 4",WHITBY,WHITBY,L1P 1H8,(905) 655-7205,,1,18m - 12yrs, 6:30:00AM -  6:00:00PM,McQuay Blvd and Bonacord,Yes,Wheelchair Accessible Outside Only,"Parking On site, designated handicapped",http://www.theappletreepreschool.com,{214438E4-DDB5-4AD8-B70D-FA4CADE2F92A},,Yes
678274.755,4863580.953,936,"Compass ELC, Good Shepherd School Age",20 Farmington Drive,COURTICE,CLARINGTON,L1E 3B9,(905) 718-3678,,0,44m - 12yrs, 7:00:00AM -  6:00:00PM,Trulls Rd and Farmington Dr,Yes,Wheelchair Accessible Inside and Outside,Parking Street / Public Lot,http://www.compasselc.com,{E8A0C5F3-7B47-497C-976E-68C708551115},,Yes
668601.012,4862928.718,937,"Schoolhouse Playcare, Stephen Saywell",855 Roundelay Drive,OSHAWA,OSHAWA,L1J 7V1,(905) 433-4730,,0,30m - 12yrs, 6:30:00AM -  6:00:00PM,Rossland Rd and Thornton Ave,Yes,Wheelchair Accessible Outside Only,"Parking On site, designated handicapped",http://www.schoolhouseplaycare.ca,{2B480450-FF94-4DDD-BFA2-DF43F2DC2353},,Yes
672289.909,4864606.743,938,Walter E. Harris Before and After School Program,495 Central Park Blvd. N.,OSHAWA,OSHAWA,L1G 6L4,(905) 432-2532,,0,44m - 12yrs, 7:00:00AM -  6:00:00PM,Central Park Blvd & Hillcroft St,Yes,Wheelchair Accessible Inside and Outside,"Parking On site, designated handicapped",http://www.umbrelladaycare.com,{4216AE36-45F1-4005-9167-06D0053FFBB4},,Yes
677509.964,4866731.801,939,St. Mary of Leuca Daycare Centre,3810 Courtice Road North,COURTICE,CLARINGTON,L1E 2L5,(905) 436-2308,,0,18m - 5yrs, 6:30:00AM -  6:00:00PM,Courtice Rd N and Highway 2,Yes,Wheelchair Accessible Inside and Outside,Parking On site,,{AF9E837F-30D1-4CEA-A2EA-DC70A7BC0005},,Yes
663523.698,4868956.551,940,"Little Orchard Daycare, Brooklin",3 Cassels Road West,BROOKLIN,WHITBY,L1M 1A4,(905) 655-2306,,1,18m - 13yrs, 7:00:00AM -  6:00:00PM,Winchester Road and Baldwin Road,Yes,Wheelchair Accessible Not accessible,"Parking On site, designated handicapped",http://www.victoriavillage.com,{3DDC727F-4632-4399-9A7E-8A8D8C40B69E},,Yes
671957.519,4867328.071,941,Big Hearts Day Care Centre,1383 Wilson Road North,OSHAWA,OSHAWA,L1K 2Z5,(905) 440-4791,,1,Infant - 6yrs, 6:30:00AM -  6:30:00PM,Wilson Rd N and Taunton Rd,Yes,Wheelchair Accessible Inside and Outside,"Parking On site, designated handicapped",,{8639B19C-7CE1-4DB5-837F-3173C4E4DC11},,Yes
677214.792,4863750.202,942,Dr. Emily Stowe YMCA Child Care Centre,71A Sandringham Drive,COURTICE,CLARINGTON,L1E 1W9,(905) 432-0968,,0,30m - 12yrs, 6:45:00AM -  6:00:00PM,Sandringham Dr and Highway 2,Yes,Wheelchair Accessible Inside and Outside,"Parking On site, designated handicapped",http://www.ymcagta.org,{EBF0479B-7953-4C31-961D-5CEF29157066},,Yes
652044.137875,4853105.423125,943,Father Fenelon YMCA Child Care,795 Eyer Drive,PICKERING,PICKERING,L1W 2K2,(905) 420-2343,,0,Infant - 12yrs, 7:00:00AM -  6:00:00PM,Bayly and Whites Road,Yes,Wheelchair Accessible Inside and Outside,"Parking On site, designated handicapped",http://www.ymcagta.org,{EED5D087-A5C9-46DC-9CDD-27EBBB6B0D82},,Yes
657739.724,4859750.025,944,"P.R.Y.D.E., St. Catherine of Siena",15 Bennett Avenue,AJAX,AJAX,L1T 3P1,(905) 428-6421,,0,18m - 12yrs, 7:00:00AM -  6:00:00PM,Rossland and Westney,Yes,Wheelchair Accessible Inside and Outside,"Parking On site, designated handicapped",http://www.prydelearningcentres.ca,{826926C9-EA2A-473B-8920-185FB0349B72},,Yes
667849.909,4860930.085,945,Kinder Corner Day Care,63 Thickson Road South,WHITBY,WHITBY,L1N 2C6,(905) 434-3636,,1,18m - 6yrs, 6:30:00AM -  6:30:00PM,Thickson and Dundas St E,Yes,Wheelchair Accessible Not accessible,Parking On site,http://www.victoriavillage.com,{EF0965A9-90DD-4FED-BFDE-11344AE7CCC0},,Yes
665823.136,4861269.568,946,"Schoolhouse Playcare, Julie Payette",300 Garden Street,WHITBY,WHITBY,L1N 3W4,(905) 430-0600,,0,44m - 12yrs, 6:30:00AM -  6:30:00PM,Dundas and Garden,Yes,Wheelchair Accessible Inside and Outside,"Parking On site, designated handicapped",http://www.schoolhouseplaycare.ca,{84A53884-4EBC-4D71-88EF-67D356E275DD},,Yes
663491.665,4865320.955,947,"Schoolhouse Playcare, Robert Munsch",20 Norista Street,WHITBY,WHITBY,L1R 0J2,(905) 620-0062,,0,44m - 12yrs, 6:30:00AM -  6:30:00PM,Brock St & Taunton Rd,Yes,Wheelchair Accessible Inside and Outside,"Parking On site, designated handicapped",http://www.schoolhouseplaycare.ca,{05DA5EF0-916A-409D-8B03-841F3C43B1A8},,Yes
667631.759,4871878.897,948,Columbus Community Playgroup Co-operative Inc.,3265 Simcoe Street North,COLUMBUS,OSHAWA,L1H 0S1,(905) 655-5788,,0,30m - 5yrs, 9:00:00AM -  3:30:00PM,Simcoe St and Columbus Rd,No,Wheelchair Accessible Inside and Outside,"Parking On site, designated handicapped",http://www.columbusplaygroup.com,{80D73C48-DDE1-428F-BBA8-92957290D8DF},,Yes
657620.632,4857592.735,949,"Schoolhouse Playcare, Roland Michener",95 Ritchie Avenue,AJAX,AJAX,L1S 6S2,(905) 686-5440,,0,Infant - 12yrs, 6:30:00AM -  6:30:00PM,Westney Road and Highway 401,Yes,Wheelchair Accessible Inside and Outside,"Parking On site, designated handicapped",http://www.schoolhouseplaycare.ca,{732255BA-AB3C-4C81-B1B3-16701A58F36B},,Yes
657122.619,4860566.967,950,Nottingham YMCA Childcare Centre,50 Seggar Avenue,AJAX,AJAX,L1S 4Y4,(905) 426-1616,,0,30m - 12yrs, 7:00:00AM -  6:00:00PM,Westney Rd and Williamson,Yes,Wheelchair Accessible Inside and Outside,"Parking On site, designated handicapped",http://www.ymcagta.org,{C8876F60-53A0-4AB9-B726-E1017082BF24},,Yes
654010.609,4856738.894,951,Valley Farm Day Care,1995 Valley Farm Road,PICKERING,PICKERING,L1V 1X6,(905) 839-5726,,1,Infant - 12yrs, 6:45:00AM -  6:00:00PM,Finch Ave and Brock Road,Yes,Wheelchair Accessible Not accessible,Parking On site,http://www.valleyfarmdaycare.com,{667C3AEB-ECD3-4452-BCC4-A2906A71F81B},,Yes
656748.387,4860231.142,952,"SKD Bilingual Child Care, Vimy Ridge",40 Telford Road,AJAX,AJAX,L1T 4Z4,(905) 239-6753,,0,44m - 12yrs, 6:30:00AM -  6:30:00PM,Westney and Taunton,Yes,Wheelchair Accessible Inside and Outside,"Parking On site, designated handicapped",http://www.skdgarderiebilingue.ca,{4110F1D4-8B83-41F3-AF3B-13872C209C82},Bilingual,Yes
664679.484,4885353.063,953,Curiosity Child Care,"186 Casimir Street, Lower Level",PORT PERRY,SCUGOG,L9L 1B7,(905) 985-5589,,1,Infant - 9yrs, 6:00:00AM -  6:30:00PM,Water St and Hwy 7A,Yes,Wheelchair Accessible Not accessible,"Parking On site, designated handicapped",http://www.curiositychilden.ca,{43172FCD-CFED-402E-AC36-6C52DFCA5FF5},,Yes
649031.289,4885335.707,954,"P.R.Y.D.E., Quaker Village",295 Brock Street West,UXBRIDGE,UXBRIDGE,L9P 1A1,(647) 454-9223,,0,44m - 12yrs, 7:00:00AM -  6:00:00PM,Brock Street and Quaker Village,Yes,Wheelchair Accessible Inside and Outside,"Parking On site, designated handicapped",http://www.prydelearningcentres.ca,{72D2E7EF-D78C-4CA7-B3A7-F49578685FAD},,Yes
652787.957,4853982.528,955,Gingerbread Co-op Nursery School,1011 Bayly Street,PICKERING,PICKERING,L1W 1L3,(905) 831-9246,,0,30m - 5yrs, 9:00:00AM - 11:30:00AM,Bayly and Liverpool Rd,Yes,Wheelchair Accessible Inside and Outside,"Parking On site, designated handicapped",http://www.gingerbreadschoolpickering.weebly.com,{5FE30BF0-FD8C-4059-87CA-986937F0BF33},,Yes
657707.011,4861193.389,956,Brackendale Montessori,1485 Harwood Avenue North,AJAX,AJAX,L1T 4T4,(905) 686-9997,,1,Infant - 12yrs, 7:00:00AM -  6:00:00PM,Harwood and Williamson,No,Wheelchair Accessible Outside Only,"Parking On site, designated handicapped",http://www.brackendalemontessori.com,{550F4FC3-7C36-4403-ADFD-86098DF42B0C},,No
650011.628,4885334.174,957,"Stonemoor, Uxbridge Public",64 Victoria Drive,UXBRIDGE,UXBRIDGE,L9P 1H2,(905) 852-6537,,0,30m - 12yrs, 6:30:00AM -  6:00:00PM,Toronto St (Hwy 47) and Peel St,Yes,Wheelchair Accessible Inside and Outside,"Parking On site, designated handicapped",http://www.uxbridge.com/stonemoor,{63EA7A0B-448D-46E3-8BB1-4B23057AB18C},,Yes
667167.388,4864407.394,959,"Schoolhouse Playcare, John Dryden",40 Rolling Acres Drive,WHITBY,WHITBY,L1R 2A1,(905) 433-1387,,0,18m - 12yrs, 6:30:00AM -  6:30:00PM,Dryden Blvd and Thickson Rd,Yes,Wheelchair Accessible Inside and Outside,"Parking On site, designated handicapped",http://www.schoolhouseplaycare.ca,{64DEA084-60F9-4B77-840B-8D026B7994A6},,Yes
665443.808,4860770.031,960,Perry House Child Care Services Too,135 Perry Street,WHITBY,WHITBY,L1N 4B7,(905) 668-9476,,0,18m - 5yrs, 6:30:00AM -  6:30:00PM,Brock St and Dundas St E,Yes,Wheelchair Accessible Inside and Outside,Parking Street Parking,http://www.perryhouse.org,{0BAD3ADD-8D73-45FF-8BAE-6FC002AF6924},,Yes
669954.225,4861683.283,961,Happy Tots Day Nursery,606 Cartier Avenue,OSHAWA,OSHAWA,L1J 2C8,(905) 436-5026,,1,18m - 5yrs, 6:15:00AM -  6:00:00PM,Gibb and Stevenson,Yes,Wheelchair Accessible Not accessible,Parking Public Parking Lot,http://www.happytotsdaynursery.ca,{DE3C87E7-F36A-4CBD-BB83-5604D4DA3258},,Yes
671330.426,4863293.095,962,CT Family Learning Centre and Montessori School Inc.,202 Simcoe Street North,Oshawa,OSHAWA,L1G 4S9,(905) 404-1234,,1,Infant - 13yrs, 7:00:00AM -  6:00:00PM,Adelaide and Simcoe St,No,Wheelchair Accessible Inside and Outside,"Parking On site, designated handicapped",http://www-ctfamilymontessori.com,{E91E5AE6-81E0-45B8-B632-BA76EA98F6A2},,No
665071.916,4861048.448,963,Walnut St. Junior School,120 Walnut Street West,WHITBY,WHITBY,L1N 2V9,(905) 668-7333,,1,Infant - 13yrs, 6:30:00AM -  6:30:00PM,Brock St N and Dundas St,Yes,Wheelchair Accessible Outside Only,"Parking On site, designated handicapped",http://www.victoriavillage.com,{E2F44692-DE9B-4DAE-B258-B9C2A3096E2E},,Yes
666730.244,4860294.439,964,"Les Lucioles, Jean-Paul II",1001 Hutchison Avenue,WHITBY,WHITBY,L1N 2A3,(905) 430-1252,,0,18m - 12yrs, 6:30:00AM -  6:00:00PM,Lupin and Garden Street,Yes,Wheelchair Accessible Inside and Outside,"Parking On site, designated handicapped",http://www.lesluciolesinc.ca,{CC2D2AB9-0604-4A6B-BB32-C4D14978D7BF},Bilingual,Yes
667368.142,4862108.802,966,Read-A-Long Nursery School and Daycare,102 Thickson Rd North,WHITBY,WHITBY,L1N 3R1,(905) 430-1630,,1,Infant - 5yrs, 6:30:00AM -  6:30:00PM,Thickson Road and Kingston Road,Yes,Wheelchair Accessible Not accessible,Parking On site,,{427AE2D6-B2E2-4C4A-9CAE-E1CBEABF93F4},,Yes
660393.566,4856042.557,967,Carruthers Creek YMCA Before and After School Program,1 Greenhalf Drive,AJAX,AJAX,L1S 7N6,(289) 200-2835,,0,44m - 12yrs, 7:00:00AM -  6:00:00PM,Bayly St and Pickering Beach Rd,Yes,Wheelchair Accessible Inside and Outside,"Parking On site, designated handicapped",http://www.ymcagta.org,{A911A6D5-1AFC-46FD-AD70-A3A9579A2736},,Yes
673312.194,4868204.523,969,St. Kateri Tekakwitha YMCA Childcare,1425 Coldstream Drive,OSHAWA,OSHAWA,L1K 0B5,(905) 728-1961,,0,Infant - 12yrs, 7:00:00AM -  6:00:00PM,Grandview and Taunton,Yes,Wheelchair Accessible Inside and Outside,"Parking On site, designated handicapped",http://www.ymcagta.org,{0697B01D-355D-4A0D-BC89-9F916BC83EE5},,Yes
649031.069,4885438.222,970,"P.R.Y.D.E., St. Joseph, Uxbridge","25 Quaker Village Drive, PO Box 1570",UXBRIDGE,UXBRIDGE,L9P 1N7,(905) 852-9887,,0,Infant - 12yrs, 7:00:00AM -  6:00:00PM,Quaker Village Drive and Main Street,Yes,Wheelchair Accessible Inside and Outside,"Parking On site, designated handicapped",http://www.prydelearningcentres.ca,{FCF73044-226C-4F72-92F6-EE1CBB9BBE58},,Yes
659516.432,4856113.434,971,"P.R.Y.D.E., Bolton C Falby",80 Falby Court,AJAX,AJAX,L1S 1N4,(905) 427-1556,,0,Infant - 12yrs, 6:00:00AM -  6:00:00PM,Harwood Ave and Bayly St,Yes,Wheelchair Accessible Inside and Outside,"Parking On site, designated handicapped",http://www.prydelearningcentres.ca,{ECC83161-63A1-46A0-B859-B467587B9526},,Yes
657046.641,4859252.683,972,Better Beginnings Daycare and Preschool,115 Delaney Drive,AJAX,AJAX,L1T 2M4,(905) 427-6777,,1,Infant - 12yrs, 6:30:00AM -  6:00:00PM,Westney Road and Delaney,Yes,Wheelchair Accessible Not accessible,Parking On site,http://www.betterbeginningsdaycare.com,{D007157D-8460-407E-92FB-3146FD76CEB8},,Yes
651147.106,4885308.039,973,"EduKids Child Care, Uxbridge",141 Reach Street,UXBRIDGE,UXBRIDGE,L9P 1L3,(905) 862-2626,,1,Infant - 12yrs, 6:30:00AM -  6:15:00PM,Lakeridge Rd and Reach St,Yes,Wheelchair Accessible Inside and Outside,"Parking On site, designated handicapped",http://www.edukids.ca,{A8C7FE07-252D-4767-84D8-5F57A48B5B04},,Yes
653765.328,4854329.836,974,Pickering Early Learning & Child Care Centre,1262 Radom Street,PICKERING,PICKERING,L1W 1J4,(905) 839-5831,,0,18m - 12yrs, 7:00:00AM -  6:00:00PM,Liverpool Rd and Radom St,Yes,Wheelchair Accessible Outside Only,Parking On site,http://www.durham.ca,{1F293DF1-AF6E-421C-B927-5163C9B0F924},,Yes
658032.146,4855730.228,975,A Special Kind of Play Nursery School Inc.,10 Fuller Road,AJAX,AJAX,L1S 3R2,(905) 995-5824,<Null>,1,30m - 6yrs, 6:00:00AM -  6:00:00PM,Westney and Bayly,Yes,Wheelchair Accessible Inside and Outside,"Parking On site, designated handicapped",,{A5BEEB43-79B1-4DDF-9F7D-3AB76DCF1BA8},,No
652688.181,4853064.952,976,Frenchman's Bay School Age,920 Oklahoma Drive,PICKERING,PICKERING,L1W 2H7,(416) 843-8089,,0,44m - 12yrs, 6:45:00AM -  6:00:00PM,Bayly St and Westshore,Yes,Wheelchair Accessible Outside Only,"Parking On site, designated handicapped",http://www.ymcagta.org,{4A00DC28-434F-4F6C-9070-F5BBE5529468},,Yes
656183.619,4855536.498,977,Great Beginnings Child Care,1920 Bayly Street,PICKERING,PICKERING,L1W 3R6,(905) 428-3464,,0,18m - 5yrs, 7:00:00AM -  6:00:00PM,Squires Beach Rd and Bayly St,Yes,Wheelchair Accessible Inside and Outside,"Parking On site, designated handicapped",http://www.greatchildcare.ca,{91C4E953-55B9-4FC6-BE2B-F85D3E0D9710},,Yes
667552.985,4871792.187,978,Tykes of Columbus Child Care Centre Inc.,3250 Simcoe Street North,OSHAWA,OSHAWA,L1H 0R3,(905) 655-7500,,1,Infant - 6yrs, 6:30:00AM -  6:00:00PM,Simcoe Street and Columbus Road,Yes,Wheelchair Accessible Not accessible,Parking On site,http://www.tykesofcolumbuschildcare.ca,{516C8D8C-5812-45E0-B77A-8CCFE49C3E85},,Yes
657621.869,4861586.371,979,SKD Bilingual Child Care Centre,"1801 Harwood Avenue North, Unit 8",AJAX,AJAX,L1T 0K8,(905) 239-6753,,0,18m - 12yrs, 6:30:00AM -  6:30:00PM,Harwood and Taunton,Yes,Wheelchair Accessible Inside and Outside,"Parking On site, designated handicapped",http://www.skdgarderiebilingue.ca,{3BF188E9-ADC7-459C-804C-2F87CE9106DB},Bilingual,Yes
650707.395,4855594.269,980,First Steps Child Care Services,1990 Whites Road,PICKERING,PICKERING,L1V 6P5,(905) 837-2573,,0,Infant - 12yrs, 6:00:00AM -  6:00:00PM,Whites Rd and Finch Ave,Yes,Wheelchair Accessible Inside and Outside,"Parking On site, designated handicapped",http://www.firststeps-childcare.ca,{2EB94911-74A7-4F2D-B1EB-F42BEC03E9F2},,Yes
666795.188,4861056.957,981,"EduKids Child Care, Whitby",1121 Dundas Street East,WHITBY,WHITBY,L1N 2K4,(905) 430-6635,,1,Infant - 12yrs, 6:45:00AM -  6:15:00PM,Hopkins and Dundas St E,Yes,Wheelchair Accessible Inside and Outside,"Parking On site, designated handicapped",http://www.edukids.ca,{70976636-94FD-4CEA-B14F-E8D5435FB405},,Yes
649332.797,4853905.363,982,"Schoolhouse Playcare, Westcreek",1779 Westcreek Drive,PICKERING,PICKERING,L1V 6M9,(905) 509-9470,,0,44m - 12yrs, 6:45:00AM -  6:00:00PM,Altona Rd and Sheppard Ave,Yes,Wheelchair Accessible Inside and Outside,"Parking On site, designated handicapped",http://www.schoolhouseplaycare.ca,{DC5E7E86-2C8C-4534-A485-11A52CEF1E61},,Yes
672994.805,4869360.245,983,"Fairy Glen Day Care, Seneca Trail",1915 Queensbury Drive,OSHAWA,OSHAWA,L1K 0S1,(905) 438-1212,,0,44m - 12yrs, 6:30:00AM -  6:00:00PM,Harmony Rd and Taunton,Yes,Wheelchair Accessible Inside and Outside,"Parking On site, designated handicapped",http://www.fairyglendaycare.com,{E25F6BDC-DAFD-45C5-B251-A0AF7AFF02B3},,Yes
659700.735,4858622.226,984,Milestone Montessori,279 Kingston Rd East Unit 20 & 21,AJAX,AJAX,L1Z 0K5,(905) 426-4367,,1,Infant - 7yrs, 7:00:00AM -  6:00:00PM,Kingston Road East and Salem Rd,No,Wheelchair Accessible Inside and Outside,"Parking On site, designated handicapped",http://www.milestonemontessori.ca,{41119E21-5938-47E0-AC91-015BD43BB599},,No
685433.0,4864916.028,985,Pine Ridge Nursery School Inc.,178 Church St,BOWMANVILLE,CLARINGTON,L1C 1T9,(905) 697-6384,,1,30m - 6yrs, 9:00:00AM -  3:15:00PM,Church and Silver St,No,Wheelchair Accessible Inside and Outside,"Parking On site, designated handicapped",http://www.pineridgenurseryschool.com,{E5A6E53D-8474-4231-84A6-D47BE995F5B0},,Yes
644376.276,4877502.598,986,"All About Kids, Goodwood","292 Highway # 47, Box 48",GOODWOOD,UXBRIDGE,L0C 1A0,(905) 642-0100,,1,Infant - 12yrs, 7:00:00AM -  6:00:00PM,Church and Hwy 47,Yes,Wheelchair Accessible Inside and Outside,Parking On site,http://www.allaboutkids.ca,{B216EA35-7A77-49DB-8265-690CC6427131},,Yes
654201.323,4858676.635,987,St. Wilfrid YMCA Child Care Centre,2360 Southcott Road,PICKERING,PICKERING,L1X 2S9,(905) 619-2407,,0,30m - 12yrs, 7:00:00AM -  6:00:00PM,Brock Rd and Finch,Yes,Wheelchair Accessible Inside and Outside,"Parking On site, designated handicapped",http://www.ymcagta.org,{F71406E2-F92C-4BFA-98EB-C3551DFA2E40},,Yes
666267.147,4862040.105,988,"Fairy Glen Day Care, Pringle Creek",80 Ribblesdale Dr.,WHITBY,WHITBY,L1N 8M1,(905) 430-9989,,0,44m - 12yrs, 7:00:00AM -  6:00:00PM,Anderson and Manning,Yes,Wheelchair Accessible Inside and Outside,"Parking On site, designated handicapped",http://www.fairyglendaycare.com,{8488AF61-D0AA-43DD-987B-F09BED1A7EAE},,Yes
686711.237,4863744.357,989,St. Joseph YMCA Before and After School,90 Parkway Crescent,BOWMANVILLE,CLARINGTON,L1C 1C3,(905) 441-7702,,0,44m - 12yrs, 7:00:00AM -  6:00:00PM,Liberty St S and Baseline Rd,Yes,Wheelchair Accessible Inside and Outside,"Parking On site, designated handicapped",http://www.ymcagta.org,{0F8E1F98-7085-482B-952D-1462AF1BAE02},,Yes
662472.995,4863367.67,990,"Schoolhouse Playcare, Williamsburg",20 Kirkland Place,WHITBY,WHITBY,L1P 1W7,(905) 430-1080,,0,44m - 12yrs, 6:30:00AM -  6:30:00PM,Taunton Road and Country Lane,Yes,Wheelchair Accessible Inside and Outside,"Parking On site, designated handicapped",http://www.schoolhouseplaycare.ca,{CEB687FB-5B72-4672-ABDC-5D8C490A2B73},,Yes
651171.198,4852161.998,991,Rosebank YMCA Before and After School,591 Rosebank Road,PICKERING,PICKERING,L1W 2N6,(289) 927-3541,,0,44m - 12yrs, 7:00:00AM -  6:00:00PM,Kingston Rd and Rougemount Dr,Yes,Wheelchair Accessible Inside and Outside,"Parking On site, designated handicapped",http://www.ymcagta.org,{AA8DF4D6-29A7-4D0B-A679-5106C37B15C8},,Yes
654387.359,4902541.024,992,Sunderland Early Learning & Child Care Centre,"Sunderland Public School, 41 Albert Street",SUNDERLAND,BROCK,L0C 1H0,(705) 328-7171,,0,30m - 12yrs, 6:45:00AM -  6:00:00PM,River and Church,Yes,Wheelchair Accessible Not accessible,Parking On site,http://www.durham.ca,{47CE88A6-9E8E-4548-ABBA-181182797400},,Yes
670679.191,4868151.163,993,Providence Day Care Centre - Woodmount,451 Woodmount Drive,OSHAWA,OSHAWA,L1G 8E3,(905) 723-1234,,1,18m - 5yrs, 6:30:00AM -  6:30:00PM,Ritson Rd N and Taunton Rd E,Yes,Wheelchair Accessible Inside and Outside,"Parking On site, designated handicapped",http://www.myprovidencedaycare.ca,{3FC13DF0-A960-4FF9-BF81-AE407D8F28DB},,Yes
659481.262,4856397.34,995,"P.R.Y.D.E., St. Bernadette",41 Bayly Street East,AJAX,AJAX,L1S 1P2,(905) 999-1549,,0,44m - 12yrs, 7:00:00AM -  6:00:00PM,Harwood Avenue and Bayly,Yes,Wheelchair Accessible Inside and Outside,"Parking On site, designated handicapped",http://www.prydelearningcentres.ca,{AC448E3F-7F14-478D-9EE3-ED2BE0CC1B09},,Yes
664460.899,4869639.208,996,"Kids' Campus Child Care, Winchester",70 Watford Street,BROOKLIN,WHITBY,L1M 1E8,(905) 620-1256,,0,44m - 12yrs, 6:30:00AM -  6:30:00PM,Winchester Rd and Thickson Rd,Yes,Wheelchair Accessible Inside and Outside,"Parking On site, designated handicapped",http://www.kidscampus.ca,{FCC39E1B-1F78-45FC-84DD-827C49711A3D},,Yes
658768.356,4858977.336,997,Kids Corner Learning Center,"161 Harwood Avenue North, Unit 2",AJAX,AJAX,L1Z 0A1,(905) 686-3750,,1,Infant - 12yrs, 6:45:00AM -  6:00:00PM,Harwood Ave North and Ringer Road,Yes,Wheelchair Accessible Inside and Outside,"Parking On site, designated handicapped",,{BC448145-07CB-4A21-B579-0A5F96CDB24D},,Yes
666253.577,4865294.075,998,"Helping Hands Daycare, Whitby",660 Taunton Road East,WHITBY,WHITBY,L1R 0K6,(905) 655-9982,,1,Infant - 6yrs, 6:30:00AM -  6:30:00PM,Taunton and Thickson,Yes,Wheelchair Accessible Inside and Outside,"Parking On site, designated handicapped",http://www.helpinghandsdaycare.ca,{AE8BAE1F-5BEB-4709-B29C-8A865E23D7D7},,Yes
673801.064,4866720.425,999,"Fairy Glen Day Care, Pierre Elliott Trudeau",1111 Beatrice Street East,OSHAWA,OSHAWA,L1K 2S7,(905) 432-5444,,0,44m - 12yrs, 6:30:00AM -  6:00:00PM,Taunton and Grandview,Yes,Wheelchair Accessible Inside and Outside,"Parking On site, designated handicapped",http://www.fairyglendaycare.com,{CE11D47B-B5EE-4BDF-8B82-458909184AB1},,Yes
659492.072,4862556.27,1000,"SKD Bilingual Child Care, Roméo Dallaire",300 Williamson Drive East,AJAX,AJAX,L1Z 0H6,(905) 239-6753,,0,Infant - 12yrs, 6:30:00AM -  6:30:00PM,Taunton Rd E and Audley Rd N,Yes,Wheelchair Accessible Inside and Outside,"Parking On site, designated handicapped",http://www.skdgarderiebilingue.ca,{0A088F40-B232-4B35-8D69-9B08EBBACF9D},,Yes
686377.75,4864742.311,1001,Vincent Massey Bowmanville School Age Program,10 Church Street,BOWMANVILLE,CLARINGTON,L1C 2L9,(905) 623-6279,,0,44m - 12yrs, 7:00:00AM -  6:00:00PM,Liberty and Hwy #2,Yes,Wheelchair Accessible Inside and Outside,"Parking On site, designated handicapped",http://www.umbrelladaycare.com,{3BC39863-DF5B-4F7C-BAE6-8D4EF7DB33B4},,Yes
672548.057,4866865.499,1003,"P.R.Y.D.E., St. Joseph, Oshawa",1200 Summerwood Heights,OSHAWA,OSHAWA,L1K 0C2,(905) 626-2264,,0,44m - 12yrs, 7:00:00AM -  6:00:00PM,Taunton and Harmony,Yes,Wheelchair Accessible Inside and Outside,"Parking On site, designated handicapped",http://www.prydelearningcentres.ca,{C6F7AEA9-C860-4AF3-A1C4-373BB9CEACF0},,Yes
671780.456,4863047.784,1005,Durham Family YMCA Child Care Centre,99 Mary Street North,OSHAWA,OSHAWA,L1G 8C1,(905) 438-0822,,0,Infant - 5yrs, 7:00:00AM -  6:00:00PM,Mary St and William St,Yes,Wheelchair Accessible Inside and Outside,"Parking On site, designated handicapped",http://www.ymcagta.org,{AF2D47B0-124F-4A48-8342-14EE67357A75},,Yes
686298.471,4864950.725,1006,Duke of Cambridge Before and After Program,47 Liberty Street,BOWMANVILLE,CLARINGTON,L1C 2L8,(905) 623-4171,,0,44m - 12yrs, 6:30:00AM -  6:00:00PM,Liberty St and King St,Yes,Wheelchair Accessible Inside and Outside,"Parking On site, designated handicapped",http://www.umbrelladaycare.com,{FD4B8557-5A22-44FF-B1B6-6A38CDF89954},,Yes
665171.498,4869880.605,1008,"Schoolhouse Playcare, Blair Ridge",100 Blackfriar Avenue,BROOKLIN,WHITBY,L1M 0E8,(905) 620-0600,,0,44m - 12yrs, 6:30:00AM -  6:30:00PM,Thickson Rd and Blackfriar,Yes,Wheelchair Accessible Inside and Outside,"Parking On site, designated handicapped",http://www.schoolhouseplaycare.ca,{257C66C5-2F30-4C21-B433-1A2B81EF9C44},,Yes
663237.048,4886146.056,1009,Good Shepherd YMCA Child Care Centre,1650 Reach Street,PORT PERRY,SCUGOG,L9L 1H6,(905) 985-7829,,0,18m - 12yrs, 7:00:00AM -  6:00:00PM,Hwy 12 and Reach Street,Yes,Wheelchair Accessible Inside and Outside,"Parking On site, designated handicapped",http://www.ymcagta.org,{555D3895-E161-422C-9EC0-FE2E065382D8},,Yes
665518.81,4864027.243,1010,"P.R.Y.D.E., St. Bernards",1000 Dryden Boulevard,WHITBY,WHITBY,L1R 2A2,(905) 430-8598,,0,18m - 12yrs, 7:00:00AM -  6:00:00PM,Taunton Rd and Anderson Rd,Yes,Wheelchair Accessible Inside and Outside,"Parking On site, designated handicapped",http://www.prydelearningcentres.ca,{3E120FCC-4311-4E62-8C70-2BDDDA91CB44},,Yes
650249.665,4854458.574,1011,"Schoolhouse Playcare, Altona Forest",405 Woodsmere Crescent,PICKERING,PICKERING,L1V 7A3,(905) 421-9147,,0,Infant - 12yrs, 6:30:00AM -  6:30:00PM,Stroud's Lane and Rosebank,Yes,Wheelchair Accessible Inside and Outside,"Parking On site, designated handicapped",http://www.schoolhouseplaycare.ca,{BC7824E9-84C2-4CAB-A3EA-5C27A9ED4ACD},,Yes
650186.195,4852246.934,1012,"EduKids Child Learning Centre, Altona",1320 Altona Road,PICKERING,PICKERING,L1V 1M1,(905) 509-4021,,1,Infant - 12yrs, 6:45:00AM -  6:15:00PM,Kingston and Altona,Yes,Wheelchair Accessible Not accessible,Parking On site,http://www.edukids.ca,{2F50D393-BC57-4738-BB45-F3E0504DDBD5},,Yes
663112.64,4862786.299,1013,"Schoolhouse Playcare, Captain Michael VandenBos",3121 Country Lane,WHITBY,WHITBY,L1P 1N3,(905) 665-0342,,0,44m - 12yrs, 6:45:00AM -  6:30:00PM,Taunton Rd and Cochrane St,Yes,Wheelchair Accessible Inside and Outside,"Parking On site, designated handicapped",http://www.schoolhouseplaycare.ca,{6B39DCBE-9F09-4474-B071-8AF690B7C43E},,Yes
665341.593,4865364.724,1014,Little Blessings Nursery School,4240 Anderson Street,WHITBY,WHITBY,L1R 2W1,(905) 655-4534,,0,30m - 6yrs, 9:00:00AM -  4:00:00PM,Taunton Rd and Anderson,Yes,Wheelchair Accessible Inside and Outside,"Parking On site, designated handicapped",http://www.littleblessingsns.ca,{B3FDC7DE-4AE9-40FD-A282-77ECE74DAAEB},,Yes
665463.06,4860713.94,1015,Perry House Child Care Services III,127 Perry Street,WHITBY,WHITBY,L1N 4B7,(905) 668-9476,,0,Infant - 12yrs, 6:30:00AM -  6:30:00PM,Brock St and Dundas St E,Yes,Wheelchair Accessible Inside and Outside,Parking Street Parking,http://www.perryhouse.org,{98405B49-2AB0-4EB7-A6B5-CC8E6842A433},,Yes
686677.478,4866064.297,1016,John M James YMCA Child Care,175 Mearns Avenue,BOWMANVILLE,CLARINGTON,L1C 5C6,(905) 697-9494,,0,30m - 12yrs, 7:00:00AM -  6:00:00PM,Mearns Ave and Apple Blossom Blvd,Yes,Wheelchair Accessible Inside and Outside,"Parking On site, designated handicapped",http://www.ymcagta.org,{A299B421-8E8F-4557-95CD-94772F95E66B},,Yes
664502.646,4859756.407,1017,"Kids' Campus Child Care, West Lynde",270 Michael Boulevard,WHITBY,WHITBY,L1N 6B1,(905) 668-5311,,0,Infant - 12yrs, 6:15:00AM -  6:30:00PM,Dundas St E and Michael Blvd,Yes,Wheelchair Accessible Inside and Outside,"Parking On site, designated handicapped",http://www.kidscampus.ca,{9F567194-B5F2-4F47-A1F7-DB06ADF28580},,Yes
678603.964,4876299.2,1018,Enniskillen YMCA School Age Program,8145 Old Scugog Road,ENNISKILLEN,CLARINGTON,L0B 1J0,(289) 928-3840,,0,44m - 12yrs, 7:00:00AM -  6:00:00PM,Highway 57 and Conc Rd 8,Yes,Wheelchair Accessible Inside and Outside,"Parking On site, designated handicapped",http://www.ymcagta.org,{A90CB975-1C96-4229-81F2-33C56D319F8E},,Yes
658658.37,4862213.091,1019,"SKD Bilingual Child Care, Michaelle Jean",180 Williamson Drive East,AJAX,AJAX,L1Z 0G7,(905) 239-6753,,0,44m - 12yrs, 6:30:00AM -  6:30:00PM,Westney and Taunton,Yes,Wheelchair Accessible Inside and Outside,"Parking On site, designated handicapped",http://www.skdgarderiebilingue.ca,{73CE4C05-161D-4FCD-98E8-AC22C5338D61},Bilingual,Yes
657992.862,4858933.149,1020,"Schoolhouse Playcare, Applecroft",55 Coles Avenue,AJAX,AJAX,L1T 3H5,(905) 427-8097,,0,18m - 12yrs, 6:45:00AM -  6:15:00PM,Highway 2 and Harwood Avenue,Yes,Wheelchair Accessible Inside and Outside,"Parking On site, designated handicapped",http://www.schoolhouseplaycare.ca,{930C9D89-0BCE-40D4-9D49-D98CF0CF623B},,Yes
654700.312,4853778.219,1021,Pickering Biidassige Mandamin YMCA Centre,777 Balaton Avenue,PICKERING,PICKERING,L1W 1W7,(416) 697-1035,,0,44m - 12yrs, 6:45:00AM -  6:30:00PM,Bayly and Krosno,Yes,Wheelchair Accessible Not accessible,"Parking On site, designated handicapped",http://www.ymcagta.org,{A5A08CD3-168E-49FE-8826-2DAE93530024},,Yes
650693.497,4854367.384,1023,"Schoolhouse Playcare, Highbush",605 Strouds Lane,PICKERING,PICKERING,L1V 5M5,(905) 420-1475,,0,18m - 12yrs, 6:30:00AM -  6:00:00PM,White's Rd and Stroud's Lane,Yes,Wheelchair Accessible Inside and Outside,"Parking On site, designated handicapped",http://www.schoolhouseplaycare.ca,{F06D2C20-7EAA-442E-8343-EA8D9ED5CAEA},,Yes
644326.449,4877924.11,1024,"Stonemoor School Age, Goodwood",4340 Front Street,GOODWOOD,UXBRIDGE,L0C 1A0,(647) 528-0044,,0,44m - 12yrs, 6:30:00AM -  6:00:00PM,Hwy 47 and Front Street,Yes,Wheelchair Accessible Inside and Outside,"Parking On site, designated handicapped",http://www.uxbridge.com/stonemoor,{3DD5143B-B631-424F-B527-20C61D5840E1},,Yes
650042.06,4853048.642,1025,Elizabeth B. Phin YMCA School Age Program,1500 Rougemount Drive,PICKERING,PICKERING,L1V 1N1,(289) 200-3176,,0,44m - 12yrs, 7:00:00AM -  6:00:00PM,Sheppard Ave and Altona Rd,Yes,Wheelchair Accessible Inside and Outside,"Parking On site, designated handicapped",http://www.ymcagta.org,{205D18C8-FAFF-4F06-B74D-2992E2BF7D66},,Yes
665169.737,4865166.023,1026,"Schoolhouse Playcare, Sinclair",380 Taunton Road East,WHITBY,WHITBY,L1R 2K5,(905) 666-2416,,0,Infant - 5yrs, 6:30:00AM -  6:00:00PM,Taunton Road and Anderson,Yes,Wheelchair Accessible Inside and Outside,"Parking On site, designated handicapped",http://www.schoolhouseplaycare.ca,{7512B548-BC00-45BB-A2A2-4ABA6E6F5E3A},,Yes
664387.509,4869930.598,1027,St. Leo YMCA Child Care Centre,120 Watford Street,BROOKLIN,WHITBY,L1M 1H2,(905) 655-4342,,0,Infant - 12yrs, 6:45:00AM -  6:00:00PM,Winchester Rd E and Watford St,Yes,Wheelchair Accessible Inside and Outside,"Parking On site, designated handicapped",http://www.ymcagta.org,{51C76E7A-F22C-444F-B0DA-B80E0B68572F},,Yes
643476.698,4888475.62,1028,"Stonemoor School Age, Scott Central",421 Sandford Road,SANDFORD,UXBRIDGE,L0C 1E0,(905) 852-5380,,0,44m - 12yrs, 6:30:00AM -  6:00:00PM,Sandford Rd and Durham Rd 1,Yes,Wheelchair Accessible Inside and Outside,"Parking On site, designated handicapped",http://www.uxbridge.com/stonemoor,{9FCBA2B8-8522-4732-A18F-E9E3DA1DE29F},,Yes
672158.161,4865343.711,1029,Big Hearts Before and After School Program,500 Mayfair Avenue,OSHAWA,OSHAWA,L1G 2Y2,(905) 436-9191,,1,44m - 12yrs, 6:30:00AM -  6:30:00PM,Rossland and Wilson Road,Yes,Wheelchair Accessible Inside and Outside,"Parking On site, designated handicapped",,{C4163227-28DC-44B4-89F5-A1EEE0C81303},,Yes
658265.996,4859992.361,1030,"P.R.Y.D.E., St. Teresa of Calcutta",15 Fishlock Street,AJAX,AJAX,L1Z 1H1,(905) 686-7040,,0,44m - 12yrs, 7:00:00AM -  6:00:00PM,Harwood and Rossland Rd,Yes,Wheelchair Accessible Inside and Outside,"Parking On site, designated handicapped",http://www.prydelearningcentres.ca,{A700BAE4-3806-4845-8018-57FA756E99E2},,Yes
670582.587625,4865745.9065,1031,"Blaisdale Montessori School, Oshawa",1037 Simcoe Street North,OSHAWA,OSHAWA,L1G 4W3,(905) 721-1933,,1,18m - 6yrs, 7:00:00AM -  6:00:00PM,Beatrice St E and Simcoe St N,No,Wheelchair Accessible Outside Only,"Parking On site, designated handicapped",http://www.blaisdale.com,{A30C5730-CCD3-4CB0-88A2-6A53F62517DE},,No
650462.519375,4852354.302375,1032,"Blaisdale Montessori School, Rougemount",365 Kingston Road,PICKERING,PICKERING,L1V 1A1,(905) 509-4547,,1,18m - 6yrs, 7:00:00AM -  6:00:00PM,Rougemount Dr and Kingston Rd,No,Wheelchair Accessible Inside and Outside,Parking On site,http://www.blaisdale.com,{9CF147CD-FE88-40A1-B08D-1A2672585469},,No
650770.112625,4852021.448,1033,"Blaisdale Montessori School, Toynevale",415 Toynevale Road East,PICKERING,PICKERING,L1W 2G9,(905) 509-5005,,1,18m - 6yrs, 7:00:00AM -  6:00:00PM,Rougemount Dr and Toynevale Rd E,No,Wheelchair Accessible Inside and Outside,Parking On site,http://www.blaisdale.com,{9EE27E46-05A8-4AE9-8598-7280D44F4301},,No
656092.970875,4857572.208625,1034,"Blaisdale Montessori School, Ajax Village",56 Old Kingston Road,AJAX,AJAX,L1T 2Z7,(905) 509-5005,,1,18m - 6yrs, 7:00:00AM -  6:00:00PM,Church St and Kingston Road W,No,Wheelchair Accessible Inside and Outside,"Parking On site, designated handicapped",http://www.blaisdale.com,{F549AB5B-6EA1-4520-B76F-8DAEDFD1D4C3},,No
657687.52625,4856223.447875,1035,"Blaisdale Montessori School, Westney",20 O'Brien Court East,AJAX,AJAX,L1S 7J8,(905) 426-5665,,1,18m - 6yrs, 7:00:00AM -  6:00:00PM,Bayly St W and Westney Rd S,No,Wheelchair Accessible Outside Only,"Parking On site, designated handicapped",http://www.blaisdale.com,{056ECE55-67CA-4C79-9059-4300D6FE38BC},,No
672781.59725,4863913.85675,1038,Great Beginnings Montessori School,505 Adelaide Avenue East,OSHAWA,OSHAWA,L1G 2A4,(905) 432-1400,,1,18m - 6yrs, 7:00:00AM -  6:00:00PM,Wilson Rd N and Adelaide Ave E,No,Wheelchair Accessible Inside and Outside,"Parking On site, designated handicapped",http://www.durhammontessori.com,{F24BC3AA-180A-4DCE-8F76-E67EA85436CE},,No
656341.857875,4857477.339375,1039,Harwood Montessori School Inc.,23 Church Street South,AJAX,AJAX,L1S 6A6,(905) 428-6256,,1,30m - 6yrs, 7:00:00AM -  6:00:00PM,Kingston Road and Church St,No,Wheelchair Accessible Inside Only,Parking On site,,{679C6085-6C56-49D8-84B6-AB5BC900D578},,No
665316.272375,4860310.81825,1040,Hatch House Montessori School,301 Byron Street South,WHITBY,WHITBY,L1N 4P9,(905) 665-7700,,1,Infant - 6yrs, 7:00:00AM -  6:30:00PM,Dunlop St W and Brock St,No,Wheelchair Accessible Not accessible,"Parking On site, designated handicapped",http://www.hatchhousemontessori.com,{E7B8E41B-7501-4238-A008-4697AAB80F98},,No
659136.704875,4867080.917125,1041,Lakeridge Montessori School,3600 Lake Ridge Road,PICKERING,PICKERING,L1X 2X2,(905) 655-1567,,1,Infant - 6yrs, 7:30:00AM -  6:00:00PM,Highway 7 and Lake Ridge Rd,No,Wheelchair Accessible Outside Only,"Parking On site, designated handicapped",http://www.whitbymontessori.ca,{6D032393-A06D-4460-8361-9AC005CB2DE0},,No
650609.347875,4852457.74275,1042,"Montessori Learning Centre, (401) Pickering",401 Kingston Road,PICKERING,PICKERING,L1V 1A3,(905) 509-1722,,1,18m - 3yrs, 7:00:00AM -  6:00:00PM,Rougemount and Kingston Road,No,Wheelchair Accessible Inside and Outside,"Parking On site, designated handicapped",http://www.mlcp.ca,{8022C92E-36CD-45DE-AFCE-FF6E9BB7DFCA},,No
650643.214625,4852477.0045,1043,"Montessori Learning Centre, (409) Pickering",409 Kingston Road Unit 1,PICKERING,PICKERING,L1V 1A3,(905) 509-1722,,1,Infant - 6yrs, 7:00:00AM -  6:00:00PM,Rougemount and Rosebank Road,No,Wheelchair Accessible Inside and Outside,"Parking On site, designated handicapped",http://www.mlcp.ca,{333B927E-4370-4070-B040-1442FC0B7D17},,No
650662.013375,4852497.24675,1044,"Montessori Learning Centre, (417) Pickering",417 Kingston Road,PICKERING,PICKERING,L1V 1A3,(905) 509-1722,,1,30m - 6yrs, 7:00:00AM -  6:00:00PM,Rougemount and Rosebank Road,No,Wheelchair Accessible Inside and Outside,"Parking On site, designated handicapped",http://www.mlcp.ca,{A3B01FAD-56E4-4814-8389-C198C6AEDB3C},,No
659646.7395,4854518.439,1045,"P.R.Y.D.E., St. James",10 Clover Ridge Drive,AJAX,AJAX,L1S 3E5,(905) 424-5575,,0,44m - 12yrs, 7:00:00AM -  6:00:00PM,Harwood and Westney Road,Yes,Wheelchair Accessible Inside and Outside,"Parking On site, designated handicapped",http://www.prydelearningcentres.ca,{42127941-B6FB-4807-85A5-C14B9179C44B},,Yes
669845.34075,4865749.4205,1046,Sunset Heights Before and After School Age Program,1130 Mohawk Street,OSHAWA,OSHAWA,L1G 4G7,(289) 240-9411,,0,44m - 12yrs, 6:30:00AM -  6:00:00PM,Somerville S and Orchardview Blvd,Yes,Wheelchair Accessible Inside and Outside,"Parking On site, designated handicapped",http://www.umbrelladaycare.com,{FF7A40C3-86F6-4029-9EFB-475D684344C0},,Yes
678443.923125,4862619.83025,1047,Ultimate School-Agers Limited,1685 Bloor Street,COURTICE,CLARINGTON,L1E 2N1,(289) 685-2343,,1,30m - 12yrs, 6:00:00AM -  6:00:00PM,Bloor St and Trulls Rd,Yes,Wheelchair Accessible Inside and Outside,"Parking On site, designated handicapped",http://www.ultimateschoolagers.com,{DF0DAB5C-E8E6-485D-A6CF-88985B943180},,Yes
650221.689875,4886394.4645,1048,Uxbridge Montessori School,167 Main Street North,UXBRIDGE,UXBRIDGE,L9P 1C3,(905) 852-6377,,1,18m - 7yrs, 7:00:00AM -  6:00:00PM,Durham Rd 8 and Main St,No,Wheelchair Accessible Inside and Outside,"Parking On site, designated handicapped",http://www.uxbridgemontessori.com,{7780D5E7-89CB-4673-9BB7-36B3DED2E48D},,No
664332.649125,4864523.377875,1049,Whitby Montessori & Elementary School,95 Taunton Road East,WHITBY,WHITBY,L1R 3L3,(905) 430-8201,,1,18m - 6yrs, 7:30:00AM -  6:00:00PM,Taunton Rd and Baldwin St,No,Wheelchair Accessible Inside and Outside,"Parking On site, designated handicapped",http://www.whitbymontessori.ca,{C888E7CE-EC8B-40B2-8F8E-36FF8A911688},,No
665462.875,4860052.822,1431,"Authentic Montessori Academy, Whitby",508 Brock Street South,WHITBY,WHITBY,L1N 4K7,(905) 666-3960,,1,18m - 6yrs, 7:00:00AM -  6:00:00PM,Brock Street and Dundas,No,Wheelchair Accessible Inside and Outside,"Parking On site, designated handicapped",http://www.ama4kids.com,{15615519-A8F7-4510-87FB-8F7F4D606F6D},,No
691223.77575,4872389.481875,1432,"Compass ELC, Orono Public School",171 Church Street PO BOX 30,ORONO,CLARINGTON,L0B 1M0,(705) 957-3549,,0,44m - 12yrs, 7:00:00AM -  6:00:00PM,Dickson St and Church St,Yes,Wheelchair Accessible Inside and Outside,"Parking On site, designated handicapped",http://www.compasselc.com,{8DCE2021-B393-4446-8B72-397393E57B37},,Yes
672000.423,4868081.876,1433,"Fairy Glen Day Care, Jeanne Sauvé",950 Coldstream Drive,OSHAWA,OSHAWA,L1K 0X1,(905) 438-1441,,0,44m - 12yrs, 6:30:00AM -  6:00:00PM,Harmony Rd N and Taunton Rd E,Yes,Wheelchair Accessible Inside and Outside,"Parking On site, designated handicapped",http://www.fairyglendaycare.com,{56F79364-854E-4666-B712-E0B97DEAFC56},,Yes
675074.008125,4862918.384375,1434,"Kids' Campus Child Care, Forest View",285 Grandview Street South,OSHAWA,OSHAWA,L1H 7C6,(905) 725-0123,,0,44m - 12yrs, 6:30:00AM -  6:30:00PM,Grandview St S and King St E,Yes,Wheelchair Accessible Inside and Outside,"Parking On site, designated handicapped",http://www.kidscampus.ca,{1EEE40C8-3DA8-49AD-B0F6-63C11F147221},,Yes
667916.566125,4862292.49625,1436,"P.R.Y.D.E., Dr. Robert Thornton",101 Hazelwood Drive,WHITBY,WHITBY,L1W 3L4,(289) 314-1999,,0,44m - 12yrs, 7:00:00AM -  6:00:00PM,Manning Rd and Thickson Rd N,Yes,Wheelchair Accessible Inside and Outside,"Parking On site, designated handicapped",http://www.prydelearningcentres.ca,{D1851874-42D3-4E8B-A99F-5615BA84D280},,Yes
663890.3475,4882813.31575,1437,Prince Albert YMCA School Age Program,13700 Old Simcoe Road,PRINCE ALBERT,SCUGOG,L9L 1C3,(905) 904-1186,,0,44m - 12yrs, 6:30:00AM -  6:00:00PM,King Street and Old Simcoe Road,Yes,Wheelchair Accessible Inside and Outside,"Parking On site, designated handicapped",http://www.ymcagta.org,{2681A188-0C33-4FCA-AEA3-CB35E86F8FA6},,Yes
656141.451875,4859221.1955,1439,"SKD Bilingual Child Care, A.G. Bell",25 Harkins Drive,AJAX,AJAX,L1T 3T6,(905) 239-6753,,0,44m - 12yrs, 6:30:00AM -  6:30:00PM,Church St N and Rossland Rd W,Yes,Wheelchair Accessible Inside and Outside,"Parking On site, designated handicapped",http://www.skdgarderiebilingue.ca,{E1A4323D-DFA0-4A41-922D-BC6A51A57C59},Bilingual,Yes
673567.255125,4861889.37675,1440,"SKD Bilingual Child Care, David Bouchard",460 Wilson Road South,OSHAWA,OSHAWA,L1H 6C9,(905) 239-6753,,0,44m - 12yrs, 6:30:00AM -  6:30:00PM,Wilson Rd S and Olive Ave,Yes,Wheelchair Accessible Inside and Outside,"Parking On site, designated handicapped",http://www.skdgarderiebilingue.ca,{7DF97895-DF49-449D-BB73-6E0D20A6D1EA},Bilingual,Yes
669805.3675,4863089.30375,1441,"SKD Bilingual Child Care, Woodcrest",506 Woodcrest Avenue,OSHAWA,OSHAWA,L1J 2T8,(905) 239-6753,,0,44m - 12yrs, 6:30:00AM -  6:30:00PM,Stevenson and Adelaide Ave W,Yes,Wheelchair Accessible Inside and Outside,"Parking On site, designated handicapped",http://www.skdgarderiebilingue.ca,{706F5E48-828E-4EAB-AAD5-C93065312F0B},Bilingual,Yes
685007.088875,4863940.197125,1442,"Blaisdale Montessori School, Bowmanville",80 Rhonda Boulevard,BOWMANVILLE,CLARINGTON,L1C 3Y9,(905) 697-3064,,1,Infant - 6yrs, 7:00:00AM -  6:00:00PM,Rhonda Blvd and Lawrence Gate,No,Wheelchair Accessible Inside and Outside,"Parking On site, designated handicapped",http://www.blaisdale.com,{B1E053F4-C88D-417D-A1DE-D67BD7401706},,No
677429.183375,4866716.81625,1831,"Compass ELC, Monsignor Leo Cleary",3820 Courtice Rd N,COURTICE,CLARINGTON,L1E 2L5,(705) 559-6678,,0,68m - 13yrs, 7:00:00AM -  6:00:00PM,Pebblestone and Courtice Rd N,Yes,Wheelchair Accessible Varies per location,"Parking On site, designated handicapped",http://www.compasselc.com,{DA6C7DCE-AE35-49AA-9F9E-9731387245D7},,Yes
666513.642875,4861364.739125,1832,"Fairy Glen Day Care, C.E. Broughton",80 Crawforth St,WHITBY,WHITBY,L1N 9L6,(905) 430-4787,,0,44m - 13yrs, 7:00:00AM -  6:00:00PM,Anderson and Highway 2,Yes,Wheelchair Accessible Inside and Outside,Parking On site,http://www.fairyglendaycare.com,{1014B6A1-2B7C-4502-BAD8-1F11F05A33DB},,Yes
665577.136875,4864143.3405,1833,"P.R.Y.D.E., Father Leo J Austin",1020 Dryden Boulevard,WHITBY,WHITBY,L1R 2A2,(905) 665-5072,,0,Infant - 6yrs, 6:30:00AM -  6:00:00PM,Anderson and Manning,Yes,Wheelchair Accessible Inside and Outside,"Parking On site, designated handicapped",http://www.prydelearningcentres.ca,{BF6EF301-D24F-4691-8C09-17726AAD235A},,Yes
670464.300125,4866225.28025,1834,Queen Elizabeth School Age and Full Day Program,1205 Simcoe Street North,OSHAWA,OSHAWA,L1G 4X1,(905) 723-0231,,0,Infant - 12yrs, 6:30:00AM -  6:00:00PM,Simcoe St N and Taunton Road,Yes,Wheelchair Accessible Inside and Outside,"Parking On site, designated handicapped",http://www.umbrelladaycare.com,{B333D0CE-C6A5-4E44-9C54-FAE3C3D95F76},,Yes
649685.226125,4870339.851375,1835,"Schoolhouse Playcare, Claremont",1675 Central Street,CLAREMONT,PICKERING,L1Y 1A8,(905) 649-4129,,0,Infant - 13yrs, 6:30:00AM -  6:00:00PM,Central St and Brock Rd,Yes,Wheelchair Accessible Inside and Outside,"Parking On site, designated handicapped",http://www.schoolhouseplaycare.ca,{13CB60C1-24B0-4ADF-8467-75D099554156},,Yes
654502.19475,4857669.4945,1836,Seaton Valley Childcare,2155 Brock Road,PICKERING,PICKERING,L1V 2P8,(905) 239-2273,,1,Infant - 12yrs, 6:45:00AM -  6:00:00PM,Brock and Major Oaks,Yes,Wheelchair Accessible Outside Only,"Parking On site, designated handicapped",http://www.seatonvalleychildcare.com,{6B75C03E-9721-40E9-8023-CB02AAC3FF41},,No
672783.603125,4864447.611625,1837,Sir Albert Love YMCA Before and After School Program,425 Wilson Rd N,OSHAWA,OSHAWA,L1G 6E6,(905) 925-3700,,0,44m - 13yrs, 7:00:00AM -  6:00:00PM,Wilson Rd N and Adelaide Ave E,Yes,Wheelchair Accessible Inside and Outside,"Parking On site, designated handicapped",http://www.ymcagta.org,{8A3A690E-2C26-4428-892D-37008262E26C},,Yes
673511.371625,4860084.571625,1838,"SKD Bilingual Child Care, Bobby Orr P.S.",7 Waterloo St,OSHAWA,OSHAWA,L1H 8V9,(905) 239-6753,,0,44m - 12yrs, 6:30:00AM -  6:30:00PM,Waterloo St and Ritson Rd S,Yes,Wheelchair Accessible Inside and Outside,"Parking On site, designated handicapped",http://www.skdgarderiebilingue.ca,{B0DAE13C-6586-47FB-AEC1-F043CD927E32},Bilingual,Yes
664207.09025,4860397.18225,1840,St. John YMCA Before and After Program,1103 Gifford St,WHITBY,WHITBY,L1N 2S3,(905) 447-0733,,0,44m - 12yrs, 6:45:00AM -  6:00:00PM,Gifford St & Dundas St W,Yes,Wheelchair Accessible Inside and Outside,"Parking On site, designated handicapped",http://www.ymcagta.org,{5739D1E5-B174-44E4-89A6-882A73D4173E},,Yes
659400.427,4890960.8835,1841,"Stonemoor School Age, Greenbank",1325 Cragg Rd.,GREENBANK,UXBRIDGE,L0C 1B0,(905) 960-0597,,0,44m - 7yrs, 6:30:00AM -  6:00:00PM,Hwy 7/12 and Cragg Rd,Yes,Wheelchair Accessible Inside and Outside,"Parking On site, designated handicapped",http://www.uxbridge.com/stonemoor,{0DFF999E-7E7F-40F8-948D-28476BCFA10B},,Yes
672461.65775,4858747.10175,1843,Waterview Child Care Centre,1324 Oxford St,OSHAWA,OSHAWA,L1J 3W6,(905) 721-0071,,0,44m - 13yrs, 7:00:00AM -  6:00:00PM,Phillip Murray & Oxford St,Yes,Wheelchair Accessible Inside and Outside,"Parking On site, designated handicapped",http://www.waterviewchildcarecentre.com,{84AF21E5-9ACA-4812-B80C-CB40D318346F},,Yes
665242.5115,4860410.5905,2044,Durham Montessori School and Daycare,200 Byron Street South,WHITBY,WHITBY,L1N 4P6,(905) 665-0505,,1,18m - 6yrs, 6:30:00AM -  6:30:00PM,Dundas St W and Brock St S,No,Wheelchair Accessible Inside and Outside,"Parking On site, designated handicapped",http://www.dmsd.ca,{ABA760D2-DFA0-4DD9-AF4F-71AFA0E51C74},,No
651802.17125,4853821.445875,2049,Preschool Canada Early Learning Centre,780 Kingston Rd Unit B11,PICKERING,PICKERING,L1V 0C5,(905) 492-8400,,1,Infant - 5yrs, 7:00:00AM -  6:00:00PM,White Road and Kingston Road,Yes,Wheelchair Accessible Inside and Outside,Parking On site,http://www.preschoolcanada.com,{C4D61D04-0FD1-4C05-A388-ED28CECB0445},,No
656741.31275,4857528.169875,2051,"Schoolhouse Playcare, Lincoln Avenue",70 Lincoln St,AJAX,AJAX,L1S 6C9,(905) 683-2173,,0,44m - 12yrs, 7:00:00AM -  6:00:00PM,Kingston Road and Church St,Yes,Wheelchair Accessible Inside and Outside,"Parking On site, designated handicapped",http://www.schoolhouseplaycare.ca,{21C38C5D-6D1A-4E50-9EA4-681086CC3E29},,Yes
669338.2785,4863988.962,2052,"SKD Bilingual Child Care, Adelaide McLaughlin P.S.",630 Stevenson Rd N,OSHAWA,OSHAWA,L1J 5P1,(905) 239-6753,,0,44m - 13yrs, 6:30:00AM -  6:30:00PM,Stevenson Rd and Rossland Ave,Yes,Wheelchair Accessible Inside and Outside,Parking On site,http://www.skdgarderiebilingue.ca,{0C888237-4E4C-43FB-B6E7-76FF19B2DFAF},,Yes
669067.892125,4868852.184375,2443,"Fairy Glen Day Care, Northern Dancer",2200 Bridle Road,OSHAWA,OSHAWA,L1N 0B4,(905) 440-7356,,0,Infant - 12yrs, 6:30:00AM -  6:00:00PM,Conlin Road and Simcoe Street,Yes,Wheelchair Accessible Inside and Outside,"Parking On site, designated handicapped",http://www.fairyglendaycare.com,{537F34EA-C72E-4FAF-8102-114E304427B8},,Yes
660177.3405,4860697.283125,2444,"Kids' Campus Child Care, Viola Desmond",39 Formosa Avenue,AJAX,AJAX,L1Z 0M6,(905) 725-0123,,0,Infant - 12yrs, 6:30:00AM -  6:30:00PM,Rossland Rd E and Audley Rd N,Yes,Wheelchair Accessible Inside and Outside,"Parking On site, designated handicapped",http://www.kidscampus.ca,{81E60298-F2F8-4A08-8F12-4E76965CB20B},,Yes
686228.94675,4864112.228125,2445,"Les Lucioles, Bowmanville",116 Ontario Street,BOWMANVILLE,CLARINGTON,L1C 2T4,(905) 623-1590,,0,44m - 12yrs, 6:30:00AM -  6:00:00PM,Liberty St and Highway 2,Yes,Wheelchair Accessible Inside and Outside,"Parking On site, designated handicapped",http://www.lesluciolesinc.ca,{C2F3251A-44F4-4E2F-9368-66B8E3117D84},,Yes
669382.458375,4863820.6985,2446,"SKD Bilingual Child Care, R. S. McLaughlin",570 Stevenson Road North,OSHAWA,OSHAWA,L1J 5P1,(905) 239-6753,,0,Infant - 6yrs, 6:30:00AM -  6:30:00PM,Rossland Rd W and Stevenson Rd N,Yes,Wheelchair Accessible Inside and Outside,"Parking On site, designated handicapped",http://www.skdgarderiebilingue.ca,{183D93B5-4E48-433E-9E6E-0C5AE1DB533E},Bilingual,Yes
670850.92575,4860716.65125,2447,"SKD Bilingual Child Care, College Hill",530 Laval Street,OSHAWA,OSHAWA,L1J 6L9,(905) 239-6753,,0,44m - 12yrs, 6:30:00AM -  6:30:00PM,Stevenson and Hillside,Yes,Wheelchair Accessible Inside and Outside,"Parking On site, designated handicapped",http://www.skdgarderiebilingue.ca,{CA87EBE4-A432-44A3-905A-03867E380BFD},Bilingual,Yes
652090.255,4852878.537,2448,"SKD Bilingual Child Care, Fairport Beach",754 Oklahoma Drive,PICKERING,PICKERING,L1W 2H5,(905) 239-6753,,0,44m - 12yrs, 6:30:00AM -  6:30:00PM,Whites Rd and Oklahoma Dr,Yes,Wheelchair Accessible Inside and Outside,"Parking On site, designated handicapped",http://www.skdgarderiebilingue.ca,{7190B8C4-C66C-4360-A09B-5D7C849F8879},Bilingual ,Yes
678821.22775,4862752.5945,2449,Beyond Our Dreams Preschool and Daycare,1731 Bloor Street,COURTICE,CLARINGTON,L1E 2N1,(416) 316-0140,,1,44m - 7yrs, 7:00:00AM -  6:00:00PM,Bloor St and Courtice Rd,No,Wheelchair Accessible Inside and Outside,"Parking On site, designated handicapped",http://www.beyondourdreams.ca,{E1D9D747-C963-40C6-B442-1BD8F2212621},,No
658997.18175,4855429.82375,2450,Learning Jungle Duffin's Bay,610 Monarch Avenue,AJAX,AJAX,L1S 2G8,(905) 427-6263,,1,Infant - 6yrs, 7:00:00AM -  6:00:00PM,Clemens Rd W and Monarch Avenue,Yes,Wheelchair Accessible Inside and Outside,Parking On site,http://www.learningjungle.com,{24F0A5A7-F557-4E06-A54D-4324ACB3A694},,Yes
658602.286375,4860260.642625,2451,"The Elephant Room, Harwood",901 Harwood Avenue North,AJAX,AJAX,L1Z 0T4,(905) 683-8399,,1,Infant - 6yrs, 7:00:00AM -  6:00:00PM,Rossland Road E & Harwood Ave N,Yes,Wheelchair Accessible Inside and Outside,"Parking On site, designated handicapped",http://www.theelephantroomdaycare.com,{8313B283-5C66-4581-841B-8D6CB69EDF5F},,No
658998.64375,4856948.58075,2453,Kindertots Child Care Centre Ltd.,204-206 Harwood Avenue South,AJAX,AJAX,L1S 2H2,(905) 822-2840,,1,Infant - 12yrs, 6:30:00AM -  6:30:00PM,Bayly St W and Harwood Ave S,Yes,Wheelchair Accessible Inside and Outside,"Parking On site, designated handicapped",http://www.kindertotschildcare.com,{755FCA0B-C119-46AE-8E2B-E3413407A97D},,No
665503.2165,4860770.526125,2454,Learning Tree Montessori and Daycare Inc.,126 Ash Street,WHITBY,WHITBY,L1N 4A9,(905) 239-9207,,1,30m - 6yrs, 7:00:00AM -  6:00:00PM,Dundas St E and Ash St,No,Wheelchair Accessible Inside and Outside,"Parking On site, designated handicapped",http://www.ltmontessori.ca,{C6E9B16C-4B92-41CF-B185-B9DCAEFED668},,No
675631.42725,4863792.89375,2857,Kids First Child Care Centre,1403 King Street East Unit 7,COURTICE,CLARINGTON,L1E 2J6,(647) 204-2808,,1,Infant - 1yrs, 6:30:00AM -  6:30:00PM,Townline Rd S & King St,Yes,Wheelchair Accessible Inside and Outside,Parking Public Parking Lot,http://www.kidsfirstchildcare.ca,{2EFB1C52-4A00-43E4-B579-02CC91899420},,No
663635.960625,4868784.51175,2859,Providence Day Care Centre - Winchester,"16 Winchester Road East, Unit 2",BROOKLIN,WHITBY,L1M 1B3,(905) 493-5437,,1,Infant - 13yrs, 6:30:00AM -  6:30:00PM,Winchester Rd. E and Baldwin St.,Yes,Wheelchair Accessible Inside and Outside,Parking On site,http://www.myprovidencedaycare.ca,{465128AA-1C24-42CE-8B4B-90EDF12A5E6B},,Yes
671762.1085,4868685.149625,2860,"Schoolhouse Playcare, Elsie MacGill",800 Greenhill Avenue,OSHAWA,OSHAWA,L1K 0C8,(905) 440-7320,,0,Infant - 13yrs, 6:30:00AM -  6:30:00PM,Conlin Rd E and Harmony Rd N,Yes,Wheelchair Accessible Inside and Outside,"Parking On site, designated handicapped",http://www.schoolhouseplaycare.ca,{2E0F95F5-67D5-40F8-AC10-00FE57B334F3},,Yes
670989.852875,4861093.6235,2861,St. Thomas Aquinas YMCA Before and After School,400 Pacific Avenue,OSHAWA,OSHAWA,L1J 1V9,(289) 830-9042,,0,44m - 12yrs, 7:00:00AM -  6:00:00PM,Gibb St and Stevenson Rd @,Yes,Wheelchair Accessible Inside and Outside,"Parking On site, designated handicapped",http://www.ymcagta.org,{5BE984BC-3FED-41B3-9E23-81BE91AC4D61},,Yes
657958.39925,4859454.41,3253,Dr. Roberta Bondar YMCA Child Care,25 Sullivan Drive,AJAX,AJAX,L1T 3L3,(289) 624-2101, ,0,Infant - 12yrs, 7:00:00AM -  6:00:00PM,Rossland Rd W and Westney Rd N,Yes,Wheelchair Accessible Inside and Outside,"Parking On site, designated handicapped",http://www.ymcagta.org,{44A6B063-156C-4D51-A3CA-39997433DAED},,Yes
667941.94625,4862548.81925,3254,Fairport Montessori Academy,1825 Manning Road,WHITBY,WHITBY,L1N 3M4,(647) 204-9824, ,1,30m - 6yrs, 6:45:00AM -  6:00:00PM,Garrard Rd and Manning Road,Yes,Wheelchair Accessible Inside and Outside,"Parking On site, designated handicapped",http://www.fairportmontessori.com,{F09ECF1D-7513-4133-8B07-9C37CF5D14A7},,No
653480.36625,4855492.29025,3255,Discovery Place Child Care Centre,1848 Liverpool Road Unit 12,PICKERING,PICKERING,L1V 1W3,(905) 837-9750, ,1,Infant - 12yrs, 6:45:00AM -  6:15:00PM,Liverpool and Kingston,Yes,Wheelchair Accessible Inside and Outside,"Parking On site, designated handicapped",http://www.edukids.ca,{3D89C1FF-D44E-4FD5-AF9F-F1B94B80B91E},,Yes
669176.726125,4869681.342,3257,"Fairy Glen Day Care, St. Anne",2465 Bridle Road,OSHAWA,OSHAWA,L1H 7K4,(289) 274-6403, ,0,Infant - 12yrs, 6:30:00AM -  7:00:00PM,Ritson Rd and Conlin Rd,Yes,Wheelchair Accessible Inside and Outside,"Parking On site, designated handicapped",http://www.fairyglendaycare.com,{2C716823-708D-41EE-81BE-88B6835804D2},,Yes
663508.881375,4886146.552,3258,"Helping Hands Daycare, Port Perry",15930 Old Simcoe Road Building 3,PORT PERRY,SCUGOG,L9L 0A2,(905) 985-9337, ,1,Infant - 6yrs, 6:15:00AM -  6:30:00PM,Old Simcoe Road & Reach Street,Yes,Wheelchair Accessible Inside and Outside,"Parking On site, designated handicapped",http://www.helpinghandsdaycare.ca,{F0948EFA-E311-4A61-8D85-D47F12D510C5},,Yes
658540.003,4859326.2745,3260,"SKD Bilingual Child Care, Terry Fox",30 Kerrison Drive West,AJAX,AJAX,L1Z 1K2,(905) 239-6753, ,0,44m - 13yrs, 6:30:00AM -  6:30:00PM,Kerrison & Harwood Ave,Yes,Wheelchair Accessible Inside and Outside,"Parking On site, designated handicapped",http://www.skdgarderiebilingue.ca,{C3CA5ECA-D101-4784-90A9-791E102643C5},,Yes
653903.51625,4859204.1785,4058,Angus Valley Montessori Schools,"2460 Brock Road Building A0, Unit 101",PICKERING,PICKERING,L1X 0J1,(647) 417-4444,,1,Infant - 6yrs, 7:00:00AM -  6:30:00PM,Rossland Road W & Brock Rd,Yes,Wheelchair Accessible Inside and Outside,"Parking On site, designated handicapped",http://www.avmschools.com,{CCE4C564-1E0F-4DE6-8208-329551BE8349},,No
664038.30525,4864939.173125,4059,Eh to Zed Preschool Canada Whitby,30 Broadleaf Avenue Unit 10,WHITBY,WHITBY,L4L 8J5,(416) 875-3511,,1,Infant - 6yrs, 7:00:00AM -  6:00:00PM,Taunton Rd E and Baldwin St S,Yes,Wheelchair Accessible Inside and Outside,"Parking On site, designated handicapped",http://www.preschoolcanada.com,{152B2458-3551-43A6-89DE-0D2FDB6E3F15},,No
668090.374375,4869929.63775,4060,Tiny Hoppers Early Learning Centre - Windfield Farms,2620 Simcoe Street North Unit 20,OSHAWA,OSHAWA,L1L 0R1,(905) 404-0581,,1,Infant - 6yrs, 7:00:00AM -  6:00:00PM,Simcoe St N & Winchester,Yes,Wheelchair Accessible Inside and Outside,"Parking On site, designated handicapped",http://www.tinyhoppers.ca,{DAF141E9-52B7-4101-8D7B-84D23063D6DA},,Yes
664385.8625,4859731.045875,4061,Early Learners' Montessori School - Whitby,293 Michael Boulevard Unit 1-5,WHITBY,WHITBY,L1N 5B2,(905) 444-9777,,1,18m - 6yrs, 7:00:00AM -  6:00:00PM,Annes St and Dundas St W,No,Wheelchair Accessible Inside and Outside,"Parking On site, designated handicapped",http://www.earlylearnersmontessori.com.com,{6E05099C-01F3-4ACC-9CB4-1084E89D2CA2},,No
656546.34025,4860631.72475,4062,"SKD Bilingual Child Care, Rosemary Brown",270 Williamson Drive West,AJAX,AJAX,L1T 0K8,(905) 239-6753,,0,44m - 13yrs, 6:30:00AM -  6:30:00PM,Ravenscroft Rd & Rossland Rd W,Yes,Wheelchair Accessible Inside and Outside,"Parking On site, designated handicapped",http://www.skdgarderiebilingue.ca,{DB84920E-65EA-4C09-9AA6-7BD25069441A},,Yes
664544.587,4859660.81875,4063,"Kids' Campus Child Care, St. Marguerite D'Youville",250 Michael Boulevard,WHITBY,WHITBY,L1N 5B2,(905) 626-6954,,0,44m - 12yrs, 6:30:00AM -  6:30:00PM,Highway 2 and Annes St,Yes,Wheelchair Accessible Inside and Outside,"Parking On site, designated handicapped",http://www.kidscampus.ca,{3B9018EA-DBAA-447A-B0DA-26D6F2FC37DB},,Yes
665572.5615,4865629.9925,4064,"P.R.Y.D.E., Willows Walk",51 Lazio Street,WHITBY,WHITBY,L1N 2C3,(289) 372-1036,,0,Infant - 13yrs, 6:00:00AM -  6:00:00PM,Anderson St & Taunton Rd E,Yes,Wheelchair Accessible Inside and Outside,"Parking On site, designated handicapped",http://www.prydelearningcentres.ca,{C40329C8-72B4-411D-8F16-F70ED510F1D5},,Yes
653815.864375,4856170.178375,4065,Glengrove YMCA Child Care,1934 Glengrove Road,PICKERING,PICKERING,L1V 1X2,(289) 200-0523,,0,44m - 13yrs, 7:00:00AM -  6:00:00PM,Valley Farm Rd & Kingston Rd,Yes,Wheelchair Accessible Inside and Outside,"Parking On site, designated handicapped",http://www.ymcagta.org,{821559B3-5E8D-4094-B112-3D06A2046A84},,Yes
654423.301375,4854483.524,4459,Bayview Heights YMCA Childcare Centre,1400 Garvolin Avenue,PICKERING,PICKERING,L1W 1J6,(289) 624-2924,,0,44m - 12yrs, 7:00:00AM -  6:00:00PM,Bayly and Liverpool,Yes,Wheelchair Accessible Inside and Outside,"Parking On site, designated handicapped",http://www.ymcagta.org,{993B0D39-D9FE-4294-B9DC-7DC549B66EE9},,Yes
670788.2775,4867866.71475,4476,Children's Town Playcare Center,501 Coldstream Drive Unit 7,OSHAWA,OSHAWA,L1K 3B3,(905) 240-3026,,1,18m - 6yrs, 6:00:00AM -  6:00:00PM,Coldstream Drive & Ritson Road,No,Wheelchair Accessible Inside and Outside,"Parking On site, designated handicapped",http://www.childrentownplaycare.com,{61C06633-3418-4E78-944D-2814C498C343},,No
654343.193375,4856834.2955,4477,Circles in the Sun Child Care Services,1603 Finch Ave,PICKERING,PICKERING,M1M 1B6,(905) 428-9106,,1,Infant - 12yrs,Flexible Hours,Various Locations,Yes,Wheelchair Accessible Varies per location,Parking Varies per location,,{FFF83BA6-5EF7-4105-968F-06B5158EAD27},,Yes
671505.118625,4863028.93475,4479,DMS Montessori Preschool and Daycare,101 Simcoe Street North,OSHAWA,OSHAWA,L1G 4S4,(905) 728-3372,,1,Infant - 6yrs, 7:00:00AM -  6:00:00PM,Simcoe St N & Williams St E,No,Wheelchair Accessible Inside and Outside,"Parking On site, designated handicapped",http://www.durhamregionmontessori.ca,{7DE3F2F6-F8C1-4AF4-B4F0-71943400B848},,No
671496.01175,4862706.513625,4480,EYES Canada Childcare Centre Oshawa 22,"22 King Street West, 103 & 200",OSHAWA,OSHAWA,L1H 1A3,(416) 564-0731,,1,18m - 6yrs, 7:00:00AM -  6:00:00PM,Simoce Street and King St W,Yes,Wheelchair Accessible Inside and Outside,Parking Street / Public Lot,http://www.eyeschildcare.com,{636F435F-47A7-4277-9ECC-157D9256B62E},,No
664895.181125,4865182.4935,4481,EYES Montessori Child Care Whitby,"340 Taunton Road East, Unit B1",WHITBY,WHITBY,L1R 0H4,(905) 425-5439,,1,18m - 13yrs, 7:00:00AM -  6:00:00PM,Taunton Rd and Garden St,Yes,Wheelchair Accessible Inside and Outside,Parking On site,http://www.eyeschildcare.com,{9617C6CD-3901-46F6-A589-E263D90815AF},,Yes
685141.714625,4862955.070375,4482,"Helping Hands Daycare, Bowmanville",415 Baseline Road West Unit 100,BOWMANVILLE,CLARINGTON,L1C 3K3,(905) 623-2424,,1,Infant - 6yrs, 6:15:00AM -  6:30:00PM,Baseline Road & Bowmanville Avenue,Yes,Wheelchair Accessible Inside and Outside,"Parking On site, designated handicapped",http://www.helpinghandsdaycare.ca,{90A55CCE-5786-4A4A-A98A-B8365CB30248},,Yes
657990.44475,4855883.794375,4483,Kinderbrook Montessori School,3 - 325 Westney Road South,AJAX,AJAX,L1S 6M5,(905) 686-5763,,1,18m - 6yrs, 7:30:00AM -  6:00:00PM,Westney Road and Bayly St,Yes,Wheelchair Accessible Inside and Outside,"Parking On site, designated handicapped",http://www.kinderbrookmontessori.com,{8894EF58-C98F-4069-AC48-08A9724FEF00},,No
667686.5545,4863602.375,4485,Lifelong Learning Centre,1830 Rossland Road East,WHITBY,WHITBY,L1N 3P2,(905) 240-5433,,1,18m - 6yrs, 7:00:00AM -  6:00:00PM,Garrard and Rossland Rd E,No,Wheelchair Accessible Inside and Outside,"Parking On site, designated handicapped",http://www.lifelonglearningcentre.com,{FDDCA18E-94A8-47E7-9868-E14ACD97DA70},,No
671362.399,4865643.526625,4486,"SKD Bilingual Child Care, Beau Valley P.S.",230 Marigold Avenue,OSHAWA,OSHAWA,L1G 3G3,(416) 804-8167,,0,44m - 13yrs, 6:30:00AM -  6:30:00PM,Ritson Road N and Oshawa Blvd N,Yes,Wheelchair Accessible Inside and Outside,"Parking On site, designated handicapped",http://www.skdgarderiebilingue.ca,{1AFE28E1-7564-4B48-8069-8A89433530B0},,Yes
654294.7665,4853217.778,4488,SKD Home Child Care Services,633 Liverpool Road,Pickering,PICKERING,L1W 1R1,(905) 831-0829,,1,Infant - 13yrs,Flexible Hours,Various Locations,Yes,Wheelchair Accessible Varies per location,Parking Varies per location,http://www.skdhomechildcareagency.ca,{E86B5020-9939-492D-97B1-6E99BB1DA8CF},,Yes
655930.1205,4858777.675375,4489,Bridges Kinder Connection A Ltd.,603 Church Street North B1-B3,AJAX,AJAX,L1T 0B8,(905) 428-3850,,1,Infant - 6yrs, 7:00:00AM -  6:00:00PM,Church St N and Delaney,Yes,Wheelchair Accessible Inside and Outside,"Parking On site, designated handicapped",http://www.bridgeskinderconnection.com,{30D7AB6E-25BC-48EF-9ABC-982C925D29A1},,Yes
671465.805875,4861608.40625,4490,Village Union ELCC Before and After School,155 Gibb Street,OSHAWA,OSHAWA,L1J 1Y4,(289) 928-6301,,0,44m - 12yrs, 7:00:00AM -  6:00:00PM,Park Rd and Gibb St,Yes,Wheelchair Accessible Inside and Outside,,http://www.durham.ca,{AB7D43B8-58C6-4449-B232-22EA3646775D},,Yes
685738.8835,4864813.48275,4493,Four Winds Montessori School,116 Church Street,BOWMANVILLE,CLARINGTON,L1C 1T2,(905) 623-6722,,1,30m - 5yrs, 9:00:00AM -  3:30:00PM,Mill and King,No,Wheelchair Accessible Inside and Outside,,http://www.fourwindsmontessorischool.com,{2B6B78C2-BC98-42DE-A61D-CD5CF22A1B29},,No
649156.078875,4921762.063,4495,Beaverton YMCA Child Care Centre,28775 Hwy 12,BEAVERTON,BROCK,L0K 1A0,(365) 885-5326,,0,44m - 13yrs, 7:00:00AM -  6:00:00PM,Highway 12 and Simcoe Street,Yes,Wheelchair Accessible Inside and Outside,,http://www.ymcagta.org,{66D151E0-64EB-4F06-950A-253645D1F6D2},,Yes
647951.64025,4920965.61,4496,Beaverton Holy Family YMCA,720 Simcoe Street P.O. Box 159,BEAVERTON,BROCK,L0K 1A0,(365) 885-5462,,0,18m - 12yrs, 7:00:00AM -  6:00:00PM,Highway 12 and Simcoe Street,Yes,Wheelchair Accessible Inside and Outside,,http://www.ymcagta.org,{5EFEFCB4-5222-4A22-BB0F-88A3746BC357},,Yes
680968.363625,4870421.698125,4497,"Compass ELC, M. J. Hobbs",2296 Taunton Road,HAMPTON,CLARINGTON,L0B 1J0,(365) 662-1685,,0,68m - 13yrs, 6:30:00AM -  6:00:00PM,Taunton Road and King Lane,Yes,Wheelchair Accessible Inside Only,,http://www.compasselc.com,{D4B41B88-9EDC-4C1E-9A47-B50A04E27AF0},,Yes
672759.222625,4859210.21075,4498,Waterview Child Care Centre - Dr C.F. Cannon Public School,1196 Cedar Street,Oshawa,OSHAWA,L1J 3S2,(905) 914-8138,,0,44m - 13yrs, 6:00:00AM -  6:00:00PM,Cedar Street and Thomas Street,Yes,Wheelchair Accessible Inside and Outside,,http://www.waterviewchildcarecentre.com,{9AA32BF7-B051-433A-8CDB-6C69270BBE02},,Yes
668889.77975,4868231.9915,4499,Providence Day Care Centre - Simcoe,2069 Simcoe Street North Unit B,Oshawa,OSHAWA,L1G 0C9,(365) 633-0274,,1,Infant - 6yrs, 6:30:00AM -  6:30:00PM,Simcoe Street and Conlin Road,Yes,Wheelchair Accessible Inside and Outside,,http://www.myprovidencedaycare.ca,{DEA9D1AB-EB1E-4D14-A0B5-0736F13EBA86},,Yes
663929.153125,4864621.803375,4500,First Milestones Education & Childcare,120 Taunton Rd. W,WHITBY,WHITBY,L1R 3H8,(905) 655-9161,,1,18m - 6yrs, 8:00:00AM -  5:00:00PM,Taunton & Baldwin,No,Wheelchair Accessible Inside and Outside,,,{E83E3197-5EED-451F-909E-A578ACDC4866},,No
666024.5045,4859412.169875,4501,"SKD Bilingual Child Care, Sir William Stephenson Public School",1125 Athol Street,WHITBY,WHITBY,L1N 4A6,(905) 239-6753,,0,44m - 13yrs, 6:30:00AM -  6:30:00PM,Athol Street and Main Street,Yes,Wheelchair Accessible Inside and Outside,,http://www.skdgarderiebilingue.ca,{D196F7D8-9613-4C72-91E0-F7D32FAFA27F},,Yes
673044.287375,4862599.152,4896,"Boys & Girls Club of Durham, Recreation Program",433 Eulalie Avenue,OSHAWA,OSHAWA,L1H 2C6,(905) 728-5121,,0,44m - 16yrs,Refer to Seasonal Guide,Various Locations,No,Wheelchair Accessible Inside Only,,http://www.bgcdurham.com,{1CF6484B-5282-4506-860A-A25D78A38C07},,Yes
668669.58875,4858828.91825,4898,"Schoolhouse Playcare, Summer Camps","1602 Tricont Avenue, Suite 6",WHITBY,WHITBY,L1N 7C3,(905) 728-7740,,0,60m - 14yrs,Refer to Seasonal Guide,Claremont Field Centre,Yes,Wheelchair Accessible Inside and Outside,,http://www.schoolhouseplaycare.ca,{BDD5F8DD-1B76-44D8-BDE0-2779C095A992},,No
664268.612375,4885379.27675,4899,Curiosity Before and After School Care,320 Queen St,Port Perry,SCUGOG,L9L 1L5,(905) 243-0405,,1,, 6:00:00AM -  6:30:00PM,,Yes,Wheelchair Accessible Outside Only,,http://www.curiositychilden.ca,{98B91254-62B3-401E-8A85-26464EE5A9A6},,Yes
