OBJECTID,LM_ID,LM_NAME,CATEGORY,LM_TYPE,SDA_CAT,STR_ADDR,UNIT,MUN,PR,POSTAL,PHONE,WEBSITE,Type,ExtDay,WARDNUM,ROPADRID,x,y
1,CC-OTH-001,123 TLC Preschool,Social Services,Child Care (Other),Child Care Centre,322 Queen St S,,Mississauga,ON,L5N 3E4,905-609-0881,https://peelchildcare.cioc.ca/record/CDR0554,Community-Based For-Profit Centre,No,11,93448,-8873466.06974018,5400662.24469625
2,CC-OTH-002,ABC Montessori II,Social Services,Child Care (Other),Child Care Centre,285 Matheson Blvd E,,Mississauga,ON,L4Z 1X8,905-568-1716,https://peelchildcare.cioc.ca/record/CDR0546,Community-Based For-Profit Centre,No,5,42542,-8867820.52648755,5407123.06768624
3,CC-OTH-003,Absolute Angels,Social Services,Child Care (Other),Child Care Centre,222 Salvation Rd,,Brampton,ON,L7A 0W9,905-970-0415,https://peelchildcare.cioc.ca/record/CDR0430,Community-Based For-Profit Centre,No,6,,-8886153.71446242,5416149.4149067
4,CC-PLP-001,Active Learning Centre (St. Thomas Aquinas) (PLASP),Social Services,Child Care (PLASP),Child Care Centre,25 Corporation Dr,,Brampton,ON,L6S 6A2,905-799-0685,https://peelchildcare.cioc.ca/record/CDR0397,School-Based Centre,No,8,,-8873367.25678062,5425139.61699153
5,CC-OTH-005,Advanced Care and Education Daycare,Social Services,Child Care (Other),Child Care Centre,5575 Bonnie St,,Mississauga,ON,L5M 0N8,905-270-4555,https://peelchildcare.cioc.ca/record/CDR0980,Community-Based Non-Profit Centre,No,10,294982,-8876031.85704562,5397518.46689913
6,CC-PLP-002,Agnes Taylor (PLASP),Social Services,Child Care (PLASP),Child Care Centre,80 Beech St,,Brampton,ON,L6V 1V6,905-890-1711,https://peelchildcare.cioc.ca/record/CDR0748,School-Based Centre,Yes,1,172865,-8878634.78485356,5418817.94532636
7,CC-PLP-003b,All Saints Early Learning Centre (PLASP),Social Services,Child Care (PLASP),Child Care Centre,4105 Colonial Dr,,Mississauga,ON,L5L 4E8,905-890-1711,https://peelchildcare.cioc.ca/record/CDR0474,School-Based Centre,No,8,,-8873284.66176755,5393290.72634712
8,CC-PLP-004,Aloma Cr. (PLASP),Social Services,Child Care (PLASP),Child Care Centre,57 Aloma Cres,,Brampton,ON,L6T 2N8,905-890-1711,https://peelchildcare.cioc.ca/record/CDR1043,School-Based Centre,Yes,7,84476,-8872587.64074382,5420366.92617822
9,CC-OTH-010,Alpha Child Care I,Social Services,Child Care (Other),Child Care Centre,900 Peter Robertson Blvd ,10,Brampton,ON,L6R 1A2,905-458-4884,https://peelchildcare.cioc.ca/record/CDR0378,Community-Based For-Profit Centre,No,9,187302,-8877365.76018692,5426458.54325849
10,CC-OTH-009,Alpha's Preschool Academy,Social Services,Child Care (Other),Child Care Centre,6435 Erin Mills Pky,,Mississauga,ON,L5T 2H9,905-812-8880,https://peelchildcare.cioc.ca/record/CDR0596,Community-Based For-Profit Centre,No,11,326419,-8876683.61296709,5401743.73706216
11,CC-OTH-012,Angelic Treasures Christian Child Care,Social Services,Child Care (Other),Child Care Centre,6970 Vicar Gate,,Mississauga,ON,L5W 1G7,905-670-6614,https://peelchildcare.cioc.ca/record/CDR0548,Community-Based For-Profit Centre,No,11,212098,-8874302.26563591,5408917.63613521
12,CC-OTH-103,Jingbao Bilingual Children's Centre,Social Services,Child Care (Other),Child Care Centre,3195 Erindale Station Rd,,Mississauga,ON,L5C 1Y5,905-848-5332,https://peelchildcare.cioc.ca/record/CDR1140,Community-Based For-Profit Centre,No,6,28643,-8866336.459785,5397803.44475267
13,CC-OTH-017,Applewood Rainbow Montessori School,Social Services,Child Care (Other),Child Care Centre,24 Stavebank Rd,,Mississauga,ON,L5G 2T5,905-274-2321,https://peelchildcare.cioc.ca/record/CDR0576,Community-Based For-Profit Centre,No,1,,-8859602.14036732,5396500.16558147
14,CC-PLP-005,Arnott Charlton (PLASP),Social Services,Child Care (PLASP),Child Care Centre,140 Winterfold Dr,,Brampton,ON,L6V 1V6,905-890-1711,https://peelchildcare.cioc.ca/record/CDR0751,School-Based Centre,Yes,1,253608,-8879689.30724472,5421452.13018877
15,CC-PLP-006,Artesian Drive (PLASP),Social Services,Child Care (PLASP),Child Care Centre,3325 Artesian Dr,,Mississauga,ON,L5M 7J8,905-890-1711,https://peelchildcare.cioc.ca/record/CDR0717,School-Based Centre,Yes,8,282747,-8874296.83475866,5395002.11300686
16,CC-FDC-001,Barondale (Family Day Care),Social Services,Child Care (Family Day),Child Care Centre,200 Barondale Dr,,Mississauga,ON,L5T 2J8,416-922-3434,https://peelchildcare.cioc.ca/record/CDR0858,School-Based Centre,Yes,5,301179,-8867773.22969827,5406619.59127556
17,CC-OTH-062,Circle of Children Academy,Social Services,Child Care (Other),Child Care Centre,2850 Argentia Rd ,9,Mississauga,ON,L5N 8G4,905-826-4184,https://peelchildcare.cioc.ca/record/CDR0581,Community-Based For-Profit Centre,No,9,,-8880535.65853636,5403541.91757881
18,CC-FDC-002,Beryl Ford (Family Day Care),Social Services,Child Care (Family Day),Child Care Centre,45 Ironshield Dr,,Brampton,ON,L6P 3N5,416-922-3434,https://peelchildcare.cioc.ca/record/CDR1038,School-Based Centre,Yes,10,260825,-8868768.06743564,5433108.04555366
19,CC-PLP-008,Birchbank (PLASP),Social Services,Child Care (PLASP),Child Care Centre,52 Birchbank Rd,,Brampton,ON,L6T 1L7,905-890-1711,https://peelchildcare.cioc.ca/record/CDR1049,School-Based Centre,Yes,7,75029,-8872799.99694007,5419620.248414
20,CC-PLP-009,Bishop Francis Allen (PLASP),Social Services,Child Care (PLASP),Child Care Centre,325 McMurchy Ave S,,Brampton,ON,L6Y 1Z4,905-890-1711,https://peelchildcare.cioc.ca/record/CDR0753,School-Based Centre,Yes,3,282705,-8877332.6795513,5413963.21241934
21,CC-PLP-161,St. John XXIII (PLASP),Social Services,Child Care (PLASP),Child Care Centre,915 McBride Ave,,Mississauga,ON,L5C 1M1,905-890-1711,https://peelchildcare.cioc.ca/record/CDR1047,School-Based Centre,No,6,218970,-8866029.85711712,5398464.98820561
22,CC-PLP-183,St. Teresa of Calcutta (PLASP),Social Services,Child Care (PLASP),Child Care Centre,1120 Runningbrook Dr,,Mississauga,ON,L4Y 2T2,905-890-1711,https://peelchildcare.cioc.ca/record/CDR0691,School-Based Centre,Yes,3,,-8861513.48771241,5405740.74580115
23,CC-OTH-019,Blue Elephant Daycare,Social Services,Child Care (Other),Child Care Centre,1322 Hurontario St,,Mississauga,ON,L5G 3H3,905-891-1279,https://peelchildcare.cioc.ca/record/CDR0577,Community-Based For-Profit Centre,No,1,140228,-8860005.70551983,5397801.97512661
24,CC-YMC-004,Bolton YMCA Child Care,Social Services,Child Care (YMCA),Child Care Centre,12295 Highway 50,Box 812,Caledon,ON,L7E 5T5,905-857-3531 ext 300,https://peelchildcare.cioc.ca/record/CAL0951,Community-Based Non-Profit Centre,No,5,391971,-8872426.95387996,5442955.49834454
25,CC-YMC-035,Kennedy Road North (YMCA),Social Services,Child Care (YMCA),Child Care Centre,9996 Kennedy Rd,,Brampton,ON,L6T 3S1,905-457-6006,https://peelchildcare.cioc.ca/record/CDR0439,Community-Based Non-Profit Centre,No,1,232317,-8880672.38206629,5421438.65125531
26,CC-YMC-005,Brampton YMCA,Social Services,Child Care (YMCA),Child Care Centre,20 Union St,,Brampton,ON,L6V 1R2,905-451-1400 ext 440,https://peelchildcare.cioc.ca/record/CDR0421,Community-Based Non-Profit Centre,No,1,,-8878739.32408757,5417376.62748127
27,CC-PLP-012,Brandon Gate (PLASP),Social Services,Child Care (PLASP),Child Care Centre,3800 Brandon Gate Dr,,Mississauga,ON,L4T 3V9,905-890-1711,https://peelchildcare.cioc.ca/record/CDR1045,School-Based Centre,Yes,5,239694,-8865630.12241083,5424146.85678528
28,CC-PLP-013b,Brian W. Fleming Early Learning Centre (PLASP),Social Services,Child Care (PLASP),Child Care Centre,3255 Havenwood Dr,,Mississauga,ON,L4X 2M2,905-890-1711,https://peelchildcare.cioc.ca/record/CDR0516,School-Based Centre,No,3,,-8859604.98092125,5406585.72125623
29,CC-PLP-014,Briarwood (PLASP),Social Services,Child Care (PLASP),Child Care Centre,1065 Mississauga Valley Blvd,,Mississauga,ON,L5A 2A1,905-890-1711,https://peelchildcare.cioc.ca/record/CDR0681,School-Based Centre,Yes,4,222727,-8863218.99041072,5404069.56104833
30,CC-OTH-061,Childventures Meadowvale Early Learning Academy Inc.,Social Services,Child Care (Other),Child Care Centre,7030 Royal Bank Dr,,Mississauga,ON,L5N 0B6,905-816-1515,https://peelchildcare.cioc.ca/record/CDR0552,Community-Based For-Profit Centre,No,11,,-8877647.77818215,5405103.29215426
31,CC-OTH-021,Bright Scholars Academy Inc. - Falconer,Social Services,Child Care (Other),Child Care Centre,24 Falconer Dr,,Mississauga,ON,L5N 1B1,905-826-3595,https://peelchildcare.cioc.ca/record/CDR0551,Community-Based For-Profit Centre,No,11,105102,-8875152.70564884,5403016.07641296
32,CC-OTH-022,Bright Scholars Academy Inc. - Kirwin,Social Services,Child Care (Other),Child Care Centre,3180 Kirwin Ave,,Mississauga,ON,L5A 2K7,905-896-4553,https://peelchildcare.cioc.ca/record/CDR1019,Community-Based For-Profit Centre,No,7,,-8863060.25992676,5401465.5155342
33,CC-OTH-023,Bright Scholars Montessori - Montevideo,Social Services,Child Care (Other),Child Care Centre,5920 Montevideo Rd,,Mississauga,ON,L5N 3J5,905-542-1895,https://peelchildcare.cioc.ca/record/CDR0390,Community-Based For-Profit Centre,No,9,,-8877577.7344457,5400819.20343271
34,CC-OTH-041,Brilliant Minds Montessori - Bristol,Social Services,Child Care (Other),Child Care Centre,310 Bristol Rd E,,Mississauga,ON,L5V 2C8,905-501-0436,https://peelchildcare.cioc.ca/record/CDR0540,Community-Based For-Profit Centre,No,5,275293,-8866964.79456869,5406299.04616553
35,CC-OTH-042,Brilliant Minds Montessori - Mississauga Valley,Social Services,Child Care (Other),Child Care Centre,1275 Mississauga Valley Blvd,,Mississauga,ON,L5A 3R8,905-275-4144,https://peelchildcare.cioc.ca/record/CDR0511,Community-Based For-Profit Centre,No,4,,-8863730.63009307,5403289.41356837
36,CC-PLP-015,Brisdale (PLASP),Social Services,Child Care (PLASP),Child Care Centre,370 Brisdale Dr,,Brampton,ON,L7A 3K9,905-890-1711,https://peelchildcare.cioc.ca/record/CDR0779,School-Based Centre,No,6,249522,-8887407.88557288,5418887.27918666
37,CC-OTH-044,Building Blocks Nursery School,Social Services,Child Care (Other),Child Care Centre,85 Sandalwood Pky E,,Brampton,ON,L6Z 4S3,905-846-3305,https://peelchildcare.cioc.ca/record/CDR0403,Community-Based For-Profit Centre,No,2,193281,-8883035.9858585,5422470.07012326
38,CC-PLP-018,Burnhamthorpe (PLASP),Social Services,Child Care (PLASP),Child Care Centre,3465 Golden Orchard Dr,,Mississauga,ON,L4Y 3H7,905-890-1711,https://peelchildcare.cioc.ca/record/CDR0682,School-Based Centre,Yes,3,23291,-8860818.86064687,5406291.73170033
39,CC-PLP-019,Burnt Elm (PLASP),Social Services,Child Care (PLASP),Child Care Centre,85 Burnt Elm Dr,,Brampton,ON,L7A 1T8,905-890-1711,https://peelchildcare.cioc.ca/record/CDR0769,School-Based Centre,Yes,2,261637,-8885335.10509502,5421981.39683421
40,CC-OTH-045,Busy Bees Nursery School,Social Services,Child Care (Other),Child Care Centre,168 Kennedy Rd S,,Brampton,ON,L6W 3G6,905-454-7676,https://peelchildcare.cioc.ca/record/CDR0402,Community-Based For-Profit Centre,No,3,271052,-8875344.5201516,5416315.87111569
41,CC-OTH-046,Busy Hands 'n' Minds Childcare,Social Services,Child Care (Other),Child Care Centre,4615 Glen Erin Dr,,Mississauga,ON,L5M 4E8,905-569-2999,https://peelchildcare.cioc.ca/record/CDR0553,Community-Based For-Profit Centre,No,8,276408,-8873279.03910656,5396635.76575896
42,CC-YMC-006,Caledon Central (YMCA),Social Services,Child Care (YMCA),Child Care Centre,18357 Kennedy Rd,,Caledon,ON,L7K 1Y7,519-938-5566,https://peelchildcare.cioc.ca/record/CDR1091?Number=3,School-Based Centre,Yes,1,294896,-8903664.89019297,5445429.45330248
43,CC-OTH-048,Caledon East Children's Place,Social Services,Child Care (Other),Child Care Centre,6029 Old Church Rd,,Caledon,ON,L7C 1H8,905-584-9189,https://peelchildcare.cioc.ca/record/CAL0321,Community-Based Non-Profit Centre,No,3,,-8890628.77222219,5445406.62748391
44,CC-OTH-049,Caledon Hills Montessori,Social Services,Child Care (Other),Child Care Centre,6046 Old Church Rd,,Caledon,ON,L0N 1E0,905-584-5114,https://peelchildcare.cioc.ca/record/CAL0122,Community-Based For-Profit Centre,No,3,85595,-8890663.19654892,5445563.11601259
45,CC-PLP-020,Canadian Martyrs (PLASP),Social Services,Child Care (PLASP),Child Care Centre,1185 Mississauga Valley Blvd,,Mississauga,ON,L5A 3R7,905-890-1711,https://peelchildcare.cioc.ca/record/CDR0683,School-Based Centre,Yes,4,249672,-8863552.74215314,5403638.37123482
46,CC-PLP-021,Carberry (PLASP),Social Services,Child Care (PLASP),Child Care Centre,526 Fernforest Dr,,Brampton,ON,L6R 0W1,905-890-1711,https://peelchildcare.cioc.ca/record/CDR0792,School-Based Centre,Yes,9,320758,-8880489.51352769,5427822.23266725
47,CC-PLP-158,St. John Henry Newman C.S. (PLASP),Social Services,Child Care (PLASP),Child Care Centre,698 Balmoral Dr,,Brampton,ON,L6T 1Z1,905-890-1711,https://peelchildcare.cioc.ca/record/CDR0742,School-Based Centre,Yes,7,58444,-8872120.06753581,5422480.63809305
48,CC-OTH-051,Caring for Kids - The Centre,Social Services,Child Care (Other),Child Care Centre,1110 Caven St ,105,Mississauga,ON,L5G 4N4,905-274-4362,https://peelchildcare.cioc.ca/record/CDR0578,Community-Based Non-Profit Centre,No,1,133337,-8857778.39969904,5399104.31547333
49,CC-HDC-003,Caring for Kids Home Child Care Agency,Social Services,Child Care (Home Child Care),Child Care Centre,130 Dundas St E,303,Mississauga,ON,L5A 3V8,905-270-3370,https://peelchildcare.cioc.ca/record/CDR0805,Home Care,No,7,124632,-8862420.69451574,5401133.15052181
50,CC-PLP-022,Cashmere (PLASP),Social Services,Child Care (PLASP),Child Care Centre,2455 Cashmere Ave,,Mississauga,ON,L5B 2M7,905-890-1711,https://peelchildcare.cioc.ca/record/CDR0684,School-Based Centre,Yes,7,232453,-8863927.99468477,5398359.86924882
51,CC-YMC-008,Castlebridge (YMCA),Social Services,Child Care (YMCA),Child Care Centre,2801 Castlebridge Dr,,Mississauga,ON,L5M 5J9,416-670-1800,https://peelchildcare.cioc.ca/record/CDR0852,School-Based Centre,Yes,9,308788,-8875823.42448686,5398831.97662028
52,CC-OTH-056,Centre Educatif Eveil aux Savoirs (Saint Jean Baptiste),Social Services,Child Care (French),Child Care Centre,1910 Broad Hollow Gate,,Mississauga,ON,L5L 3T4,905-569-8161,https://peelchildcare.cioc.ca/record/CDR0325,School-Based Centre,Yes,8,,-8868502.42539221,5394944.66532866
53,CC-YMC-010,Champlain Trail (YMCA),Social Services,Child Care (YMCA),Child Care Centre,895 Ceremonial Dr,,Mississauga,ON,L5R 3B5,905-507-1058,https://peelchildcare.cioc.ca/record/CDR0498,School-Based Centre,Yes,5,,-8869748.20289534,5404319.04973482
54,CC-FDC-003,Cherrytree (Family Day Care),Social Services,Child Care (Family Day),Child Care Centre,155 Cherrytree Dr,,Brampton,ON,L6Y 3M9,416-922-3434,https://peelchildcare.cioc.ca/record/CDR0458,School-Based Centre,Yes,4,57223,-8874922.33175264,5412066.46716194
55,CC-OTH-058,Children's Choice Day Care Inc.,Social Services,Child Care (Other),Child Care Centre,2021 Williams Pky E,"5,6",Brampton,ON,L6S 5P4,905-789-1716,https://peelchildcare.cioc.ca/record/CDR0392,Community-Based For-Profit Centre,No,8,310714,-8872593.83169243,5427898.23671164
56,CC-OTH-059,Children's Circle Montessori School,Social Services,Child Care (Other),Child Care Centre,35 Brisdale Dr,,Brampton,ON,L7A 0S9,905-609-6900,https://peelchildcare.cioc.ca/record/CDR0972,Community-Based For-Profit Centre,No,6,257534,-8884693.76620604,5416780.12859035
57,CC-OTH-060,Children's Palace Montessori and Pre-school,Social Services,Child Care (Other),Child Care Centre,820 Southdown Rd,,Mississauga,ON,L5J 2Y4,905-823-3317,https://peelchildcare.cioc.ca/record/CDR0572,Community-Based For-Profit Centre,No,2,49511,-8863912.79958628,5389535.48926759
58,CC-HDC-004,ChildSPEC Licensed Home Day Care Services,Social Services,Child Care (Home Child Care),Child Care Centre,31 Blue Oak Ave,,Brampton,ON,L6R 1B5,905-793-6444,https://peelchildcare.cioc.ca/record/CDR0799,Home Care,No,9,84471,-8878869.22614083,5426202.87788504
59,CC-PLP-024b,Christ the King Early Learning Centre (PLASP),Social Services,Child Care (PLASP),Child Care Centre,3240 Garthwood Rd,,Mississauga,ON,L5L 5A3,905-890-1711,https://peelchildcare.cioc.ca/record/CDR0928,School-Based Centre,No,8,272768,-8871668.80092311,5392088.83142256
60,CC-YMC-012,Churchill Meadows (YMCA),Social Services,Child Care (YMCA),Child Care Centre,3310 McDowell Dr,,Mississauga,ON,L6R 6R8,416-300-7744,https://peelchildcare.cioc.ca/record/CDR0861,School-Based Centre,Yes,10,287575,-8877458.64926033,5397507.79187207
61,CC-PLP-025,Claireville (PLASP),Social Services,Child Care (PLASP),Child Care Centre,97 Gallucci Cres,,Brampton,ON,L6P 1R6,905-890-1711,https://peelchildcare.cioc.ca/record/CDR0788,School-Based Centre,Yes,8,304568,-8868928.35215778,5430144.8557988
62,CC-PLP-026,Clark Blvd. (PLASP),Social Services,Child Care (PLASP),Child Care Centre,201 Clark Blvd,,Brampton,ON,L6T 2C9,905-890-1711,https://peelchildcare.cioc.ca/record/CDR0784,School-Based Centre,Yes,7,190080,-8874201.62345601,5421406.03209896
63,CC-PLP-027,Clarkson (PLASP),Social Services,Child Care (PLASP),Child Care Centre,888 Clarkson Rd S,,Mississauga,ON,L5J 2B9,905-890-1711,https://peelchildcare.cioc.ca/record/CDR0661,School-Based Centre,Yes,2,44821,-8863388.22441643,5390552.88339608
64,CC-OTH-064,Clarkson Angels Child Care and Educational Centre (South),Social Services,Child Care (Other),Child Care Centre,1146 Clarkson Rd N,,Mississauga,ON,L5J 2W1,905-855-1146,https://peelchildcare.cioc.ca/record/CDR0887,Community-Based For-Profit Centre,No,2,,-8864135.14457621,5391405.98523703
65,CC-OTH-065,Clarkson Co-operative Nursery School,Social Services,Child Care (Other),Child Care Centre,1700 Mazo Cres,,Mississauga,ON,L5J 1Y9,905-855-2106,https://peelchildcare.cioc.ca/record/CDR0569,Community-Based Non-Profit Centre,No,2,139678,-8864674.68659805,5392403.94385273
66,CC-PLP-028,Clifton (PLASP),Social Services,Child Care (PLASP),Child Care Centre,2389 Cliff Rd,,Mississauga,ON,L5A 2P1,905-890-1711,https://peelchildcare.cioc.ca/record/CDR0991,School-Based Centre,Yes,7,118130,-8861167.76377275,5401291.53837966
67,CC-OTH-067,Closer to Home Child Care,Social Services,Child Care (Other),Child Care Centre,3955 Cottrelle Blvd ,"5,6,7",Brampton,ON,L6P 2P9,905-913-0144,https://peelchildcare.cioc.ca/record/CDR0396,Community-Based For-Profit Centre,No,10,262032,-8867686.37009345,5432060.63113005
68,CC-FDC-004,Collegeside Early Learning Centre (Family Day Care),Social Services,Child Care (Family Day),Child Care Centre,7899 McLaughlin Rd ,,Brampton,ON,L6V 1G6,905-450-1996,https://peelchildcare.cioc.ca/record/CDR0428,Community-Based Non-Profit Centre,No,4,271146,-8876496.41676017,5412412.5607396
69,CC-YMC-027,Hanson Road (YMCA),Social Services,Child Care (YMCA),Child Care Centre,30 Hanson Rd,,Mississauga,ON,L5B 3A7,905-270-4137,https://peelchildcare.cioc.ca/record/CDR0446,Community-Based Non-Profit Centre,No,7,4788,-8863913.52414882,5401626.09669126
70,CC-PLP-030,Cooksville Creek (PLASP),Social Services,Child Care (PLASP),Child Care Centre,5100 Salishan Cir,,Mississauga,ON,L5R 3E3,905-890-1711,https://peelchildcare.cioc.ca/record/CDR0713,School-Based Centre,Yes,5,296969,-8867611.27334477,5404819.66530557
71,CC-PLP-031,Copeland (PLASP),Social Services,Child Care (PLASP),Child Care Centre,5 Young Dr,,Brampton,ON,L6Y 0P4,905-890-1711,https://peelchildcare.cioc.ca/record/CDR0789,School-Based Centre,Yes,4,250527,-8879155.00404322,5411491.37731083
72,CC-PLP-032,Corliss (PLASP),Social Services,Child Care (PLASP),Child Care Centre,3730 Corliss Cres,,Mississauga,ON,L4T 2Z4,905-890-1711,https://peelchildcare.cioc.ca/record/CDR1041,School-Based Centre,No,5,62527,-8865043.96016132,5423370.01181453
73,CC-PLP-033,Corsair (PLASP),Social Services,Child Care (PLASP),Child Care Centre,2230 Corsair Rd,,Mississauga,ON,L5A 2L9,905-890-1711,https://peelchildcare.cioc.ca/record/CDR0685,School-Based Centre,No,7,259398,-8860981.97845434,5400408.14255834
74,CC-OTH-069,Countryside Montessori and Private School,Social Services,Child Care (Other),Child Care Centre,1 Loring Dr,,Caledon,ON,L7E 1Y1,905-951-3359,https://peelchildcare.cioc.ca/record/CAL0058,Community-Based For-Profit Centre,No,5,287039,-8873802.24505927,5443813.20057295
75,CC-OTH-071,Creative Children's Montessori School,Social Services,Child Care (Other),Child Care Centre,16 Parr Blvd,,Caledon,ON,L7E 4H1,905-951-8606,https://peelchildcare.cioc.ca/record/CAL0268,Community-Based For-Profit Centre,No,5,293753,-8872625.26887394,5442707.39213129
76,CC-YMC-015,Credit Valley (YMCA),Social Services,Child Care (YMCA),Child Care Centre,2365 Credit Valley Rd,,Mississauga,ON,L5M 4G8,905-828-9295,https://peelchildcare.cioc.ca/record/CDR0499,School-Based Centre,Yes,8,294541,-8872922.18642636,5396755.48715403
77,CC-YMC-016,Derry West Village (YMCA),Social Services,Child Care (YMCA),Child Care Centre,620 Twain Ave,,Mississauga,ON,L5W 1M1,1-647-273-3514,https://peelchildcare.cioc.ca/record/CDR1090,School-Based Centre,Yes,11,304035,-8874737.54587732,5409983.60942781
78,CC-YMC-017,Derry Woods YMCA,Social Services,Child Care (YMCA),Child Care Centre,6970 Lisgar Dr,,Mississauga,ON,L5N 8C8,905-824-3692,https://peelchildcare.cioc.ca/record/CDR0559,Community-Based Non-Profit Centre,No,10,,-8881510.34996829,5400021.93668049
79,CC-OTH-072,Discovery Montessori - Ninth Line Campus (The),Social Services,Child Care (Other),Child Care Centre,6553 Ninth Line,,Mississauga,ON,L5N 7B9,905-824-9246,https://peelchildcare.cioc.ca/record/CDR0594,Community-Based For-Profit Centre,No,10,160110,-8880883.05174879,5398925.3878553
80,CC-PLP-034,Divine Mercy (PLASP),Social Services,Child Care (PLASP),Child Care Centre,2840 Duncairn Dr,,Mississauga,ON,L5M 5C6,905-890-1711,https://peelchildcare.cioc.ca/record/CDR0707,School-Based Centre,Yes,9,284143,-8874852.34438043,5397574.41879734
81,CC-PLP-035,Dixie (PLASP),Social Services,Child Care (PLASP),Child Care Centre,1120 Flagship Dr,,Mississauga,ON,L4Y 2K1,905-890-1711,https://peelchildcare.cioc.ca/record/CDR0686,School-Based Centre,Yes,3,109716,-8860615.43430464,5404993.01928568
82,CC-PLP-036,Dorset Drive (PLASP),Social Services,Child Care (PLASP),Child Care Centre,100 Dorset Dr,,Brampton,ON,L6T 2Y9,905-890-1711,https://peelchildcare.cioc.ca/record/CDR0745,School-Based Centre,Yes,7,68794,-8872049.91928753,5421611.94923418
83,CC-PLP-037,Dunrankin Drive (PLASP),Social Services,Child Care (PLASP),Child Care Centre,3700 Dunrankin Dr,,Mississauga,ON,L4T 1V9,905-890-1711,https://peelchildcare.cioc.ca/record/CDR1138,School-Based Centre,Yes,5,16709,-8864450.86627685,5422679.34039557
84,CC-PLP-038,Eagle Plains (PLASP),Social Services,Child Care (PLASP),Child Care Centre,40 Eagle Plains Dr,,Brampton,ON,L6R 2X8,905-890-1711,https://peelchildcare.cioc.ca/record/CDR0796,School-Based Centre,No,10,309520,-8876896.93646517,5430459.90781744
85,CC-PLP-039,Eastbourne (PLASP),Social Services,Child Care (PLASP),Child Care Centre,702 Balmoral Dr,,Brampton,ON,L6T 1X3,905-890-1711,https://peelchildcare.cioc.ca/record/CDR0743,School-Based Centre,Yes,7,241601,-8871742.15612902,5422502.40776546
86,CC-OTH-075,Eden Day Care Inc.,Social Services,Child Care (Other),Child Care Centre,3051 Battleford Rd,,Mississauga,ON,L5N 5Z9,905-824-5153,https://peelchildcare.cioc.ca/record/CDR0519,Community-Based Non-Profit Centre,No,9,12007,-8878843.42316241,5400571.76400033
87,CC-PLP-040b,Edenrose Early Learning Centre (PLASP),Social Services,Child Care (PLASP),Child Care Centre,1342 Edenrose St,,Mississauga,ON,L5V 1K9,905-890-1711,https://peelchildcare.cioc.ca/record/CDR0555,School-Based Centre,No,6,,-8869456.97407722,5400525.1001409
88,CC-YMC-019,Edenbrook Hill (YMCA),Social Services,Child Care (YMCA),Child Care Centre,61 Edenbrook Hill Dr,,Brampton,ON,L7A 1X6,905-451-1400 ext 483,https://peelchildcare.cioc.ca/record/CDR0732,School-Based Centre,Yes,6,248807,-8884221.65476713,5418462.89327745
89,CC-OTH-076,Educare Children's Centre,Social Services,Child Care (Other),Child Care Centre,1615 Bloor St,,Mississauga,ON,L4X 1S2,905-625-7871,https://peelchildcare.cioc.ca/record/CDR0444,Community-Based Non-Profit Centre,No,3,239153,-8860013.56057248,5406999.65636076
90,CC-OTH-078,Elite Montessori School,Social Services,Child Care (Other),Child Care Centre,6395 Mississauga Rd,,Mississauga,ON,L5N 1A5,905-567-6600,https://peelchildcare.cioc.ca/record/CDR0544,Community-Based For-Profit Centre,No,11,351151,-8875878.39619218,5403246.56479694
91,CC-YMC-020,Ellwood (YMCA),Social Services,Child Care (YMCA),Child Care Centre,35 Ellwood Dr E,,Caledon,ON,L7E 2A7,416-454-5535,https://peelchildcare.cioc.ca/record/CDR0600,School-Based Centre,Yes,5,350922,-8875427.13363953,5446156.37637021
92,CC-OTH-079,Erin Mills Co-Op Nursery,Social Services,Child Care (Other),Child Care Centre,2264 Council Ring Rd,,Mississauga,ON,L5L 1B7,905-820-5599,https://peelchildcare.cioc.ca/record/CDR0467,Community-Based Non-Profit Centre,No,8,308060,-8869403.87653145,5394050.58466416
93,CC-YMC-073,Williamsport (YMCA),Social Services,Child Care (YMCA),Child Care Centre,1320 Williamsport Dr,,Mississauga,ON,L4X 2T6,905-625-5624,https://peelchildcare.cioc.ca/record/CDR0445,Community-Based Non-Profit Centre,No,3,,-8860655.09087809,5406907.82736773
94,CC-OTH-081,Eureka Kids,Social Services,Child Care (Other),Child Care Centre,130 Mineola Rd E,,Mississauga,ON,L5G 2E7,905-838-0209,https://peelchildcare.cioc.ca/record/CDR0588,Community-Based For-Profit Centre,No,1,,-8859629.8619015,5398200.9923162
95,CC-FDC-008,Fairlawn (Family Day Care),Social Services,Child Care (Family Day),Child Care Centre,40 Fairlawn Blvd,,Brampton,ON,L6P 2X4,416-922-3434,https://peelchildcare.cioc.ca/record/CDR1033,School-Based Centre,Yes,10,390124,-8875046.37059115,5429600.72895645
96,CC-PLP-041,Fairview (PLASP),Social Services,Child Care (PLASP),Child Care Centre,3590 Joan Dr,,Mississauga,ON,L5B 1T8,905-890-1711,https://peelchildcare.cioc.ca/record/CDR0688,School-Based Centre,Yes,7,266407,-8865125.31766436,5402001.98062845
97,CC-PLP-043,Fallingdale (PLASP),Social Services,Child Care (PLASP),Child Care Centre,510 Clark Blvd,,Brampton,ON,L6T 2E4,905-890-1711,https://peelchildcare.cioc.ca/record/CDR1051,School-Based Centre,Yes,8,181497,-8873268.16098372,5422677.61727358
98,CC-PLP-044,Father C.W. Sullivan (PLASP),Social Services,Child Care (PLASP),Child Care Centre,62 Seaborn Rd,,Brampton,ON,L6V 2C1,905-890-1711,https://peelchildcare.cioc.ca/record/CDR0749,School-Based Centre,No,1,63600,-8877391.32009971,5420073.3632124
99,CC-PLP-045,Father Clair Tipping (PLASP),Social Services,Child Care (PLASP),Child Care Centre,25 Mountainberry Rd,,Brampton,ON,L6R 1J3,905-890-1711,https://peelchildcare.cioc.ca/record/CDR0741,School-Based Centre,Yes,10,267845,-8875692.27326303,5429124.95695415
100,CC-PLP-046,Father Daniel Zanon (PLASP),Social Services,Child Care (PLASP),Child Care Centre,450 Hillcrest Ave,,Mississauga,ON,L5B 4J3,905-890-1711,https://peelchildcare.cioc.ca/record/CDR0679,School-Based Centre,Yes,7,323755,-8864430.11216256,5399586.51848784
101,CC-YMC-022,Father Francis McSpiritt (YMCA),Social Services,Child Care (YMCA),Child Care Centre,55 Lexington Rd,,Brampton,ON,L6P 2B1,905-451-1400 ext 483,https://peelchildcare.cioc.ca/record/CDR0847,School-Based Centre,Yes,8,287917,-8871983.7837563,5430625.95230168
102,CC-PLP-047,Father Michael Goetz Early Learning Centre (PLASP),Social Services,Child Care (PLASP),Child Care Centre,330 Central Pky W,,Mississauga,ON,L5B 3K6,905-615-0236,https://peelchildcare.cioc.ca/record/CDR0483,School-Based Centre,No,7,,-8865140.44809803,5400967.62609019
103,CC-PLP-048,Fernforest (PLASP),Social Services,Child Care (PLASP),Child Care Centre,275 Fernforest Dr,,Brampton,ON,L6R 1L9,905-890-1711,https://peelchildcare.cioc.ca/record/CDR0762,School-Based Centre,Yes,9,218160,-8878597.34408346,5426287.97524991
104,CC-OTH-084,First Friends Preschool and Daycare,Social Services,Child Care (Other),Child Care Centre,860 North Park Dr ,12,Brampton,ON,L6S 4N5,905-457-8444,https://peelchildcare.cioc.ca/record/CDR0806,Community-Based For-Profit Centre,No,7,293523,-8877690.10525789,5423759.43274097
105,CC-OTH-202,Songbirds Montessori School - Fisherman Drive,Social Services,Child Care (Other),Child Care Centre,2 Fisherman Dr,11A,Brampton,ON,L7A 1B5,905-846-4044,https://peelchildcare.cioc.ca/record/CDR1365,Community-Based For-Profit Centre,No,2,319042,-8883377.71574011,5421479.44171461
106,CC-OTH-085,Fletcher's Creek (Fletcher's Creek Children's Centre),Social Services,Child Care (Other),Child Care Centre,92 Malta Ave,,Brampton,ON,L6Y 4C8,905-452-9299,https://peelchildcare.cioc.ca/record/CDR0407,School-Based Centre,Yes,4,200725,-8875550.68298059,5412724.08440661
107,CC-PLP-049,Floradale (PLASP),Social Services,Child Care (PLASP),Child Care Centre,210 Paisley Blvd W,,Mississauga,ON,L5B 2A4,905-890-1711,https://peelchildcare.cioc.ca/record/CDR0695,School-Based Centre,Yes,7,23062,-8862771.1599129,5399380.96798188
108,CC-PLP-050,Folkstone (PLASP),Social Services,Child Care (PLASP),Child Care Centre,104 Folkstone Cres,,Brampton,ON,L6T 3M5,905-890-1711,https://peelchildcare.cioc.ca/record/CDR0747,School-Based Centre,Yes,8,187846,-8872899.8962718,5423766.57770903
109,CC-PLP-051,Forest Ave. (PLASP),Social Services,Child Care (PLASP),Child Care Centre,20 Forest Ave,,Mississauga,ON,L5G 1K7,905-890-1711,https://peelchildcare.cioc.ca/record/CDR0836,School-Based Centre,Yes,1,138997,-8859058.76803098,5397301.19761066
110,CC-PLP-052,Forest Glen (PLASP),Social Services,Child Care (PLASP),Child Care Centre,3400 Ponytrail Dr,,Mississauga,ON,L4X 1V5,905-890-1711,https://peelchildcare.cioc.ca/record/CDR0687,School-Based Centre,Yes,3,28640,-8859807.37829817,5407955.42007928
111,CC-OTH-086,Forum Italia,Social Services,Child Care (Other),Child Care Centre,195 Forum Dr,,Mississauga,ON,L4Z 3M5,905-507-2713,https://peelchildcare.cioc.ca/record/CDR0503,Community-Based Non-Profit Centre,No,5,,-8866674.39571066,5405591.18833659
112,CC-OTH-087,FUN School,Social Services,Child Care (Other),Child Care Centre,44 Port St W,,Mississauga,ON,L5H 1C9,905-274-4386,https://peelchildcare.cioc.ca/record/CDR0586,Community-Based Non-Profit Centre,No,1,,-8859654.01324794,5395852.01968077
113,CC-OTH-088,Fun to Learn Montessori,Social Services,Child Care (Other),Child Care Centre,1840 Argentia Rd,,Mississauga,ON,L5N 1P9,905-812-9606,https://peelchildcare.cioc.ca/record/CDR0547,Community-Based For-Profit Centre,No,11,275331,-8876233.95554084,5404209.32942249
114,CC-OTH-091,Garderie Du Cercle De L'Amitie (Carrefour des Jeunes),Social Services,Child Care (French),Child Care Centre,375 Centre St N,,Brampton,ON,L6V 4N4,905-459-8008,https://peelchildcare.cioc.ca/record/MAL0127,School-Based Centre,Yes,1,297672,-8880194.684,5420215.19464599
115,CC-YMC-023,Garthwood Park (YMCA),Social Services,Child Care (YMCA),Child Care Centre,3245 Colonial Dr,,Mississauga,ON,L5L 4K3,905-607-2670,https://peelchildcare.cioc.ca/record/CDR0469,School-Based Centre,Yes,8,,-8871399.65189938,5392043.9879326
116,CC-PLP-053,Georges Vanier (PLASP),Social Services,Child Care (PLASP),Child Care Centre,28 Finchgate Blvd,,Brampton,ON,L6T 3H9,905-890-1711,https://peelchildcare.cioc.ca/record/CDR0764,School-Based Centre,Yes,8,172608,-8873448.49089339,5423385.28809783
117,CC-PLP-054,Glendale (PLASP),Social Services,Child Care (PLASP),Child Care Centre,35 Sunset Blvd,,Brampton,ON,L6X 1X1,905-890-1711,https://peelchildcare.cioc.ca/record/CDR0757,School-Based Centre,Yes,1,231024,-8880679.2640848,5417198.31565774
118,CC-OTH-094,Glenroy Preschool Centre,Social Services,Child Care (Other),Child Care Centre,755 Bloor St,,Mississauga,ON,L4Y 2M7,905-277-3323,https://peelchildcare.cioc.ca/record/CDR0448,Community-Based For-Profit Centre,No,3,,-8861979.55021061,5404179.53134898
119,CC-YMC-024,Goldcrest (YMCA),Social Services,Child Care (YMCA),Child Care Centre,24 Goldcrest Rd,,Brampton,ON,L6S 1G3,905-943-9622 ext 750,https://peelchildcare.cioc.ca/record/CDR1056,School-Based Centre,Yes,8,77366,-8874489.76854909,5423754.72238225
120,CC-OTH-095,Golden Orchard Montessori School,Social Services,Child Care (Other),Child Care Centre,1170 Tynegrove Rd,,Mississauga,ON,L4W 3B2,905-629-7555,https://peelchildcare.cioc.ca/record/CDR0447,Community-Based For-Profit Centre,No,3,30726,-8861921.62332316,5406591.00679221
121,CC-PLP-055,Good Shepherd (PLASP),Social Services,Child Care (PLASP),Child Care Centre,28 Red River Dr,,Brampton,ON,L6R 2H9,905-890-1711,https://peelchildcare.cioc.ca/record/CDR0772,School-Based Centre,Yes,9,329656,-8877341.76978405,5427808.97739048
122,CC-YMC-025,Great Lakes (YMCA),Social Services,Child Care (YMCA),Child Care Centre,285 Great Lakes Dr,,Brampton,ON,L6R 2R8,905-451-1400 ext 483,https://peelchildcare.cioc.ca/record/CDR0892,School-Based Centre,Yes,9,279800,-8879746.66771452,5424785.77804957
123,CC-YMC-009,Central Park (YMCA),Social Services,Child Care (YMCA),Child Care Centre,1100 Central Park Dr,,Brampton,ON,L6S 2C9,905-793-5970,https://peelchildcare.cioc.ca/record/CDR0382,Community-Based Non-Profit Centre,No,8,167829,-8874081.66319793,5424672.36794748
124,CC-YMC-026,Grenoble (YMCA),Social Services,Child Care (YMCA),Child Care Centre,33 Greenbriar Rd,,Brampton,ON,L6S 1V8,905-943-9622 ext 750,https://peelchildcare.cioc.ca/record/CDR1055,School-Based Centre,Yes,8,177206,-8874105.05496484,5425008.58699752
125,CC-PLP-056,Guardian Angels (PLASP),Social Services,Child Care (PLASP),Child Care Centre,62 Heatherdale Dr,,Brampton,ON,L7A 2H4,905-890-1711,https://peelchildcare.cioc.ca/record/CDR0776,School-Based Centre,Yes,6,225169,-8885455.62874209,5417066.67543593
126,CC-PLP-057,Hanover (PLASP),Social Services,Child Care (PLASP),Child Care Centre,215 Hanover Rd,,Brampton,ON,L6S 1B6,905-890-1711,https://peelchildcare.cioc.ca/record/CDR0750,School-Based Centre,Yes,7,55521,-8875387.92566806,5422035.76769304
127,CC-OTH-098,Happy Life Centre,Social Services,Child Care (Other),Child Care Centre,68 Rutherford Rd N,,Brampton,ON,L6V 2J1,905-457-1581,https://peelchildcare.cioc.ca/record/CDR0408,Community-Based Non-Profit Centre,No,1,,-8877366.51257976,5419799.82460403
128,CC-PLP-058,Hawthorn (PLASP),Social Services,Child Care (PLASP),Child Care Centre,2473 Rosemary Dr,,Mississauga,ON,L5C 1X1,905-890-1711,https://peelchildcare.cioc.ca/record/CDR0649,School-Based Centre,Yes,7,121196,-8864915.24316533,5397274.17195223
129,CC-OTH-030,BrightPath - Matheson West,Social Services,Child Care (Other),Child Care Centre,155 Matheson Blvd W,C,Mississauga,ON,L5R 3L5,905-568-4770,https://peelchildcare.cioc.ca/record/CDR0504,Community-Based For-Profit Centre,No,5,3970,-8869202.74851065,5406259.91899948
130,CC-OTH-032,BrightPath - Milverton,Social Services,Child Care (Other),Child Care Centre,100 Milverton Dr,,Mississauga,ON,L5R 4H1,905-568-1371,https://peelchildcare.cioc.ca/record/CDR0543,Community-Based For-Profit Centre,No,5,105036,-8869279.83351456,5406552.89798203
131,CC-OTH-099,Hearts in Bloom Academy,Social Services,Child Care (Other),Child Care Centre,6785 Millcreek Dr,,Mississauga,ON,L5N 5M4,905-785-2671,https://peelchildcare.cioc.ca/record/CDR0532,Community-Based Non-Profit Centre,No,9,,-8877962.92315729,5403095.98274687
132,CC-FDC-012,Hickory Wood (Family Day Care),Social Services,Child Care (Family Day),Child Care Centre,630 Ray Lawson Blvd,,Brampton,ON,L6Y 4W8,416-922-3434,https://peelchildcare.cioc.ca/record/CDR0409,School-Based Centre,Yes,4,,-8876981.68499013,5410914.27626399
133,CC-PLP-061,Hilldale (PLASP),Social Services,Child Care (PLASP),Child Care Centre,100 Hilldale Cres,,Brampton,ON,L6S 2N3,905-890-1711,https://peelchildcare.cioc.ca/record/CDR0752,School-Based Centre,Yes,7,278004,-8875309.97046032,5423632.77737646
134,CC-PLP-062,Holy Cross (PLASP),Social Services,Child Care (PLASP),Child Care Centre,3615 Morning Star Dr,,Mississauga,ON,L4T 1Y4,905-890-1711,https://peelchildcare.cioc.ca/record/CDR0656,School-Based Centre,Yes,5,95191,-8865124.08006625,5422961.76706812
135,CC-OTH-190,Sadochok Ukrainian Nursery School Mississauga,Social Services,Child Care (Other),Child Care Centre,3625 Cawthra Rd,,Mississauga,ON,L5A 2Y4,905-276-4815,https://peelchildcare.cioc.ca/record/CDR0443,Community-Based For-Profit Centre,No,3,26633,-8862862.56275316,5404803.91835211
136,CC-YMC-031,Holy Family (YMCA),Social Services,Child Care (YMCA),Child Care Centre,61 Allan Dr,,Caledon,ON,L7E 1P7,647-401-5057,https://peelchildcare.cioc.ca/record/CDR0607,School-Based Centre,Yes,5,216847,-8875102.81688489,5445915.43208153
137,CC-FDC-010,Family Day Care Services - Holy Spirit Early Learning & Child Care Centre,Social Services,Child Care (Family Day),Child Care Centre,25 Bloomsbury Ave,,Brampton,ON,L6P 1W9,416-922-3434,https://peelchildcare.cioc.ca/record/CDR0844,School-Based Centre,Yes,10,280340,-8875468.67701139,5432176.72615957
138,CC-PLP-063,Homestead (PLASP),Social Services,Child Care (PLASP),Child Care Centre,99 Fletchers Creek Blvd,,Brampton,ON,L6X 4T7,905-890-1711,https://peelchildcare.cioc.ca/record/CDR0775,School-Based Centre,Yes,5,241372,-8883144.08515314,5417342.66695098
139,CC-YMC-032,Howden (YMCA),Social Services,Child Care (YMCA),Child Care Centre,355 Howden Blvd,,Brampton,ON,L6S4L6,905-458-7873,https://peelchildcare.cioc.ca/record/CDR0383,Community-Based Non-Profit Centre,No,7,173153,-8876665.90021162,5421889.57825909
140,CC-YMC-033,Humberview (YMCA),Social Services,Child Care (YMCA),Child Care Centre,135 Kingsview Dr,,Caledon,ON,L7E 3V8,416-450-4606,https://peelchildcare.cioc.ca/record/CDR0601,School-Based Centre,No,6,201498,-8876350.12473453,5448230.31593382
141,CC-PLP-064b,Huntington Ridge Early Learning Centre (PLASP),Social Services,Child Care (PLASP),Child Care Centre,345 Huntington Ridge Dr,,Mississauga,ON,L5R 1R6,905-890-1711,https://peelchildcare.cioc.ca/record/CDR0557,School-Based Centre,No,4,,-8867378.59223374,5403278.19483703
142,CC-YMC-034,Ingleborough (YMCA),Social Services,Child Care (YMCA),Child Care Centre,60 Ingleborough Dr,,Brampton,ON,L6S 0X5,905-943-9622 ext 750,https://peelchildcare.cioc.ca/record/CDR1057,School-Based Centre,Yes,5,296039,-8883684.13472466,5412926.08068569
143,CC-PLP-066,James Bolton (PLASP),Social Services,Child Care (PLASP),Child Care Centre,225 Kingsview Dr,,Caledon,ON,L7E 3X8,905-890-1711,https://peelchildcare.cioc.ca/record/CDR0603,School-Based Centre,Yes,6,18056,-8876733.52197244,5447920.00908587
144,CC-PLP-067,James Potter (PLASP),Social Services,Child Care (PLASP),Child Care Centre,9775 Creditview Rd,,Brampton,ON,L6X 0H7,905-890-1711,https://peelchildcare.cioc.ca/record/CDR0787,School-Based Centre,Yes,5,306225,-8884700.24580665,5414950.55384404
145,CC-PLP-068,Janet McDougald (PLASP),Social Services,Child Care (PLASP),Child Care Centre,498 Hartsdale Ave,,Mississauga,ON,L5G 2G6,905-890-1711,https://peelchildcare.cioc.ca/record/CDR1050,School-Based Centre,Yes,1,139170,-8858683.71691421,5399469.53364478
146,CC-PLP-069,Jefferson (PLASP),Social Services,Child Care (PLASP),Child Care Centre,48 Jefferson Rd,,Brampton,ON,L6S 2N9,905-890-1711,https://peelchildcare.cioc.ca/record/CDR0756,School-Based Centre,Yes,8,287916,-8875538.40890124,5425029.94185713
147,CC-OTH-104,Junior Scholars Preschool,Social Services,Child Care (Other),Child Care Centre,1400 Lakeshore Rd W,"1,2,3",Mississauga,ON,L5L 2K8,905-823-7575,https://peelchildcare.cioc.ca/record/CDR0573,Community-Based For-Profit Centre,No,2,39624,-8862671.59734861,5392150.51711022
148,CC-OTH-105,Kaban Montessori Preschool,Social Services,Child Care (Other),Child Care Centre,2449 Dunwin Dr,,Mississauga,ON,L5L 1T1,905-569-3112,https://peelchildcare.cioc.ca/record/CDR0973,Community-Based For-Profit Centre,Yes,8,324361,-8869944.38561933,5393184.7658957
149,CC-OTH-106,Kaban Montessori School,Social Services,Child Care (Other),Child Care Centre,2465 Dunwin Dr ,"1A,1B",Mississauga,ON,L5L 1T4,905-569-3112,https://peelchildcare.cioc.ca/record/CDR0973,Community-Based For-Profit Centre,No,8,400186,-8869942.33592981,5393109.75078651
150,CC-OTH-107,Kendellhurst Academy Inc.,Social Services,Child Care (Other),Child Care Centre,175 Queen St S,,Mississauga,ON,L5M 1L2,905-567-1070,https://peelchildcare.cioc.ca/record/CDR0545,Community-Based For-Profit Centre,No,11,248372,-8873719.8052733,5401000.98066891
151,CC-YMC-036,Kenollie (YMCA),Social Services,Child Care (YMCA),Child Care Centre,1376 Glenwood Dr,,Mississauga,ON,L5G 2X1,416-509-5200,https://peelchildcare.cioc.ca/record/CDR0834,School-Based Centre,Yes,1,288025,-8860810.51367209,5397167.97016969
152,CC-OTH-006,Akal Child Care,Social Services,Child Care (Other),Child Care Centre,4535 Ebenezer Rd ,2,Brampton,ON,L6P 2P7,905-913-7333,https://peelchildcare.cioc.ca/record/CDR1632,Community-Based For-Profit Centre,No,8,283023,-8867885.54390687,5430398.01059308
153,CC-OTH-110,Kids & Company - Robert Speck Parkway,Social Services,Child Care (Other),Child Care Centre,1 Robert Speck Pky,110,Mississauga,ON,L4Z 3M3,905-848-5437,https://peelchildcare.cioc.ca/record/CDR0515,Community-Based For-Profit Centre,No,4,7683,-8865327.62361468,5403294.47171749
154,CC-OTH-114,Kids Palace Nursery School,Social Services,Child Care (Other),Child Care Centre,20 Mississauga Valley Blvd,,Mississauga,ON,L5A 3S1,905-275-3657,https://peelchildcare.cioc.ca/record/CDR0449,Community-Based For-Profit Centre,No,4,32436,-8864016.92764319,5402223.07712877
155,CC-OTH-115,Kids Zone Childcare Centre,Social Services,Child Care (Other),Child Care Centre,2275 Speakman Dr,"4,5",Mississauga,ON,L5K 1B1,905-403-9351,https://peelchildcare.cioc.ca/record/CDR0493,Community-Based For-Profit Centre,No,2,126091,-8867519.88127582,5391729.22810804
156,CC-OTH-118,Kinder Kampus 3,Social Services,Child Care (Other),Child Care Centre,6981 Millcreek Dr ,12,Mississauga,ON,L5N 6B8,905-567-4780,https://peelchildcare.cioc.ca/record/CDR0561,Community-Based For-Profit Centre,No,9,260256,-8878746.68156719,5403427.8906006
157,CC-PLP-071,Kindree (PLASP),Social Services,Child Care (PLASP),Child Care Centre,7370 Terragar Blvd,,Mississauga,ON,L5N 7L8,905-890-1711,https://peelchildcare.cioc.ca/record/CDR0730,School-Based Centre,Yes,10,248989,-8882089.22274866,5401154.95022305
158,CC-OTH-121,KRT Kiddies Kollege,Social Services,Child Care (Other),Child Care Centre,141 Kennedy Rd N,,Brampton,ON,L6V 1X9,905-459-2300,https://peelchildcare.cioc.ca/record/CDR0411,Community-Based Non-Profit Centre,No,1,86080,-8878859.17363364,5419595.57783004
159,CC-PLP-073,Lancaster (PLASP),Social Services,Child Care (PLASP),Child Care Centre,7425 Netherwood Rd,,Mississauga,ON,L4T 2N7,905-791-2017,https://peelchildcare.cioc.ca/record/CDR0593,School-Based Centre,Yes,5,,-8866321.53854333,5421887.49235086
160,CC-YMC-037,Larkspur (YMCA),Social Services,Child Care (YMCA),Child Care Centre,111 Larkspur Rd,,Brampton,ON,L6S 1X2,416-716-1352,https://peelchildcare.cioc.ca/record/CDR0845,School-Based Centre,Yes,9,336449,-8877664.56389863,5427508.94016291
161,CC-OTH-125,Learning Jungle School,Social Services,Child Care (Other),Child Care Centre,78 Agnes St,,Mississauga,ON,L5B 1J7,905-273-7023,https://peelchildcare.cioc.ca/record/CDR0513,Community-Based For-Profit Centre,No,7,219449,-8863159.71707373,5400545.55477421
162,CC-PLP-074,Lester B. Pearson (PLASP),Social Services,Child Care (PLASP),Child Care Centre,140 Howden Blvd,,Brampton,ON,L6S 2G1,905-890-1711,https://peelchildcare.cioc.ca/record/CDR0754,School-Based Centre,Yes,7,300914,-8875372.53104427,5422674.91454109
163,CC-YMC-038,Levi Creek (YMCA),Social Services,Child Care (YMCA),Child Care Centre,1525 Samuelson Cir,,Mississauga,ON,L5N 7Z1,905-564-9879 ext 7,https://peelchildcare.cioc.ca/record/CDR0862,School-Based Centre,Yes,11,300029,-8877455.1122141,5407253.08669935
164,CC-OTH-127,Little Angels Christian Child Care - 1,Social Services,Child Care (Other),Child Care Centre,1245 Eglinton Ave W,,Mississauga,ON,L5V 2M4,905-814-7774 ext 278,https://peelchildcare.cioc.ca/record/CDR0538,Community-Based Non-Profit Centre,No,6,,-8870369.02743399,5400704.83007563
165,CC-OTH-128,Little Angels Christian Child Care - 2,Social Services,Child Care (Other),Child Care Centre,6341 Mississauga Rd,,Mississauga,ON,L5N 1A5,905-567-6800,https://peelchildcare.cioc.ca/record/CDR0863,Community-Based Non-Profit Centre,No,11,,-8875462.77319063,5403019.74820596
166,CC-OTH-131,Little Folks Montessori Inc.,Social Services,Child Care (Other),Child Care Centre,1555 Steeles Ave W,,Brampton,ON,L6Y 5J9,905-455-1264,https://peelchildcare.cioc.ca/record/CDR0431,Community-Based For-Profit Centre,No,6,264886,-8879651.47206471,5409054.25060189
167,CC-OTH-132,Little Folks Montessori Pre-School Inc.,Social Services,Child Care (Other),Child Care Centre,3315 Fieldgate Dr,,Mississauga,ON,L4X 2J3,905-624-6414,https://peelchildcare.cioc.ca/record/CDR0485,Community-Based For-Profit Centre,No,3,97426,-8859526.24711293,5407273.55746374
168,CC-OTH-136,Little Stars Daycare,Social Services,Child Care (Other),Child Care Centre,527 Van Kirk Dr ,105,Brampton,ON,L7A 0P4,905-970-0638,https://peelchildcare.cioc.ca/record/CDR0968,Community-Based For-Profit Centre,No,2,158444,-8886864.33423881,5423150.12253102
169,CC-OTH-137,Little Superstars Montessori & DayCare,Social Services,Child Care (Other),Child Care Centre,3022 Novar Rd,,Mississauga,ON,L5B 1S4,905-232-0059,https://peelchildcare.cioc.ca/record/CDR0488,Community-Based For-Profit Centre,No,7,247531,-8863254.74576871,5400409.04823454
170,CC-PLP-076,Lorne Park (PLASP),Social Services,Child Care (PLASP),Child Care Centre,1325 Indian Rd,,Mississauga,ON,L5H 1S3,905-890-1711,https://peelchildcare.cioc.ca/record/CDR0662,School-Based Centre,Yes,2,125871,-8864096.93223711,5394092.6348677
171,CC-OTH-142,Lullaboo Nursery and Child Care - Mississauga,Social Services,Child Care (Other),Child Care Centre,5329 Ninth Line,,Mississauga,ON,L5M 5X5,905-936-7162,https://peelchildcare.cioc.ca/record/CDR0886,Community-Based For-Profit Centre,No,10,,-8877033.83641695,5395071.9311711
172,CC-YMC-048,Morningstar (YMCA),Social Services,Child Care (YMCA),Child Care Centre,3500 Morning Star Dr,,Mississauga,ON,L4T 1Y2,905-677-8929,https://peelchildcare.cioc.ca/record/CDR0590,Community-Based Non-Profit Centre,No,5,63864,-8865457.83458593,5422690.20899823
173,CC-PLP-078,Maplewood (PLASP),Social Services,Child Care (PLASP),Child Care Centre,2650 Gananoque Dr,,Mississauga,ON,L5N 2R2,905-890-1711,https://peelchildcare.cioc.ca/record/CDR0706,School-Based Centre,Yes,9,233692,-8879020.19912171,5402769.53567085
174,CC-PLP-079,Marvin Heights (PLASP),Social Services,Child Care (PLASP),Child Care Centre,7455 Redstone Rd,,Mississauga,ON,L4T 2B3,905-890-1711,https://peelchildcare.cioc.ca/record/CDR1052,School-Based Centre,Yes,5,23422,-8866904.17992533,5421505.6502898
175,CC-PLP-080,Massey Street (PLASP),Social Services,Child Care (PLASP),Child Care Centre,95 Massey St,,Brampton,ON,L6S 3A3,905-890-1711,https://peelchildcare.cioc.ca/record/CDR0759,School-Based Centre,Yes,7,174342,-8877364.95347505,5424964.05230677
176,CC-PLP-081,McBride (PLASP),Social Services,Child Care (PLASP),Child Care Centre,974 McBride Ave,,Mississauga,ON,L5C 1L6,905-890-1711,https://peelchildcare.cioc.ca/record/CDR0651,School-Based Centre,Yes,6,277595,-8866213.23449978,5398163.34835064
177,CC-PLP-083,McKinnon (PLASP),Social Services,Child Care (PLASP),Child Care Centre,3270 Tacc Dr,,Mississauga,ON,L5M 0H3,905-890-1711,https://peelchildcare.cioc.ca/record/CDR0721,School-Based Centre,Yes,10,291067,-8875928.68588188,5396193.85390446
178,CC-YMC-042,Meadowvale Village (YMCA),Social Services,Child Care (YMCA),Child Care Centre,890 Old Derry Rd W,,Mississauga,ON,L5W 1A1,416-569-7363,https://peelchildcare.cioc.ca/record/CDR0860,School-Based Centre,Yes,11,210662,-8874887.09360196,5407972.1737295
179,CC-PLP-084,Metropolitan Andrei (PLASP),Social Services,Child Care (PLASP),Child Care Centre,515 Mississauga Valley Blvd,,Mississauga,ON,L5A 3G6,905-890-1711,https://peelchildcare.cioc.ca/record/CDR0690,School-Based Centre,Yes,4,267585,-8862520.4710966,5402630.75369659
180,CC-YMC-044,Middlebury (YMCA),Social Services,Child Care (YMCA),Child Care Centre,5482 Middlebury Dr,,Mississauga,ON,L5M 5E8,905-821-2169,https://peelchildcare.cioc.ca/record/CDR0506,School-Based Centre,Yes,9,289147,-8874636.10518172,5398429.49935308
181,CC-OTH-148,Millcreek Kinder Kampus,Social Services,Child Care (Other),Child Care Centre,6685 Millcreek Dr ,10,Mississauga,ON,L5N 5M5,905-567-1111,https://peelchildcare.cioc.ca/record/CDR0521,Community-Based For-Profit Centre,No,9,400185,-8877333.3206042,5402996.52366957
182,CC-PLP-085,Miller's Grove (PLASP),Social Services,Child Care (PLASP),Child Care Centre,6325 Miller's Grove,,Mississauga,ON,L5N 3C8,905-890-1711,https://peelchildcare.cioc.ca/record/CDR0724,School-Based Centre,Yes,9,13229,-8878371.66341964,5399486.61157893
183,CC-OTH-149,Mini Skool - A Child's Place Inc.,Social Services,Child Care (Other),Child Care Centre,2501 Truscott Dr,,Mississauga,ON,L5J 2B3,905-823-3000,https://peelchildcare.cioc.ca/record/CDR0666,Community-Based Non-Profit Centre,No,2,32393,-8866592.59434942,5389949.37560995
184,CC-OTH-150,Mini Skool - Bramalea,Social Services,Child Care (Other),Child Care Centre,27 King's Cross Rd,,Brampton,ON,L6T 3V5,905-792-2230,https://peelchildcare.cioc.ca/record/CDR0384,Community-Based Non-Profit Centre,No,7,172383,-8874026.7203227,5422244.46752003
185,CC-OTH-151,Mini Skool - Brampton,Social Services,Child Care (Other),Child Care Centre,178 Church St E,,Brampton,ON,L6V 1H1,905-457-1248,https://peelchildcare.cioc.ca/record/CDR0438,Community-Based Non-Profit Centre,No,1,56778,-8878157.80373311,5418709.77535589
186,CC-OTH-152,Mini Skool - Bromsgrove,Social Services,Child Care (Other),Child Care Centre,2488 Bromsgrove Rd,,Mississauga,ON,L5J 1L8,905-823-3000,https://peelchildcare.cioc.ca/record/CDR0567,Community-Based Non-Profit Centre,No,2,39387,-8866050.26422597,5389224.48733464
187,CC-OTH-153,Mini Skool - Cawthra,Social Services,Child Care (Other),Child Care Centre,3153 Cawthra Rd,,Mississauga,ON,L5A 2X4,905-276-3933,https://peelchildcare.cioc.ca/record/CDR0482,Community-Based Non-Profit Centre,No,3,30101,-8861456.35977813,5403455.55227989
188,CC-OTH-155,Mini Skool - Clubhouse (106B),Social Services,Child Care (Other),Child Care Centre,420 Balmoral Dr,,Brampton,ON,L6T 1V9,905-792-2230,https://peelchildcare.cioc.ca/record/CDR0893,Community-Based Non-Profit Centre,No,7,191306,-8873128.36208002,5421278.13137048
189,CC-OTH-156,Mississauga Children Montessori - Crosscurrent Campus,Social Services,Child Care (Other),Child Care Centre,2980 Crosscurrent Dr,"1,2",Mississauga,ON,L5C 7C7,905-785-0144,https://peelchildcare.cioc.ca/record/CDR0560,Community-Based For-Profit Centre,No,9,,-8880970.08930093,5402920.08315675
190,CC-OTH-157,Mississauga Civic Centre Workplace Day Care,Social Services,Child Care (Other),Child Care Centre,300 City Centre Dr,,Mississauga,ON,L5B 3C1,905-896-5633,https://peelchildcare.cioc.ca/record/CDR0451,Community-Based Non-Profit Centre,No,4,,-8866007.06720193,5401988.57506018
191,CC-OTH-134,Little Leaf Daycare,Social Services,Child Care (Other),Child Care Centre,5685 Whittle Rd,,Mississauga,ON,L4Z 3P8,905-568-4069,https://peelchildcare.cioc.ca/record/CDR0539,Community-Based For-Profit Centre,No,5,24946,-8868602.2372362,5407164.77377384
192,CC-YMC-047,Mississauga YMCA,Social Services,Child Care (YMCA),Child Care Centre,325 Burnhamthorpe Rd W,,Mississauga,ON,L5B 3R2,905-897-6801 ext 440,https://peelchildcare.cioc.ca/record/CDR0452,Community-Based Non-Profit Centre,No,4,2489,-8865962.99546553,5401730.01279985
193,CC-OTH-161,MontessoriWorks - The School for Me,Social Services,Child Care (Other),Child Care Centre,3050 Artesian Dr ,"1,2,3",Mississauga,ON,L5M 7P5,905-569-1000,https://peelchildcare.cioc.ca/record/CDR0550,Community-Based For-Profit Centre,No,8,278397,-8873856.3391872,5395399.78613649
194,CC-PLP-087,Morton Way (PLASP),Social Services,Child Care (PLASP),Child Care Centre,200 Morton Way,,Brampton,ON,L6Y 2P8,905-890-1711,https://peelchildcare.cioc.ca/record/CDR0760,School-Based Centre,Yes,4,252624,-8877845.59793528,5412406.10264418
195,CC-PLP-088,Mount Pleasant Village (PLASP),Social Services,Child Care (PLASP),Child Care Centre,100 Commuter Dr,,Brampton,ON,L7A 0P7,905-890-1711,https://peelchildcare.cioc.ca/record/CDR1013,School-Based Centre,Yes,6,337866,-8885969.13541613,5415594.99268887
196,CC-PLP-089,Mount Royal (PLASP),Social Services,Child Care (PLASP),Child Care Centre,65 Mount Royal Cir,,Brampton,ON,L6P 2K4,905-890-1711,https://peelchildcare.cioc.ca/record/CDR0793,School-Based Centre,No,10,291700,-8877565.99287341,5433035.1276868
197,CC-FDC-014,Nahani Way (Family Day Care),Social Services,Child Care (Family Day),Child Care Centre,235 Nahani Way,,Mississauga,ON,L4Z 3J6,416-922-3434,https://peelchildcare.cioc.ca/record/CDR0507,School-Based Centre,Yes,5,,-8866697.2551709,5406024.1330645
198,CC-OTH-165,New Playland Nursery,Social Services,Child Care (Other),Child Care Centre,28 Elm Dr W,,Mississauga,ON,L5B 1L9,905-276-8802,https://peelchildcare.cioc.ca/record/CDR0454,Community-Based For-Profit Centre,No,7,289794,-8864566.41810833,5402202.26499271
199,CC-OTH-166,New Steps 2 - Brampton (St. Augustine),Social Services,Child Care (Other),Child Care Centre,27 Drinkwater Rd,,Brampton,ON,L6Y 4T6,905-451-4140,https://peelchildcare.cioc.ca/record/CDR0412,School-Based Centre,No,4,298901,-8879384.10065139,5412687.26943356
200,CC-OTH-168,Northstar Montessori,Social Services,Child Care (Other),Child Care Centre,4900 Tomken Rd,,Mississauga,ON,L4W 1J8,905-890-7827,https://peelchildcare.cioc.ca/record/CDR0514,Community-Based For-Profit Centre,No,3,233771,-8864527.96607344,5407531.87316763
201,CC-PLP-091,Northwood (PLASP),Social Services,Child Care (PLASP),Child Care Centre,70 Gretna Dr,,Brampton,ON,L6X 2E9,905-890-1711,https://peelchildcare.cioc.ca/record/CDR0761,School-Based Centre,Yes,5,215113,-8880522.67771938,5415267.59053007
202,CC-OTH-169,Olive Grove Preschool and Childcare,Social Services,Child Care (Other),Child Care Centre,2300 Speakman Dr,,Mississauga,ON,L5K 1B4,905-855-8557,https://peelchildcare.cioc.ca/record/CDR0495,Community-Based Non-Profit Centre,No,2,,-8867473.52292958,5391473.27571056
203,CC-PLP-092,Oscar Peterson (PLASP),Social Services,Child Care (PLASP),Child Care Centre,5120 Perennial Dr,,Mississauga,ON,L5M 7T9,905-890-1711,https://peelchildcare.cioc.ca/record/CDR0720,School-Based Centre,Yes,10,312501,-8875177.06712315,5395310.56173548
204,CC-PLP-093,Osprey Woods (PLASP),Social Services,Child Care (PLASP),Child Care Centre,6135 Lisgar Dr,,Mississauga,ON,L5N 7V2,905-890-1711,https://peelchildcare.cioc.ca/record/CDR0731,School-Based Centre,Yes,10,275452,-8879231.42849681,5397988.56850422
205,CC-PLP-094,Our Lady of Fatima (PLASP),Social Services,Child Care (PLASP),Child Care Centre,39 Sunset Blvd,,Brampton,ON,L6X 1X1,905-890-1711,https://peelchildcare.cioc.ca/record/CDR0765,School-Based Centre,No,1,162251,-8880833.31867356,5417329.93901311
206,CC-YMC-049,Our Lady of Good Voyage (YMCA),Social Services,Child Care (YMCA),Child Care Centre,5850 River Grove Ave,,Mississauga,ON,L5M 4W2,905-858-0052,https://peelchildcare.cioc.ca/record/CDR0508,School-Based Centre,Yes,6,10279,-8873427.17057607,5402472.84873423
207,CC-YMC-050,Our Lady of Lourdes (YMCA),Social Services,Child Care (YMCA),Child Care Centre,25 Mount Royal Cir,,Brampton,ON,L6P 1Y7,647-963-9716,https://peelchildcare.cioc.ca/record/CDR1027,School-Based Centre,Yes,10,289833,-8877449.00907765,5433243.03269946
208,CC-PLP-095,Our Lady of Mercy (PLASP),Social Services,Child Care (PLASP),Child Care Centre,5820 Glen Erin Dr,,Mississauga,ON,L5N 5J9,905-890-1711,https://peelchildcare.cioc.ca/record/CDR0700,School-Based Centre,Yes,9,275096,-8875879.66756552,5399072.49476086
209,CC-YMC-051,Our Lady of Peace (YMCA),Social Services,Child Care (YMCA),Child Care Centre,15 Fincham Ave,,Brampton,ON,L6X 3V2,905-455-6445,https://peelchildcare.cioc.ca/record/CDR0419,School-Based Centre,Yes,5,,-8881655.98196229,5415156.33846073
210,CC-FDC-016,Our Lady of Providence (Family Day Care),Social Services,Child Care (Family Day),Child Care Centre,35 Black Oak Dr,,Brampton,ON,L6R 1B9,416-922-3434,https://peelchildcare.cioc.ca/record/CDR0386,School-Based Centre,Yes,9,308240,-8878866.29059136,5425923.49374028
211,CC-PLP-096,Owenwood (PLASP),Social Services,Child Care (PLASP),Child Care Centre,930 Owenwood Dr,,Mississauga,ON,L5H 3J2,905-890-1711,https://peelchildcare.cioc.ca/record/CDR0663,School-Based Centre,Yes,2,43149,-8862137.3018233,5392351.15740016
212,CC-PLP-097,Parkway (PLASP),Social Services,Child Care (PLASP),Child Care Centre,24 Duncan Bull Dr,,Brampton,ON,L6W 1H4,905-890-1711,https://peelchildcare.cioc.ca/record/CDR0763,School-Based Centre,Yes,3,139628,-8876462.61185557,5415542.96309099
213,CC-OTH-171,Pathway Childcare Centre Inc.,Social Services,Child Care (Other),Child Care Centre,25 Ruth Ave,,Brampton,ON,L6Z 3X3,905-846-3939,https://peelchildcare.cioc.ca/record/CDR0420,Community-Based Non-Profit Centre,No,2,186405,-8881924.36678169,5422551.59639807
214,CC-PLP-098b,Pauline Vanier Early Learning Centre (PLASP),Social Services,Child Care (PLASP),Child Care Centre,56 Oaklea Blvd,,Brampton,ON,L4Z 3E9,905-890-1711,https://peelchildcare.cioc.ca/record/CDR0929,School-Based Centre,No,4,,-8876016.90132249,5410947.51935596
215,CC-OTH-025,BrightPath - Avondale,Social Services,Child Care (Other),Child Care Centre,55 Avondale Blvd,,Brampton,ON,L6W 2C4,905-799-2212,https://peelchildcare.cioc.ca/record/CDR0391,Community-Based For-Profit Centre,No,7,281244,-8872100.48455839,5420115.43678476
216,CC-OTH-028,BrightPath - Dixie,Social Services,Child Care (Other),Child Care Centre,4560 Dixie Rd,,Mississauga,ON,L4W 1N2,905-629-8849,https://peelchildcare.cioc.ca/record/CDR0413,Community-Based For-Profit Centre,No,3,274117,-8863019.01390666,5408823.12518515
217,CC-OTH-029,BrightPath - Matheson East,Social Services,Child Care (Other),Child Care Centre,309 Matheson Blvd E,,Mississauga,ON,L5C 3N6,905-507-9796,https://peelchildcare.cioc.ca/record/CDR0509,Community-Based For-Profit Centre,No,5,142821,-8867642.85632751,5407182.68562883
218,CC-OTH-031,BrightPath - Mill St.,Social Services,Child Care (Other),Child Care Centre,224 Mill St S,,Brampton,ON,L6Y 1T8,905-456-1798,https://peelchildcare.cioc.ca/record/CDR0410,Community-Based For-Profit Centre,No,3,52547,-8877344.95529394,5415126.35232802
219,CC-OTH-033,BrightPath - Queen,Social Services,Child Care (Other),Child Care Centre,685 Queen St W,,Brampton,ON,L6V 1A1,905-456-2273,https://peelchildcare.cioc.ca/record/CDR0429,Community-Based For-Profit Centre,No,4,167178,-8880579.23908956,5414628.90738318
220,CC-OTH-034,BrightPath - Sandalwood,Social Services,Child Care (Other),Child Care Centre,170 Sandalwood Pky E,11,Brampton,ON,L6Z 1Y5,905-846-4656,https://peelchildcare.cioc.ca/record/CDR0423,Community-Based For-Profit Centre,No,2,293972,-8883104.77408536,5423256.25934483
221,CC-OTH-035,BrightPath - Torquay Mews,Social Services,Child Care (Other),Child Care Centre,2172 Torquay Mews,,Mississauga,ON,L5N 2M6,905-542-2835,https://peelchildcare.cioc.ca/record/CDR0595,Community-Based For-Profit Centre,No,9,97409,-8876899.52893721,5403034.76986068
222,CC-OTH-036,BrightPath - Traders,Social Services,Child Care (Other),Child Care Centre,220 Traders Blvd E,,Mississauga,ON,L4Z 1W7,905-712-2273,https://peelchildcare.cioc.ca/record/CDR0549,Community-Based For-Profit Centre,No,5,14935,-8868738.3013599,5407906.57452212
223,CC-OTH-037,BrightPath - Wolfedale,Social Services,Child Care (Other),Child Care Centre,3221 Wolfedale Rd,,Mississauga,ON,L5C 1V8,905-615-9991,https://peelchildcare.cioc.ca/record/CDR0468,Community-Based For-Profit Centre,No,6,96904,-8865675.24126188,5398801.22810936
224,CC-FDC-017,Philip Pocock (Family Day Care),Social Services,Child Care (Family Day),Child Care Centre,4555 Tomken Rd,,Mississauga,ON,L4W 1J9,416-922-3434,https://peelchildcare.cioc.ca/record/CDR0442,School-Based Centre,No,3,289375,-8863946.28632433,5407605.62461552
225,CC-OTH-225,Western Heights Montessori Academy (Millcreek),Social Services,Child Care (Other),Child Care Centre,6920 Millcreek Dr,4,Mississauga,ON,L5N 6C1,905-858-5845,https://peelchildcare.cioc.ca/record/CDR0527,Community-Based For-Profit Centre,Yes,9,240997,-8878353.93524111,5402933.71348608
226,CC-PLP-099,Plowman's Park (PLASP),Social Services,Child Care (PLASP),Child Care Centre,5940 Montevideo Rd,,Mississauga,ON,L5N 3J5,905-890-1711,https://peelchildcare.cioc.ca/record/CDR0725,School-Based Centre,Yes,9,111690,-8877495.33556091,5400957.95329667
227,CC-PLP-100b,Plum Tree Park Early Learning Centre (PLASP),Social Services,Child Care (PLASP),Child Care Centre,6855 Tenth Line W,,Mississauga,ON,L5N 5R2,905-890-1711,https://peelchildcare.cioc.ca/record/CDR0530,School-Based Centre,No,9,,-8880102.81136606,5400878.89927739
228,CC-OTH-178,Preschool Petit Bateau (Rene Lamoureux),Social Services,Child Care (French),Child Care Centre,385 Meadows Blvd,,Mississauga,ON,L5N 1R3,905-279-1414,https://peelchildcare.cioc.ca/record/CDR0533,School-Based Centre,Yes,4,,-8864328.2350796,5404708.48030964
229,CC-OTH-176,Preschool Petit Bateau - Brampton (Sainte Jeanne d'Arc),Social Services,Child Care (French),Child Care Centre,25 Laurelcrest St,,Brampton,ON,L6S 4C4,905-455-3338,https://peelchildcare.cioc.ca/record/CDR0326,School-Based Centre,Yes,7,,-8876231.84498809,5420764.47246045
230,CC-OTH-177,Preschool Petit Bateau - Mississauga (Ange Gabriel),Social Services,Child Care (French),Child Care Centre,1830 Meadowvale Blvd,,Mississauga,ON,L5N 7H5,905-285-0257,https://peelchildcare.cioc.ca/record/CDR0337,School-Based Centre,Yes,11,,-8877665.55265992,5405955.24647394
231,CC-OTH-180,Prince Edward Montessori School,Social Services,Child Care (Other),Child Care Centre,12 Peter St S,,Mississauga,ON,L5H 0A1,905-891-6912,https://peelchildcare.cioc.ca/record/CDR0575,Community-Based For-Profit Centre,No,1,342754,-8859747.80381925,5395772.75286572
232,CC-OTH-038,BrightPath Professor's Lake Campus,Social Services,Child Care (Other),Child Care Centre,2 Philosopher's Trail,10,Brampton,ON,L6S 5L7,905-792-7593,https://peelchildcare.cioc.ca/record/CDR0388,Community-Based For-Profit Centre,No,8,315913,-8876417.85464915,5426812.75802002
233,CC-YMC-053,Queen of Heaven (YMCA),Social Services,Child Care (YMCA),Child Care Centre,1198 Alexandra Ave,,Mississauga,ON,L5E 2A5,647-299-5014,https://peelchildcare.cioc.ca/record/CDR0833,School-Based Centre,Yes,1,232881,-8857336.85899034,5400403.18942717
234,CC-PLP-102,Queen Street (PLASP),Social Services,Child Care (PLASP),Child Care Centre,20 Academic Dr,,Brampton,ON,L6Y 2C7,905-890-1711,https://peelchildcare.cioc.ca/record/CDR0833,School-Based Centre,Yes,4,390697,-8880235.68258461,5414617.54117122
235,CC-PLP-103,Queenston Drive (PLASP),Social Services,Child Care (PLASP),Child Care Centre,3520 Queenston Dr,,Mississauga,ON,L5C 2G6,905-890-1711,https://peelchildcare.cioc.ca/record/CDR0653,School-Based Centre,Yes,6,130299,-8867950.99408918,5397868.57057406
236,CC-OTH-182,Rainbow Academy Learning and Child Care,Social Services,Child Care (Other),Child Care Centre,18 King St E,"N1,2,4",Caledon,ON,L7E 1E8,905-857-3544,https://peelchildcare.cioc.ca/record/CAL0018,Community-Based For-Profit Centre,No,5,398504,-8876310.45880225,5446857.22808932
237,CC-OTH-183,Rainbow Academy Preschool House,Social Services,Child Care (Other),Child Care Centre,18 King St E,O1,Caledon,ON,L7E 1E8,905-857-3544,https://peelchildcare.cioc.ca/record/CAL0018,Community-Based For-Profit Centre,No,5,400163,-8876330.27369701,5446858.77249371
238,CC-OTH-184,Rainbow Village Day Care,Social Services,Child Care (Other),Child Care Centre,7314 Goreway Dr,,Mississauga,ON,L4T 2V1,905-677-3070,https://peelchildcare.cioc.ca/record/CDR0592,Community-Based For-Profit Centre,No,5,16184,-8865526.77234409,5422106.63399881
239,CC-PLP-104,Ray Underhill (PLASP),Social Services,Child Care (PLASP),Child Care Centre,32 Suburban Dr,,Mississauga,ON,L5N 1G6,905-890-1711,https://peelchildcare.cioc.ca/record/CDR0722,School-Based Centre,Yes,11,8317,-8874657.93055495,5402770.69774487
240,CC-PLP-105,Red Willow (PLASP),Social Services,Child Care (PLASP),Child Care Centre,80 Redwillow Rd,,Brampton,ON,L6P 2B1,905-890-1711,https://peelchildcare.cioc.ca/record/CDR0795,School-Based Centre,Yes,8,265688,-8872309.76999385,5430449.33327847
241,CC-PLP-106,Ridgeview (PLASP),Social Services,Child Care (PLASP),Child Care Centre,25 Brenda Ave,,Brampton,ON,L6Y 2A1,905-890-1711,https://peelchildcare.cioc.ca/record/CDR0766,School-Based Centre,Yes,3,145787,-8878435.09861518,5414904.8059387
242,CC-OTH-130,Little Bright Stars,Social Services,Child Care (Other),Child Care Centre,2575 Dundas St W,18,Mississauga,ON,L5K 2M6,905-569-2267,https://peelchildcare.cioc.ca/record/CDR0465,Community-Based For-Profit Centre,No,8,,-8869951.83648397,5392322.60007128
243,CC-YMC-045,Mississauga Ridgeway (YMCA),Social Services,Child Care (YMCA),Child Care Centre,3595 Ridgeway Dr,,Mississauga,ON,L5L 5T4,905-607-0518,https://peelchildcare.cioc.ca/record/CDR0470,Community-Based Non-Profit Centre,No,8,281962,-8872856.06116997,5392135.08077989
244,CC-PLP-107,Ridgewood (PLASP),Social Services,Child Care (PLASP),Child Care Centre,7207 Cambrett Dr,,Mississauga,ON,L4T 2R3,905-890-1711,https://peelchildcare.cioc.ca/record/CDR1039,School-Based Centre,Yes,5,22523,-8865551.55624719,5421474.38274849
245,CC-OTH-039,BrightPath Queen Campus,Social Services,Child Care (Other),Child Care Centre,255 Queen St E,5,Brampton,ON,L6W 2B8,905-799-0782,https://peelchildcare.cioc.ca/record/CDR0399,Community-Based For-Profit Centre,No,3,281926,-8876984.28110165,5419024.71478691
246,CC-OTH-040,BrightPath Van Kirk Campus,Social Services,Child Care (Other),Child Care Centre,35 Van Kirk Dr ,"19,20A",Brampton,ON,L7A 1A5,905-456-7339,https://peelchildcare.cioc.ca/record/CDR0854,Community-Based For-Profit Centre,No,2,299628,-8882975.48557419,5419310.20449994
247,CC-PLP-108,Riverside (PLASP),Social Services,Child Care (PLASP),Child Care Centre,30 John St N,,Mississauga,ON,L5H 2E8,905-890-1711,https://peelchildcare.cioc.ca/record/CDR0841,School-Based Centre,Yes,1,44802,-8859941.49240287,5396100.94158168
248,CC-PLP-109,Roberta Bondar (PLASP),Social Services,Child Care (PLASP),Child Care Centre,30 Pantomine Blvd,,Brampton,ON,L6Y 5N2,905-890-1711,https://peelchildcare.cioc.ca/record/CDR0781,School-Based Centre,Yes,6,280013,-8878298.88787353,5410039.27761344
249,CC-PLP-110,Rowntree (PLASP),Social Services,Child Care (PLASP),Child Care Centre,254 Queen Mary Dr,,Brampton,ON,L7A 3L6,905-890-1711,https://peelchildcare.cioc.ca/record/CDR0780,School-Based Centre,Yes,6,227169,-8885430.88036068,5420165.33014651
250,CC-OTH-188,Royal Montessori School,Social Services,Child Care (Other),Child Care Centre,2500 Mimosa Row,,Mississauga,ON,L5B 1P7,905-275-5887,https://peelchildcare.cioc.ca/record/CDR0484,Community-Based For-Profit Centre,No,7,126231,-8862646.81519764,5400159.86441045
251,CC-OTH-189,Royal Windsor Montessori and Daycare,Social Services,Child Care (Other),Child Care Centre,2157 Royal Windsor Dr,,Mississauga,ON,L5J 1K5,905-822-7575,https://peelchildcare.cioc.ca/record/CDR0574,Community-Based For-Profit Centre,No,2,,-8864776.27755163,5389810.25294919
252,CC-YMC-054,Russell Barber (YMCA),Social Services,Child Care (YMCA),Child Care Centre,255 North Park Dr,,Brampton,ON,L6S 6A5,905-457-1383,https://peelchildcare.cioc.ca/record/CDR0389,School-Based Centre,Yes,7,,-8877849.87631986,5422806.15776045
253,CC-OTH-191,Salvation Army - Erin Mills,Social Services,Child Care (Other),Child Care Centre,2460 The Collegeway,,Mississauga,ON,L5L 1V3,905-820-6500,https://peelchildcare.cioc.ca/record/CDR0477,Community-Based Non-Profit Centre,No,8,,-8870579.53386249,5393908.08552733
254,CC-OTH-192,Salvation Army - Mississauga Temple,Social Services,Child Care (Other),Child Care Centre,3173 Cawthra Rd,,Mississauga,ON,L5A 2X4,905-275-8430,https://peelchildcare.cioc.ca/record/CDR0455,Community-Based Non-Profit Centre,No,3,257266,-8861495.34048298,5403527.15719839
255,CC-OTH-193,Salvation Army - Noah's Ark,Social Services,Child Care (Other),Child Care Centre,9395 Bramalea Rd,,Brampton,ON,L6S 4B7,905-793-5610,https://peelchildcare.cioc.ca/record/CDR0385,Community-Based Non-Profit Centre,No,8,,-8875292.27699916,5424283.90198963
256,CC-PLP-111,San Lorenzo Ruiz (PLASP),Social Services,Child Care (PLASP),Child Care Centre,100 Barondale Dr,,Mississauga,ON,L4Z 3R1,905-890-1711,https://peelchildcare.cioc.ca/record/CDR0710,School-Based Centre,Yes,5,240542,-8868121.45648797,5406518.68132343
257,CC-PLP-112,Sawmill Valley (PLASP),Social Services,Child Care (PLASP),Child Care Centre,3625 Sawmill Valley Dr,,Mississauga,ON,L5L 2Z5,905-890-1711,https://peelchildcare.cioc.ca/record/CDR0654,School-Based Centre,Yes,8,26897,-8869925.7704695,5396319.52684442
258,CC-PLP-113,Settler's Green (PLASP),Social Services,Child Care (PLASP),Child Care Centre,5800 Montevideo Rd,,Mississauga,ON,L5N 2S1,905-890-1711,https://peelchildcare.cioc.ca/record/CDR0727,School-Based Centre,Yes,9,17302,-8877813.54003045,5400409.44214449
259,CC-OTH-205,Springdale Learning Centre (Shaw Public School),Social Services,Child Care (Other),Child Care Centre,10 Father Tobin Rd,,Brampton,ON,L6R 3K2,905-790-6958,https://peelchildcare.cioc.ca/record/CDR0848,School-Based Centre,Yes,10,279023,-8877894.99573613,5430728.7844735
260,CC-PLP-114,Shelter Bay (PLASP),Social Services,Child Care (PLASP),Child Care Centre,6735 Shelter Bay Rd,,Mississauga,ON,L5N 2C5,905-890-1711,https://peelchildcare.cioc.ca/record/CDR0728,School-Based Centre,Yes,9,8849,-8879179.93141012,5401753.56077597
261,CC-OTH-194,Shepherd Montessori Private Catholic School,Social Services,Child Care (Other),Child Care Centre,2246 Camilla Rd,,Mississauga,ON,L5A 2J6,905-270-0011,https://peelchildcare.cioc.ca/record/CDR0490,Community-Based For-Profit Centre,No,7,46928,-8861286.15532505,5400127.09250061
262,CC-PLP-115,Sheridan Park (PLASP),Social Services,Child Care (PLASP),Child Care Centre,2280 Perran Dr,,Mississauga,ON,L5K 1M1,905-890-1711,https://peelchildcare.cioc.ca/record/CDR0655,School-Based Centre,Yes,2,219537,-8868370.86488594,5393003.06526886
263,CC-PLP-116,Sherwood Mills (PLASP),Social Services,Child Care (PLASP),Child Care Centre,1385 Sherwood Mills Blvd,,Mississauga,ON,L5V 2B8,905-890-1711,https://peelchildcare.cioc.ca/record/CDR0712,School-Based Centre,Yes,6,296618,-8870489.49429996,5401107.82452698
264,CC-OTH-195,Shining Stars Montessori School,Social Services,Child Care (Other),Child Care Centre,811 Bovaird Dr W,16,Brampton,ON,L6X 0T9,905-454-2273,https://peelchildcare.cioc.ca/record/CDR0401,Community-Based For-Profit Centre,No,5,335283,-8883825.23998135,5417254.30802161
265,CC-PLP-117,Silver Creek (PLASP),Social Services,Child Care (PLASP),Child Care Centre,460 Silver Creek Blvd,,Mississauga,ON,L5A 2B3,905-890-1711,https://peelchildcare.cioc.ca/record/CDR0920,School-Based Centre,Yes,4,85535,-8862138.24170627,5402683.81388513
266,CC-PLP-118,Silverthorn (PLASP),Social Services,Child Care (PLASP),Child Care Centre,3535 Cedar Creek Dr,,Mississauga,ON,L4Y 2Y4,905-890-1711,https://peelchildcare.cioc.ca/record/CDR0692,School-Based Centre,Yes,3,22765,-8862395.49029256,5404797.19530049
267,CC-YMC-055,Sir Winston Churchill (YMCA),Social Services,Child Care (YMCA),Child Care Centre,89 Ardglen Dr,,Brampton,ON,L6W 1V1,905-943-9622 ext 750,https://peelchildcare.cioc.ca/record/CDR1093,School-Based Centre,Yes,3,158392,-8877597.04625222,5417445.72803938
268,CC-OTH-198,Small Wunders Child Care,Social Services,Child Care (Other),Child Care Centre,1150 Eglinton Ave E,,Mississauga,ON,L4W 2M6,905-290-0547,https://peelchildcare.cioc.ca/record/CDR0512,Community-Based For-Profit Centre,No,3,,-8863865.28663778,5408438.48079004
269,CC-PLP-119,Somerset Drive (PLASP),Social Services,Child Care (PLASP),Child Care Centre,50 Somerset Dr,,Brampton,ON,L6Z 1C7,905-890-1711,https://peelchildcare.cioc.ca/record/CDR0768,School-Based Centre,Yes,2,266296,-8883664.52871629,5423592.37127642
270,CC-OTH-203,Songbirds Montessori School Inc.,Social Services,Child Care (Other),Child Care Centre,49 Wellington St,,Brampton,ON,L6V 1K8,905-451-7757,https://peelchildcare.cioc.ca/record/CDR0400,Community-Based For-Profit Centre,No,3,147052,-8878974.4523645,5416316.34641026
271,CC-PLP-121,Springdale (PLASP),Social Services,Child Care (PLASP),Child Care Centre,100 Dewside Dr,,Brampton,ON,L6T 2C9,905-890-1711,https://peelchildcare.cioc.ca/record/CDR0774,School-Based Centre,Yes,9,245269,-8879571.16919378,5427396.83717774
272,CC-OTH-204,Springdale Learning Centre (Robert J. Lee Public School),Social Services,Child Care (Other),Child Care Centre,160 Mountainash Rd,,Brampton,ON,L6R 1J1,905-790-6958,https://peelchildcare.cioc.ca/record/CDR0843,School-Based Centre,Yes,10,75696,-8876084.53463099,5428978.76199765
273,CC-PLP-122,Springfield (PLASP),Social Services,Child Care (PLASP),Child Care Centre,3251 The Credit Woodlands,,Mississauga,ON,L5C 2J7,905-890-1711,https://peelchildcare.cioc.ca/record/CDR0857,School-Based Centre,Yes,6,312924,-8867064.66394056,5397155.94148882
274,CC-PLP-123b,St. Agnes Early Learning Centre (PLASP),Social Services,Child Care (PLASP),Child Care Centre,103 Richvale Dr S,,Brampton,ON,L6Z 1C6,905-890-1711,https://peelchildcare.cioc.ca/record/CDR0435,School-Based Centre,No,2,,-8881147.57897258,5422966.21772439
275,CC-YMC-056,St. Aidan (YMCA),Social Services,Child Care (YMCA),Child Care Centre,34 Buick Blvd,,Brampton,ON,L7A 3B9,647-448-9400,https://peelchildcare.cioc.ca/record/CDR0734,School-Based Centre,Yes,6,305373,-8887447.52478906,5418590.71026282
276,CC-PLP-124,St. Albert of Jerusalem (PLASP),Social Services,Child Care (PLASP),Child Care Centre,7185 Rosehurst Dr,,Mississauga,ON,L5N 7G6,905-890-1711,https://peelchildcare.cioc.ca/record/CDR0729,School-Based Centre,Yes,10,270757,-8882085.27213553,5400766.98605002
277,CC-PLP-125,St. Alfred (PLASP),Social Services,Child Care (PLASP),Child Care Centre,3341 Havenwood Dr,,Mississauga,ON,L4X 2M2,905-890-1711,https://peelchildcare.cioc.ca/record/CDR0693,School-Based Centre,Yes,3,25988,-8859914.57247914,5406658.34854494
278,CC-YMC-057,St. Angela Merici (YMCA),Social Services,Child Care (YMCA),Child Care Centre,83 Edenbrook Hill Dr,,Brampton,ON,L7A 2N7,416-358-2334,https://peelchildcare.cioc.ca/record/CDR0733,School-Based Centre,No,6,268347,-8884473.88124494,5418456.16832364
279,CC-PLP-128,St. Anne (PLASP),Social Services,Child Care (PLASP),Child Care Centre,124 Vodden St E,,Brampton,ON,L6V 1M5,905-890-1711,https://peelchildcare.cioc.ca/record/CDR1046,School-Based Centre,No,1,172140,-8879233.0127579,5419070.99738156
280,CC-PLP-129,St. Anthony (PLASP),Social Services,Child Care (PLASP),Child Care Centre,950 North Park Dr,,Brampton,ON,L4Z 3E9,905-890-1711,https://peelchildcare.cioc.ca/record/CDR0723,School-Based Centre,Yes,7,65849,-8876862.18090543,5424726.72631646
281,CC-PLP-130b,St. Barbara Early Learning Centre (PLASP),Social Services,Child Care (PLASP),Child Care Centre,1455 Samuelson Cir,,Mississauga,ON,L5N 7Z2,905-890-1711,https://peelchildcare.cioc.ca/record/CDR0564,School-Based Centre,No,11,,-8877305.4821107,5407459.70175293
282,CC-PLP-131,St. Basil (PLASP),Social Services,Child Care (PLASP),Child Care Centre,4235 Golden Orchard Dr,,Mississauga,ON,L4W 3G1,905-890-1711,https://peelchildcare.cioc.ca/record/CDR0670,School-Based Centre,Yes,3,24324,-8862475.36545564,5407368.16933217
283,CC-FDC-022,St. Bernadette Child Care Centre (Family Day Care),Social Services,Child Care (Family Day),Child Care Centre,1060 White Clover Way,,Mississauga,ON,L5V 1G7,416-922-3434,https://peelchildcare.cioc.ca/record/CDR0502,School-Based Centre,No,6,,-8869207.26033823,5400951.40932703
284,CC-YMC-058,St. Bernard of Clairvaux (YMCA),Social Services,Child Care (YMCA),Child Care Centre,3345 Escada Dr,,Mississauga,ON,L5M 7V5,647-267-2400,https://peelchildcare.cioc.ca/record/CDR0914,School-Based Centre,Yes,10,308546,-8876118.82982733,5395702.73723126
285,CC-PLP-132,St. Bonaventure (PLASP),Social Services,Child Care (PLASP),Child Care Centre,35 McCrimmon Dr,,Brampton,ON,L7A 2Z5,1-888-739-4102,https://peelchildcare.cioc.ca/record/CDR0782,School-Based Centre,Yes,6,279022,-8886546.13881896,5417165.04510022
286,CC-PLP-133,St. Brigid (PLASP),Social Services,Child Care (PLASP),Child Care Centre,81 Torrance Woods,,Brampton,ON,L6Y 2X4,905-890-1711,https://peelchildcare.cioc.ca/record/CDR0918,School-Based Centre,Yes,4,170458,-8878807.27328489,5412733.05739933
287,CC-YMC-059,St. Catherine of Siena (YMCA),Social Services,Child Care (YMCA),Child Care Centre,2350 Hurontario St,,Mississauga,ON,L5B 1N1,647-924-0240,https://peelchildcare.cioc.ca/record/CDR0865,School-Based Centre,Yes,7,199173,-8862247.52535336,5399758.82622562
288,CC-PLP-134,St. Cecilia (PLASP),Social Services,Child Care (PLASP),Child Care Centre,10 Brickyard Way,,Brampton,ON,L6V 4L5,905-890-1711,https://peelchildcare.cioc.ca/record/CDR0746?Number=191,School-Based Centre,Yes,1,297576,-8881175.45359707,5419818.53568746
289,CC-PLP-135,St. Charles Garnier (PLASP),Social Services,Child Care (PLASP),Child Care Centre,4233 Central Pky E,,Mississauga,ON,L4Z 1M7,905-890-1711,https://peelchildcare.cioc.ca/record/CDR0671,School-Based Centre,Yes,4,240443,-8864617.97490618,5404615.93140764
290,CC-YMC-060,St. Christopher (YMCA),Social Services,Child Care (YMCA),Child Care Centre,1195 Clarkson Rd N,,Mississauga,ON,L5J 2W1,647-203-3900,https://peelchildcare.cioc.ca/record/CDR0664,School-Based Centre,Yes,2,337579,-8864016.22061805,5391780.07274229
291,CC-PLP-136,St. Clare (PLASP),Social Services,Child Care (PLASP),Child Care Centre,4140 Glen Erin Dr,,Mississauga,ON,L5L 2B1,905-890-1711,https://peelchildcare.cioc.ca/record/CDR0641,School-Based Centre,Yes,8,28156,-8871784.68375917,5395394.11675407
292,CC-PLP-138,St. David of Wales (PLASP),Social Services,Child Care (PLASP),Child Care Centre,4200 Beacon Lane,,Mississauga,ON,L5C 3V0,905-890-1711,https://peelchildcare.cioc.ca/record/CDR0642,School-Based Centre,Yes,6,28336,-8868422.47104497,5399911.74859187
293,CC-PLP-139,St. Dominic (PLASP),Social Services,Child Care (PLASP),Child Care Centre,515 Hartsdale Ave,,Mississauga,ON,L5G 2G7,905-890-1711,https://peelchildcare.cioc.ca/record/CDR1044,School-Based Centre,Yes,1,136134,-8858787.63621433,5399713.12240171
294,CC-PLP-140b,St. Edith Stein Early Learning Centre (PLASP),Social Services,Child Care (PLASP),Child Care Centre,6234 Osprey Blvd,,Mississauga,ON,L5N 5V5,905-890-1711,https://peelchildcare.cioc.ca/record/CDR0937,School-Based Centre,No,10,,-8878706.58815213,5398610.72937815
295,CC-PLP-141,St. Edmund (PLASP),Social Services,Child Care (PLASP),Child Care Centre,1250 Melton Dr,,Mississauga,ON,L4Y 1L5,905-890-1711,https://peelchildcare.cioc.ca/record/CDR0672,School-Based Centre,Yes,1,22541,-8858464.62194501,5403553.65825182
296,CC-PLP-142,St. Elizabeth Seton (PLASP),Social Services,Child Care (PLASP),Child Care Centre,6133 Glen Erin Dr,,Mississauga,ON,L5N 2T7,905-890-1711,https://peelchildcare.cioc.ca/record/CDR0667,School-Based Centre,Yes,9,1629,-8876721.83529906,5400318.28743812
297,CC-PLP-144,St. Faustina (PLASP),Social Services,Child Care (PLASP),Child Care Centre,3420 McDowell Dr,,Mississauga,ON,L5M 6R7,905-890-1711,https://peelchildcare.cioc.ca/record/CDR0715,School-Based Centre,Yes,10,275689,-8877805.28354368,5397121.66707811
298,CC-PLP-145,St. Francis of Assisi (PLASP),Social Services,Child Care (PLASP),Child Care Centre,2480 Thorn Lodge Dr,,Mississauga,ON,L5K 1K5,905-890-1711,https://peelchildcare.cioc.ca/record/CDR0643,School-Based Centre,Yes,2,37715,-8869049.38557782,5392502.89514153
299,CC-FDC-023,St. Francis Xavier (Family Day Care),Social Services,Child Care (Family Day),Child Care Centre,50 Bristol Rd W,,Mississauga,ON,L5R 3K3,416-922-3434,https://peelchildcare.cioc.ca/record/CDR0534,School-Based Centre,Yes,5,259249,-8868193.74415155,5405716.43356868
300,CC-PLP-146,St. Francis Xavier (PLASP),Social Services,Child Care (PLASP),Child Care Centre,111 Bartley Bull Pky,,Brampton,ON,L6W 2J8,905-890-1711,https://peelchildcare.cioc.ca/record/CDR0919,School-Based Centre,Yes,3,48102,-8876426.02952863,5415268.42809773
301,CC-PLP-147,St. Gerard (PLASP),Social Services,Child Care (PLASP),Child Care Centre,1300 McBride Ave,,Mississauga,ON,L5C 1M8,905-890-1711,https://peelchildcare.cioc.ca/record/CDR1042,School-Based Centre,Yes,6,295791,-8867339.22044122,5397449.11357926
302,CC-PLP-148b,St. Gregory Early Learning Centre (PLASP),Social Services,Child Care (PLASP),Child Care Centre,1075 Swinbourne Dr,,Mississauga,ON,L5V 1B9,905-890-1711,https://peelchildcare.cioc.ca/record/CDR0565,School-Based Centre,No,11,,-8873013.41967601,5405221.65100455
303,CC-FDC-024,St. Herbert (Family Day Care),Social Services,Child Care (Family Day),Child Care Centre,5180 Fallingbrook Dr,,Mississauga,ON,L5V 2C6,416-922-3434,https://peelchildcare.cioc.ca/record/CDR0541,School-Based Centre,Yes,6,,-8870459.43288968,5401586.4539808
304,CC-YMC-062,St. Hilary (YMCA),Social Services,Child Care (YMCA),Child Care Centre,5070 Fairwind Dr,,Mississauga,ON,L5R 2N4,905-568-1549,https://peelchildcare.cioc.ca/record/CDR0535,School-Based Centre,Yes,5,,-8867827.39845404,5404360.19448774
305,CC-OTH-206,St. Hilary's Day Care Centre,Social Services,Child Care (Other),Child Care Centre,2055 Hurontario St,,Mississauga,ON,L5A 2E6,905-279-2273,https://peelchildcare.cioc.ca/record/CDR0456,Community-Based Non-Profit Centre,No,7,,-8861083.48106452,5399129.14137722
306,CC-PLP-150,St. Isaac Jogues (PLASP),Social Services,Child Care (PLASP),Child Care Centre,300 Great Lakes Dr,,Brampton,ON,L6R 2X7,905-890-1711,https://peelchildcare.cioc.ca/record/CDR0770,School-Based Centre,Yes,9,288171,-8879919.95794123,5424666.489698
307,CC-PLP-153,St. Jean Brebeuf (PLASP),Social Services,Child Care (PLASP),Child Care Centre,63 Glenforest Rd,,Brampton,ON,L6S 4E1,905-890-1711,https://peelchildcare.cioc.ca/record/CDR0737,School-Based Centre,Yes,8,67035,-8874912.49656525,5424406.87492198
308,CC-PLP-154,St. Jerome (PLASP),Social Services,Child Care (PLASP),Child Care Centre,790 Paisley Blvd W,,Mississauga,ON,L5C 3P5,905-890-1711,https://peelchildcare.cioc.ca/record/CDR0644,School-Based Centre,Yes,7,36394,-8864436.99294278,5397498.75080869
309,CC-PLP-155,St. Joachim (PLASP),Social Services,Child Care (PLASP),Child Care Centre,435 Rutherford Rd N,,Brampton,ON,L6V 3V9,905-890-1711,https://peelchildcare.cioc.ca/record/CDR0855,School-Based Centre,Yes,1,235577,-8879608.73427448,5421178.95966447
310,CC-PLP-156,St. John Bosco (PLASP),Social Services,Child Care (PLASP),Child Care Centre,1025 North Park Dr,,Brampton,ON,L6S 4E1,905-890-1711,https://peelchildcare.cioc.ca/record/CDR0738,School-Based Centre,Yes,8,184470,-8875862.73490763,5425625.9111706
311,CC-PLP-157,St. John Fisher (PLASP),Social Services,Child Care (PLASP),Child Care Centre,330 Balmoral Dr,,Brampton,ON,L6T 1V6,905-890-1711,https://peelchildcare.cioc.ca/record/CDR0739,School-Based Centre,Yes,7,60657,-8873392.37602295,5420869.68515842
312,CC-PLP-159,St. John of the Cross (PLASP),Social Services,Child Care (PLASP),Child Care Centre,3180 Aquitaine Ave,,Mississauga,ON,L5N 3S5,905-890-1711,https://peelchildcare.cioc.ca/record/CDR0668,School-Based Centre,Yes,9,107188,-8879751.76862301,5400566.83027254
313,CC-YMC-064,St. John the Baptist (YMCA),Social Services,Child Care (YMCA),Child Care Centre,299 Landsbridge St,,Caledon,ON,L7E 2K4,647-203-3800,https://peelchildcare.cioc.ca/record/CDR0605,School-Based Centre,Yes,5,215441,-8873608.17725606,5445506.47947856
314,CC-PLP-162,St. Joseph (PLASP),Social Services,Child Care (PLASP),Child Care Centre,249 Church St,,Mississauga,ON,L5M 1N1,905-890-1711,https://peelchildcare.cioc.ca/record/CDR1040,School-Based Centre,Yes,11,183493,-8873274.08183708,5400899.05030483
315,CC-PLP-163,St. Josephine Bakhita (PLASP),Social Services,Child Care (PLASP),Child Care Centre,430 Van Kirk Dr,,Brampton,ON,L7A 0J2,905-890-1711,https://peelchildcare.cioc.ca/record/CDR0783,School-Based Centre,Yes,2,299385,-8886149.99439201,5422319.09653715
316,CC-PLP-164b,St. Jude Early Learning Centre (PLASP),Social Services,Child Care (PLASP),Child Care Centre,175 Nahani Way,,Mississauga,ON,L4Z 3J6,905-890-1711,https://peelchildcare.cioc.ca/record/CDR0979,School-Based Centre,No,5,,-8866858.22390021,5405822.89085063
317,CC-PLP-165,St. Julia (PLASP),Social Services,Child Care (PLASP),Child Care Centre,6770 Historic Trail,,Mississauga,ON,L5W 1J3,905-890-1711,https://peelchildcare.cioc.ca/record/CDR0718,School-Based Centre,Yes,11,254090,-8874800.95053857,5406844.57998249
318,CC-PLP-166b,St. Kevin Early Learning Centre (PLASP),Social Services,Child Care (PLASP),Child Care Centre,103 Malta Ave,,Brampton,ON,L6Y 4C8,905-890-1711,https://peelchildcare.cioc.ca/record/CDR0437,School-Based Centre,No,4,,-8875698.48394658,5413105.81014268
319,CC-YMC-066,St. Leonard (YMCA),Social Services,Child Care (YMCA),Child Care Centre,30 Summer Valley Dr,,Brampton,ON,L6Z4V6,1-866-317-6251 ext 750,https://peelchildcare.cioc.ca/record/CDR0983,School-Based Centre,Yes,2,80078,-8886048.38939073,5424838.00058761
320,CC-YMC-067,St. Louis (YMCA),Social Services,Child Care (YMCA),Child Care Centre,1450 Lewisham Dr,,Mississauga,ON,L5J 3R3,1-647-298-0752,https://peelchildcare.cioc.ca/record/CDR0624,School-Based Centre,Yes,2,135229,-8866135.43383468,5390876.28688064
321,CC-PLP-167,St. Lucy (PLASP),Social Services,Child Care (PLASP),Child Care Centre,25 Kanata Rd,,Brampton,ON,L7A 3R2,905-890-1711,https://peelchildcare.cioc.ca/record/CDR0785,School-Based Centre,Yes,6,265668,-8885650.5659072,5420390.49638066
322,CC-PLP-168,St. Luke (PLASP),Social Services,Child Care (PLASP),Child Care Centre,1280 Cobalt St,,Mississauga,ON,L5H 4L8,905-890-1711,https://peelchildcare.cioc.ca/record/CDR0659,School-Based Centre,Yes,2,285479,-8861628.27065015,5395588.98303321
323,CC-PLP-169,St. Margaret of Scotland (PLASP),Social Services,Child Care (PLASP),Child Care Centre,2266 Council Ring Rd,,Mississauga,ON,L5L 1C1,905-890-1711,https://peelchildcare.cioc.ca/record/CDR0646,School-Based Centre,Yes,8,30292,-8869507.55770266,5393977.06740629
324,CC-PLP-170,St. Margarite Bourgeoys (PLASP),Social Services,Child Care (PLASP),Child Care Centre,550 North Park Dr,,Brampton,ON,L6S 4J8,905-890-1711,https://peelchildcare.cioc.ca/record/CDR0740,School-Based Centre,Yes,7,175755,-8878156.362087,5423392.86024892
325,CC-FDC-025,St. Maria Goretti Child Care Centre (Family Day Care),Social Services,Child Care (Family Day),Child Care Centre,121 Royal Orchard Dr,,Brampton,ON,L6X 4K9,416-922-3434,https://peelchildcare.cioc.ca/record/CDR0406,School-Based Centre,No,5,169176,-8882070.52831766,5418574.64367331
326,CC-PLP-171,St. Mark (PLASP),Social Services,Child Care (PLASP),Child Care Centre,3675 Sawmill Valley Dr,,Mississauga,ON,L5L 2Z5,905-890-1711,https://peelchildcare.cioc.ca/record/CDR0645,School-Based Centre,Yes,8,106606,-8870031.06545893,5396385.06352155
327,CC-YMC-068,St. Mary (YMCA),Social Services,Child Care (YMCA),Child Care Centre,66 Main St S,,Brampton,ON,L6W 2C6,647-924-0130,https://peelchildcare.cioc.ca/record/CDR1092,School-Based Centre,Yes,3,223312,-8878100.27674306,5416614.7401326
328,CC-PLP-172b,St. Matthew Early Learning Centre (PLASP),Social Services,Child Care (PLASP),Child Care Centre,280 Kingsbridge Garden Cir,,Mississauga,ON,L5R 1L3,905-890-1711,https://peelchildcare.cioc.ca/record/CDR0935,School-Based Centre,No,4,,-8867224.99007846,5403650.2949487
329,CC-PLP-173,St. Monica (PLASP),Social Services,Child Care (PLASP),Child Care Centre,60 Sterritt Dr,,Brampton,ON,L6Y 5B6,905-890-1711,https://peelchildcare.cioc.ca/record/CDR0856,School-Based Centre,Yes,4,51375,-8880148.00353887,5413701.57732935
330,CC-YMC-069,St. Nicholas (YMCA),Social Services,Child Care (YMCA),Child Care Centre,120 Harvest Moon Dr,,Caledon,ON,L7E 2W1,416-819-8262,https://peelchildcare.cioc.ca/record/CDR0606,School-Based Centre,Yes,5,303130,-8878700.91655721,5445556.65366529
331,CC-PLP-174,St. Patrick (PLASP),Social Services,Child Care (PLASP),Child Care Centre,11948 The Gore Rd,,Brampton,ON,L6P 0A2,905-890-1711,https://peelchildcare.cioc.ca/record/CDR1011,School-Based Centre,Yes,10,215718,-8875156.8544879,5437267.42909035
332,CC-PLP-175,St. Philip (PLASP),Social Services,Child Care (PLASP),Child Care Centre,345 Fairview Rd W,,Mississauga,ON,L5B 3W5,905-890-1711,https://peelchildcare.cioc.ca/record/CDR0673,School-Based Centre,Yes,7,268315,-8864660.12128934,5400515.97241696
333,CC-PLP-176,St. Pio of Pietrelcina (PLASP),Social Services,Child Care (PLASP),Child Care Centre,4765 Huron Heights Dr,,Mississauga,ON,L4Z 4G9,905-890-1711,https://peelchildcare.cioc.ca/record/CDR0696,School-Based Centre,Yes,4,277168,-8865804.60507592,5404983.80263378
334,CC-PLP-177,St. Raphael (PLASP),Social Services,Child Care (PLASP),Child Care Centre,3470 Clara Dr,,Mississauga,ON,L4T 2C7,905-890-1711,https://peelchildcare.cioc.ca/record/CDR0978,School-Based Centre,Yes,5,,-8866153.05895637,5422410.98675857
335,CC-FDC-026,St. Raymond (Family Day Care),Social Services,Child Care (Family Day),Child Care Centre,5735 Whitehorn Ave,,Mississauga,ON,L5V 2A9,416-922-3434,https://peelchildcare.cioc.ca/record/CDR0859,School-Based Centre,Yes,6,267612,-8872345.77723129,5402975.62650002
336,CC-PLP-178,St. Richard (PLASP),Social Services,Child Care (PLASP),Child Care Centre,7270 Copenhagen Rd,,Mississauga,ON,L5N 2C3,905-890-1711,https://peelchildcare.cioc.ca/record/CDR0702,School-Based Centre,Yes,9,9306,-8880046.85015302,5402744.34529901
337,CC-PLP-179,St. Rita (PLASP),Social Services,Child Care (PLASP),Child Care Centre,30 Summer Valley Dr,,Brampton,ON,L6V 2V7,905-890-1711,https://peelchildcare.cioc.ca/record/CDR0777,School-Based Centre,Yes,2,80078,-8886038.88039977,5424831.15159821
338,CC-YMC-070,St. Rose of Lima (YMCA),Social Services,Child Care (YMCA),Child Care Centre,4590 The Gallops,,Mississauga,ON,L5M 2W4,647-963-9582,https://peelchildcare.cioc.ca/record/CDR0981,School-Based Centre,Yes,8,289148,-8871973.67719591,5397729.94583853
339,CC-PLP-180,St. Sebastian (PLASP),Social Services,Child Care (PLASP),Child Care Centre,3460 Aquinas Ave,,Mississauga,ON,L5M 7L2,905-890-1711,https://peelchildcare.cioc.ca/record/CDR0719,School-Based Centre,Yes,8,281031,-8874682.99578384,5394678.55490974
340,CC-YMC-071,St. Simon Stock (YMCA),Social Services,Child Care (YMCA),Child Care Centre,6440 Lisgar Dr,,Mississauga,ON,L5N 6X3,647-299-5015,https://peelchildcare.cioc.ca/record/CDR0913,School-Based Centre,Yes,10,297567,-8879961.8567692,5398423.29588491
341,CC-PLP-181b,St. Stephen Early Learning Centre (PLASP),Social Services,Child Care (PLASP),Child Care Centre,17 Colonel Bertram Rd,,Brampton,ON,L6Z 4N8,905-890-1711,https://peelchildcare.cioc.ca/record/CDR0434,School-Based Centre,No,2,,-8885021.50186517,5423476.76389457
342,CC-PLP-184,St. Therese of the Child Jesus (PLASP),Social Services,Child Care (PLASP),Child Care Centre,6930 Forest Park Dr,,Mississauga,ON,L5N 6X7,905-890-1711,https://peelchildcare.cioc.ca/record/CDR0704,School-Based Centre,Yes,10,280392,-8880813.91512417,5400623.33909648
343,CC-PLP-185,St. Thomas More (PLASP),Social Services,Child Care (PLASP),Child Care Centre,3270 Tomken Rd,,Mississauga,ON,L4Y 2Y7,905-890-1711,https://peelchildcare.cioc.ca/record/CDR0674,School-Based Centre,Yes,3,109967,-8861263.6213725,5404604.41979356
344,CC-PLP-186,St. Timothy (PLASP),Social Services,Child Care (PLASP),Child Care Centre,2214 Cliff Rd,,Mississauga,ON,L5A 2N9,905-890-1711,https://peelchildcare.cioc.ca/record/CDR0694,School-Based Centre,Yes,7,253306,-8860960.19813784,5400674.85350879
345,CC-PLP-187,St. Ursula (PLASP),Social Services,Child Care (PLASP),Child Care Centre,11 Dwellers Rd,,Brampton,ON,L6X 5C1,905-890-1711,https://peelchildcare.cioc.ca/record/CDR0773,School-Based Centre,Yes,5,292794,-8883314.91815331,5417457.03732167
346,CC-FDC-027,St. Valentine (Family Day Care),Social Services,Child Care (Family Day),Child Care Centre,5610 Heatherleigh Ave,,Mississauga,ON,L5V 2V9,416-922-3434,https://peelchildcare.cioc.ca/record/CDR0917,School-Based Centre,Yes,6,271616,-8870997.33661408,5403852.18475311
347,CC-PLP-188,St. Veronica (PLASP),Social Services,Child Care (PLASP),Child Care Centre,680 Novo Star Dr,,Mississauga,ON,L5W 1C7,905-890-1711,https://peelchildcare.cioc.ca/record/CDR0716,School-Based Centre,Yes,11,227954,-8874093.96121394,5408548.14801793
348,CC-PLP-189,St. Vincent de Paul (PLASP),Social Services,Child Care (PLASP),Child Care Centre,665 Willowbank Trail,,Mississauga,ON,L4W 3L6,905-890-1711,https://peelchildcare.cioc.ca/record/CDR0675,School-Based Centre,Yes,3,303930,-8863443.82003298,5405806.47239073
349,CC-PLP-190,Stanley Mills (PLASP),Social Services,Child Care (PLASP),Child Care Centre,286 Sunny Meadow Blvd,,Brampton,ON,L6R 3C3,905-890-1711,https://peelchildcare.cioc.ca/record/CDR0791,School-Based Centre,Yes,9,236991,-8878640.91830817,5428461.04768752
350,CC-OTH-207,Streetsville Children's Centre - Millcreek,Social Services,Child Care (Other),Child Care Centre,6535 Millcreek Dr,"51,52",Mississauga,ON,L5N 2M2,905-813-7318,https://peelchildcare.cioc.ca/record/CDR0526,Community-Based For-Profit Centre,No,9,86867,-8876880.79541784,5402656.90217017
351,CC-YMC-021,Falconer (YMCA),Social Services,Child Care (YMCA),Child Care Centre,114 Falconer Dr,,Mississauga,ON,L5N 1B4,905-813-1944,https://peelchildcare.cioc.ca/record/CDR0536,Community-Based Non-Profit Centre,No,11,,-8875440.63047587,5404042.34106416
352,CC-PLP-191,Sts. Martha and Mary (PLASP),Social Services,Child Care (PLASP),Child Care Centre,1760 Bough Beeches Blvd,,Mississauga,ON,L4W 2B9,905-890-1711,https://peelchildcare.cioc.ca/record/CDR0676,School-Based Centre,Yes,3,113569,-8861266.26292142,5409304.48303072
353,CC-PLP-192,Sts. Peter and Paul (PLASP),Social Services,Child Care (PLASP),Child Care Centre,4205 Woodington Dr,,Mississauga,ON,L4Z 1K2,905-890-1711,https://peelchildcare.cioc.ca/record/CDR1048,School-Based Centre,Yes,4,255654,-8864932.61909929,5404116.76061153
354,CC-OTH-208,Sunshine Children's Centre,Social Services,Child Care (Other),Child Care Centre,3657 Ponytrail Dr,,Mississauga,ON,L4X 1W5,905-625-6539,https://peelchildcare.cioc.ca/record/CDR0457,Community-Based Non-Profit Centre,No,3,250467,-8859935.44844079,5408849.130926
355,CC-PLP-193,Tecumseh (PLASP),Social Services,Child Care (PLASP),Child Care Centre,1480 Chriseden Dr,,Mississauga,ON,L5H 1V4,905-890-1711,https://peelchildcare.cioc.ca/record/CDR0657,School-Based Centre,Yes,2,146969,-8862480.72174714,5395560.55008758
356,CC-OTH-210,Tender Years Co-operative School,Social Services,Child Care (Other),Child Care Centre,1444 Dundas Cres,,Mississauga,ON,L5C 1E9,905-828-1104,https://peelchildcare.cioc.ca/record/CDR0472,Community-Based Non-Profit Centre,No,7,,-8866502.80426465,5395773.53970882
357,CC-PLP-194,Terry Fox (PLASP),Social Services,Child Care (PLASP),Child Care Centre,95 Richvale Dr N,,Brampton,ON,L6Z 1Y6,905-890-1711,https://peelchildcare.cioc.ca/record/CDR0744,School-Based Centre,Yes,2,290941,-8882454.54495039,5423953.03883222
358,CC-PLP-195,Thornwood (PLASP),Social Services,Child Care (PLASP),Child Care Centre,277 Mississauga Valley Blvd,,Mississauga,ON,L5A 1Y6,905-890-1711,https://peelchildcare.cioc.ca/record/CDR0677,School-Based Centre,Yes,4,228271,-8863378.65780883,5402123.8773184
359,CC-OTH-214,Tiny Treasure Mississauga Day Care,Social Services,Child Care (Other),Child Care Centre,80 King St W,,Mississauga,ON,L5B 1G9,905-276-2370,https://peelchildcare.cioc.ca/record/CDR0480,Community-Based For-Profit Centre,No,7,240758,-8862773.80243364,5400150.38436369
360,CC-OTH-215,Tiny Treasure Montessori School,Social Services,Child Care (Other),Child Care Centre,84 South Service Rd,,Mississauga,ON,L5G 2R9,905-271-2600,https://peelchildcare.cioc.ca/record/CDR0587,Community-Based For-Profit Centre,No,1,,-8860664.01751761,5399138.36730684
361,CC-OTH-217,Tot Town Child Care,Social Services,Child Care (Other),Child Care Centre,7205 Copenhagen Rd ,"3,4",Mississauga,ON,L5N 2C5,905-858-7852,https://peelchildcare.cioc.ca/record/CDR1012,Community-Based For-Profit Centre,No,9,400161,-8879850.30238596,5403016.13253902
362,CC-PLP-196,Treeline (PLASP),Social Services,Child Care (PLASP),Child Care Centre,145 Treeline Blvd,,Brampton,ON,L6P 1E7,905-890-1711,https://peelchildcare.cioc.ca/record/CDR0767,School-Based Centre,Yes,10,319272,-8875822.13032376,5431202.0918226
363,CC-PLP-197b,Trelawny Early Learning Centre (PLASP),Social Services,Child Care (PLASP),Child Care Centre,3420 Trelawny Cir,,Mississauga,ON,L5N 6N6,905-890-1711,https://peelchildcare.cioc.ca/record/CDR0529,School-Based Centre,No,10,,-8879849.29306069,5399366.99337688
364,CC-YMC-046,Mississauga Valley (YMCA),Social Services,Child Care (YMCA),Child Care Centre,1275 Mississauga Valley Blvd,,Mississauga,ON,L5A 3R8,905-276-5038,https://peelchildcare.cioc.ca/record/CDR0481,Community-Based Non-Profit Centre,No,4,,-8863669.79619925,5403351.63759417
365,CC-PLP-011,Blessed Michael J. McGivney (PLASP),Social Services,Child Care (PLASP),Child Care Centre,450 Fernforest Dr,,Brampton,ON,L6R 2P7,905-890-1711,https://peelchildcare.cioc.ca/record/CDR0786,School-Based Centre,Yes,9,86592,-8879758.26324037,5427255.5194141
366,CC-PLP-199,Vista Heights (PLASP),Social Services,Child Care (PLASP),Child Care Centre,89 Vista Blvd,,Mississauga,ON,L5M 1V8,905-890-1711,https://peelchildcare.cioc.ca/record/CDR0699,School-Based Centre,Yes,11,400216,-8875028.99791099,5399989.48997952
367,CC-OTH-221,West Park Day Care,Social Services,Child Care (Other),Child Care Centre,3100 Ridgeway Dr ,45,Mississauga,ON,L5L 5M5,905-820-7211,https://peelchildcare.cioc.ca/record/CDR0494,Community-Based Non-Profit Centre,No,8,,-8871310.72595632,5391164.32942332
368,CC-PLP-200,Westacres (PLASP),Social Services,Child Care (PLASP),Child Care Centre,2165 Breezy Brae Dr,,Mississauga,ON,L4Y 1N3,905-890-1711,https://peelchildcare.cioc.ca/record/CDR0678,School-Based Centre,Yes,1,117993,-8859123.29873793,5402244.91208591
369,CC-OTH-222,Westbrook Montessori Academy,Social Services,Child Care (Other),Child Care Centre,7227 Copenhagen Rd,,Mississauga,ON,L5N 2C6,905-826-4648,https://peelchildcare.cioc.ca/record/CDR0248,Community-Based For-Profit Centre,No,9,110204,-8879920.69633859,5402946.34483448
370,CC-PLP-203,White Oaks (PLASP),Social Services,Child Care (PLASP),Child Care Centre,1690 Mazo Cres,,Mississauga,ON,L5J 1Y8,905-890-1711,https://peelchildcare.cioc.ca/record/CDR0658,School-Based Centre,Yes,2,45603,-8864649.82551706,5392574.15469199
371,CC-OTH-228,White Pines Montessori Academy,Social Services,Child Care (Other),Child Care Centre,3945 Doug Leavens Blvd,,Mississauga,ON,L5N 0A5,905-824-8700,https://peelchildcare.cioc.ca/record/CDR1015,Community-Based For-Profit Centre,No,10,,-8880527.33533368,5398702.84341171
372,CC-PLP-204,Whitehorn (PLASP),Social Services,Child Care (PLASP),Child Care Centre,5785 Whitehorn Ave,,Mississauga,ON,L5V 2A9,905-890-1711,https://peelchildcare.cioc.ca/record/CDR0714,School-Based Centre,Yes,6,275702,-8872442.17986974,5403146.18017332
373,CC-FDC-030,Willow Way (Family Day Care),Social Services,Child Care (Family Day),Child Care Centre,1715 Willow Way,,Mississauga,ON,L5M 3W5,416-922-3434,https://peelchildcare.cioc.ca/record/CDR0537,School-Based Centre,Yes,6,,-8873262.40224962,5401859.23992244
374,CC-PLP-205,Worthington (PLASP),Social Services,Child Care (PLASP),Child Care Centre,71 Worthington Ave,,Brampton,ON,L7A 1N9,905-890-1711,https://peelchildcare.cioc.ca/record/CDR0771,School-Based Centre,Yes,6,276742,-8885363.73354412,5416741.96826679
375,CC-OTH-231,Young Minds Montessori Preschool,Social Services,Child Care (Other),Child Care Centre,1744 Lakeshore Rd W,,Mississauga,ON,L5J 4N8,905-403-0403,https://peelchildcare.cioc.ca/record/CDR0566,Community-Based For-Profit Centre,No,2,418038,-8863569.06193537,5390990.91848035
376,CC-HDC-001,A Child's Place Home Child Care Agency,Social Services,Child Care (Home Child Care),Child Care Centre,10588 Eighth Line,,Halton Hills,ON,L7G 4S5,905-873-9119,https://peelchildcare.cioc.ca/record/CDR0797,Home Care,No,0,,-8894391.81110416,5408307.77236771
377,CC-OTH-011,Alpha Child Care II - Cathedral,Social Services,Child Care (Other),Child Care Centre,3 Cathedral Rd,,Brampton,ON,L6W 2P1,905-456-1811,https://peelchildcare.cioc.ca/record/CDR0404,Community-Based For-Profit Centre,No,3,390928,-8876943.40256721,5415887.72377266
378,CC-PLP-010,Bishop Scalabrini (PLASP),Social Services,Child Care (PLASP),Child Care Centre,225 Central Pky W,,Mississauga,ON,L5B 3J5,905-890-1711,https://peelchildcare.cioc.ca/record/CDR0680,School-Based Centre,Yes,7,221571,-8864983.6837726,5401399.98571226
379,CC-OTH-018,Bizzy Buddies Learning and Childcare,Social Services,Child Care (Other),Child Care Centre,12612 Highway 50 ,13A,Caledon,ON,L7E 1T6,905-857-7648,https://peelchildcare.cioc.ca/record/CDR0976,Community-Based For-Profit Centre,No,5,392161,-8873552.38889254,5443739.33970974
380,CC-PLP-016,Britannia (PLASP),Social Services,Child Care (PLASP),Child Care Centre,1145 Swinbourne Dr,,Mississauga,ON,L5V 1C2,905-890-1711,https://peelchildcare.cioc.ca/record/CDR0701,School-Based Centre,Yes,11,293953,-8872971.32770891,5404739.05408816
381,CC-PLP-029,Conestoga (PLASP),Social Services,Child Care (PLASP),Child Care Centre,300 Conestoga Dr,,Brampton,ON,L6Z 3M1,905-890-1711,https://peelchildcare.cioc.ca/record/CDR0755,School-Based Centre,Yes,2,185767,-8881773.72953855,5421477.12540141
382,CC-OTH-074,Early Learning Centre - University of Toronto-Mississauga (UTM),Social Services,Child Care (Other),Child Care Centre,3359 Mississauga Rd,,Mississauga,ON,L5C 1C6,905-569-4422,https://peelchildcare.cioc.ca/record/CDR0496,Community-Based Non-Profit Centre,No,8,,-8868158.36017681,5395457.03706613
383,CC-HDC-005,Family Day Home Child Care Agency,Social Services,Child Care (Home Child Care),Child Care Centre,155 Gordon Baker Rd,400,Toronto,ON,M2H 3N5,416-922-3434,https://peelchildcare.cioc.ca/record/CDR0803,Home Care,No,0,,-8832644.27416755,5435228.40533981
384,CC-HDC-006,Kids Kare Home Day Care Agency Ltd.,Social Services,Child Care (Home Child Care),Child Care Centre,109 Berard Crt,,Barrie,ON,L4N 1S7,905-792-0880,https://peelchildcare.cioc.ca/record/CDR0802,Home Care,No,0,,-8875572.30018979,5519449.78986319
385,CC-PLP-072,Kingswood Drive (PLASP),Social Services,Child Care (PLASP),Child Care Centre,235 Kingsview Dr,,Brampton,ON,L6V 3B3,905-890-1711,https://peelchildcare.cioc.ca/record/CDR0758,School-Based Centre,Yes,1,60756,-8879489.13534764,5419465.90347641
386,CC-OTH-135,Little Rascals Preschool,Social Services,Child Care (Other),Child Care Centre,158A Queen St S,,Mississauga,ON,L5M 1K8,905-858-0177,https://peelchildcare.cioc.ca/record/CDR0505,Community-Based For-Profit Centre,No,11,264872,-8873838.45087772,5401043.97292788
387,CC-YMC-040,McHugh (YMCA),Social Services,Child Care (YMCA),Child Care Centre,31 Craig St,,Brampton,ON,L6Y 1J2,416-928-9622,https://peelchildcare.cioc.ca/record/CDR0736,School-Based Centre,Yes,3,390972,-8878752.64426541,5416011.50343147
388,CC-PLP-086,Mineola (PLASP),Social Services,Child Care (PLASP),Child Care Centre,145 Windy Oaks,,Mississauga,ON,L5G 1Z4,905-890-1711,https://peelchildcare.cioc.ca/record/CDR0839,School-Based Centre,Yes,1,396717,-8859392.57448515,5398165.17734971
389,CC-OTH-167,Northridge Montessori School,Social Services,Child Care (Other),Child Care Centre,2185 Stavebank Rd,,Mississauga,ON,L5C 1T3,905-281-0840,https://peelchildcare.cioc.ca/record/CDR0044,Community-Based For-Profit Centre,No,7,396700,-8862877.46518921,5397919.277564
390,CC-YMC-052,Palgrave (YMCA),Social Services,Child Care (YMCA),Child Care Centre,8962 Patterson Side Rd,,Caledon,ON,L0N 1P0,905-857-3531,https://peelchildcare.cioc.ca/record/CDR0602,School-Based Centre,Yes,4,323108,-8886893.1899703,5457108.24733989
391,CC-PLP-160,St. John Paul II (PLASP),Social Services,Child Care (PLASP),Child Care Centre,9094 Bolton Heights Rd,,Caledon,ON,L7E 5R8,905-890-1711,https://peelchildcare.cioc.ca/record/CDR0604,School-Based Centre,Yes,6,197779,-8877434.35255416,5448449.87724955
392,CC-FDC-018,Ray Lawson (Family Day Care),Social Services,Child Care (Family Day),Child Care Centre,725 Ray Lawson Blvd,,Brampton,ON,L6Y 0T8,416-922-3434,https://peelchildcare.cioc.ca/record/CDR1131,School-Based Centre,Yes,4,391662,-8877286.23104239,5410244.3643349
393,CC-FDC-021,SouthFields Village (Family Day Care),Social Services,Child Care (Family Day),Child Care Centre,110 Learmont Ave,,Caledon,ON,L7C 3R1,416-922-3434,https://peelchildcare.cioc.ca/record/CDR1036,School-Based Centre,Yes,2,400217,-8886051.70253221,5428060.05578004
394,CC-PLP-182,St. Teresa of Avila (PLASP),Social Services,Child Care (PLASP),Child Care Centre,6675 Montevideo Rd,,Mississauga,ON,L5N 4E8,905-890-1711,https://peelchildcare.cioc.ca/record/CDR0703,School-Based Centre,Yes,9,255080,-8877934.3446289,5402431.23727482
395,CC-OTH-218,Village Montessori School,Social Services,Child Care (Other),Child Care Centre,15673 McLaughlin Rd,,Caledon,ON,L7C 1M9,905-838-3886,https://peelchildcare.cioc.ca/record/CAL0075,Community-Based For-Profit Centre,No,1,253868,-8898148.91605724,5434034.92390648
396,CC-HDC-011,Wee Watch Private Home Day Care (Terrace Woods),Social Services,Child Care (Home Child Care),Child Care Centre,110 Adesso Dr,"Unit 7, Suite 2",Vaughan,ON,L4K 3C5,647-933-1153,https://peelchildcare.cioc.ca/record/CDR1445,Home Care,No,0,,-8853055.2268566,5430941.37278604
397,CC-OTH-196,Simply Smart Child Care,Social Services,Child Care (Other),Child Care Centre,6745 Century Ave,,Mississauga,ON,L5N 8C9,905-593-6780,https://peelchildcare.cioc.ca/record/CDR1053,Community-Based For-Profit Centre,No,9,8787,-8877188.80944903,5404215.33075585
398,CC-OTH-122,Lakeside Montessori,Social Services,Child Care (Other),Child Care Centre,1079 Lakeshore Rd E,,Mississauga,ON,L5E 1E8,905-891-8332,https://peelchildcare.cioc.ca/record/CDR1143,Community-Based For-Profit Centre,No,1,,-8856331.21980514,5400408.57236932
399,CC-OTH-093,Giant Leap,Social Services,Child Care (Other),Child Care Centre,8930 Hwy 50,,Brampton,ON,L6P 3A5,647-367-9321,https://peelchildcare.cioc.ca/record/CDR1130,Community-Based For-Profit Centre,Yes,8,336421,-8867081.5549166,5430674.66782276
400,CC-YMC-061,St. Cornelius (YMCA),Social Services,Child Care (YMCA),Child Care Centre,16066 Innis Lake Rd,,Caledon,ON,L7C 2Z2,519-942-3290,https://peelchildcare.cioc.ca/record/CAL0434,School-Based Centre,Yes,3,92392,-8889691.38406775,5446827.18729272
401,CC-OTH-004,Absolute Angels II Daycare,Social Services,Child Care (Other),Child Care Centre,10635 Creditview Rd,,Brampton,ON,L7A 0T4,905-970-9581,https://peelchildcare.cioc.ca/record/CDR1321,Community-Based For-Profit Centre,No,6,,-8887285.03919452,5417505.88027793
402,CC-OTH-014,Appleseed Academy of Early Learning,Social Services,Child Care (Other),Child Care Centre,2067 Stanfield Rd,,Mississauga,ON,L6X 1J3,905-459-9219,https://peelchildcare.cioc.ca/record/CDR1139,Community-Based For-Profit Centre,No,1,117004,-8858362.63327007,5402791.63086439
403,CC-YMC-003,Belfountain (YMCA),Social Services,Child Care (YMCA),Child Care Centre,17247 Shaws Creek Rd,,Caledon,ON,L6P 3A5,647-367-9321,https://peelchildcare.cioc.ca/record/CDR1287,School-Based Centre,Yes,1,326398,-8907595.1435684,5432746.90130795
404,CC-YMC-007,Caledon East (YMCA),Social Services,Child Care (YMCA),Child Care Centre,15738 Airport Rd,,Caledon,ON,L6X 0E1,905-890-1711,https://peelchildcare.cioc.ca/record/CDR1289,School-Based Centre,Yes,3,84576,-8890155.48762196,5444306.97793189
405,CC-YMC-014,Corpus Christi (YMCA),Social Services,Child Care (YMCA),Child Care Centre,4155 Elora Dr,,Mississauga,ON,L6X 0E1,905-890-1711,https://peelchildcare.cioc.ca/record/CDR1353,School-Based Centre,Yes,4,230553,-8866872.79830035,5401452.82311116
406,CC-FDC-005,Eldorado (Family Day Care),Social Services,Child Care (Family Day),Child Care Centre,25 Wardsville Dr,,Brampton,ON,L5H 3J1,905-890-1711,https://peelchildcare.cioc.ca/record/CDR1329,School-Based Centre,Yes,4,275349,-8881012.33731398,5409137.96138491
407,CC-YMC-028,Harold F. Loughlin (YMCA),Social Services,Child Care (YMCA),Child Care Centre,39 Herkley Dr,,Brampton,ON,L5B 2M4,1-866-943-9622,https://peelchildcare.cioc.ca/record/CDR1162,School-Based Centre,Yes,1,390045,-8877459.17266169,5420458.01421717
408,CC-PLP-059,Helen Wilson (PLASP),Social Services,Child Care (PLASP),Child Care Centre,9 Abbey Rd,,Brampton,ON,L5G 1B8,1-866-317-6251,https://peelchildcare.cioc.ca/record/CDR1275,School-Based Centre,Yes,3,55463,-8876751.48214414,5416282.20960941
409,CC-PLP-075,Lorenville (PLASP),Social Services,Child Care (PLASP),Child Care Centre,10 Lorenville Dr,,Brampton,ON,L5G 1B8,1-866-317-6251,https://peelchildcare.cioc.ca/record/CDR1274,School-Based Centre,Yes,5,317819,-8884505.04282345,5413519.90731378
410,CC-YMC-039,Mary Fix (YMCA),Social Services,Child Care (YMCA),Child Care Centre,486 Paisley Blvd W,,Mississauga,ON,L6V 2E7,1-647-298-7345,https://peelchildcare.cioc.ca/record/CDR1291,School-Based Centre,Yes,7,224073,-8863748.91206671,5398724.36912965
411,CC-FDC-020,Sir Isaac Brock (Family Day Care),Social Services,Child Care (Family Day),Child Care Centre,45 Meltwater Cres,,Brampton,ON,L6P 2V7,905-890-1711,https://peelchildcare.cioc.ca/record/CDR1292,School-Based Centre,Yes,10,307748,-8869438.68474609,5433820.8889627
412,CC-PLP-127,St. Andre Bessette (PLASP),Social Services,Child Care (PLASP),Child Care Centre,25 Riverstone Dr,,Brampton,ON,L6Y 0T7,905-454-1477,https://peelchildcare.cioc.ca/record/CDR1277,School-Based Centre,Yes,8,317638,-8869305.55742424,5429223.10602309
413,CC-YMC-063,St. James (YMCA),Social Services,Child Care (YMCA),Child Care Centre,98 Wanita Rd,,Mississauga,ON,L6Y 0T7,905-454-1477,https://peelchildcare.cioc.ca/record/CDR1290,School-Based Centre,Yes,1,86627,-8857876.85092553,5397998.95263455
414,CC-PLP-152,St. Jean-Marie Vianney (PLASP),Social Services,Child Care (PLASP),Child Care Centre,75 Jordensen Dr,,Brampton,ON,L6P 3V8,905-791-8408,https://peelchildcare.cioc.ca/record/CDR1276,School-Based Centre,Yes,5,350136,-8883398.19703745,5414462.3651171
415,CC-PLP-201,Westervelts (PLASP),Social Services,Child Care (PLASP),Child Care Centre,20 Brickyard Way,,Brampton,ON,L6V 4L5,905-890-1711,https://peelchildcare.cioc.ca/record/CDR0746,School-Based Centre,Yes,1,239417,-8881126.77573122,5419772.69586398
416,CC-PLP-042,Fairwind Early Early Learning Centre (PLASP),Social Services,Child Care (PLASP),Child Care Centre,5235 Fairwind Dr,,Mississauga,ON,L5R 3L2,905-712-4077,https://peelchildcare.cioc.ca/record/CDR0556,School-Based Centre,No,5,308594,-8868386.25847538,5404594.62470832
417,CC-PLP-070,John Fraser Early Learning Centre (PLASP),Social Services,Child Care (PLASP),Child Care Centre,2665 Erin Centre Blvd,,Mississauga,ON,L5M 5H6,905-819-1890,https://peelchildcare.cioc.ca/record/CDR0558,School-Based Centre,No,9,,-8874022.03178715,5397588.06600706
418,CC-OTH-185,Rocket Academy & Early Learning Centre,Social Services,Child Care (Other),Child Care Centre,3088 Mayfield Rd,9,Brampton,ON,L6Z 0E3,905-846-7311,https://peelchildcare.cioc.ca/record/CDR0433,Community-Based For-Profit Centre,No,2,298233,-8885832.68123591,5424746.05742812
419,CC-FDC-019,Sacred Heart (Family Day Care),Social Services,Child Care (Family Day),Child Care Centre,24 Kerwood Pl,,Brampton,ON,L6Z 1Y1,416-922-3434,https://peelchildcare.cioc.ca/record/CDR1037,School-Based Centre,Yes,2,290792,-8883149.78674764,5424280.38053236
420,CC-FDC-028,Thorn Lodge (Family Day Care),Social Services,Child Care (Family Day),Child Care Centre,2730 Thorn Lodge Dr,,Mississauga,ON,L5K 1Y6,416-922-3434,https://peelchildcare.cioc.ca/record/CDR1032,School-Based Centre,Yes,2,,-8869287.04278738,5391695.70539766
421,CC-FDC-006,Ellengale (Family Day Care),Social Services,Child Care (Family Day),Child Care Centre,3480 Ellengale Dr,,Mississauga,ON,L5C 1Z7,905-279-1555,https://peelchildcare.cioc.ca/record/CDR1035,School-Based Centre,Yes,6,23756,-8867614.62770136,5398124.23941374
422,CC-PLP-090,Munden Park (PLASP),Social Services,Child Care (PLASP),Child Care Centre,515 Tedwyn Dr,,Mississauga,ON,L5A 1J8,905-279-9251,https://peelchildcare.cioc.ca/record/CDR1368?Number=285,School-Based Centre,Yes,7,112902,-8860193.80745696,5401178.78252842
423,CC-OTH-173,Philopateer Christian College,Social Services,Child Care (Other),Child Care Centre,6341 Mississauga Rd,,Mississauga,ON,L5N 1A5,905-814-5181,https://peelchildcare.cioc.ca/record/CDR1320,Community-Based Non-Profit Centre,No,11,11473,-8875438.1663707,5403000.59843613
424,CC-OTH-063,Clarkson Angels Child Care and Educational Centre (North),Social Services,Child Care (Other),Child Care Centre,1603 Clarkson Rd,"1,2,3",Mississauga,ON,L5J 2X1,905-823-1603,https://peelchildcare.cioc.ca/record/CDR1299,Community-Based For-Profit Centre,No,2,39920,-8865371.29599961,5392863.67760157
425,CC-OTH-160,Montessori Leaders Casa,Social Services,Child Care (Other),Child Care Centre,20 Red Maple Dr,1,Brampton,ON,L6X 4N7,905-455-7758,https://peelchildcare.cioc.ca/record/CDR0986,Community-Based For-Profit Centre,No,5,53666,-8882353.96647973,5417998.29340008
426,CC-PLP-017,Brookmede (PLASP),Social Services,Child Care (PLASP),Child Care Centre,2250 Council Ring Rd,,Mississauga,ON,L5L 1B7,905-890-1711,https://peelchildcare.cioc.ca/record/CDR0648,School-Based Centre,Yes,8,28184,-8869446.13284523,5394132.02938202
427,CC-OTH-232,Yunaland,Social Services,Child Care (Other),Child Care Centre,10747 Heart Lake Rd,Lower Level,Brampton,ON,L6Z 0B7,647-494-3253,https://peelchildcare.cioc.ca/record/CDR1347,Community-Based For-Profit Centre,No,2,88173,-8881619.58842417,5425301.4079231
428,CC-PLP-023,Castlemore (PLASP),Social Services,Child Care (PLASP),Child Care Centre,9916 The Gore Rd,,Brampton,ON,L6P 0A7,905-913-0845,https://peelchildcare.cioc.ca/record/CDR1358?Number=216,School-Based Centre,Yes,8,184301,-8870847.34203092,5432930.39117131
429,CC-YMC-011,Chris Hadfield (YMCA),Social Services,Child Care (YMCA),Child Care Centre,465 Fairview Rd,,Mississauga,ON,L5B 3W7,905-276-9322 ext 202,https://peelchildcare.cioc.ca/record/CDR1357,School-Based Centre,Yes,7,396714,-8864949.51377756,5400261.7178773
430,CC-YMC-029,Herb Campbell (YMCA),Social Services,Child Care (YMCA),Child Care Centre,3749 King St,,Caledon,ON,L0N 1K0,905-857-3531 ext 310,https://peelchildcare.cioc.ca/record/CDR1360,School-Based Centre,Yes,1,79238,-8890237.05974754,5432521.86087735
431,CC-PLP-060,Hewson (PLASP),Social Services,Child Care (PLASP),Child Care Centre,235 Father Tobin Rd,,Brampton,ON,L6R 0G2,905-890-1711,https://peelchildcare.cioc.ca/record/CDR1359,School-Based Centre,Yes,9,296211,-8878838.01537532,5429349.56809669
432,CC-OTH-119,Kinder Kids International Preschool,Social Services,Child Care (Other),Child Care Centre,1575 Clarkson Rd N,1,Mississauga,ON,L5J 2X1,905-855-1111,https://peelchildcare.cioc.ca/record/CDR1355,Community-Based For-Profit Centre,No,2,,-8865301.97032523,5392791.62428305
433,CC-OTH-146,Meadow Green Preschool,Social Services,Child Care (Other),Child Care Centre,649 Queensway W,,Mississauga,ON,L6R 3G2,905-273-3344,https://peelchildcare.cioc.ca/record/CDR0163,Community-Based For-Profit Centre,No,7,117059,-8863644.30561083,5397741.49876803
434,CC-FDC-013,Mountain Ash (Family Day Care),Social Services,Child Care (Family Day),Child Care Centre,280 Mountainash Rd,,Brampton,ON,L6R 3G2,905-793-7595,https://peelchildcare.cioc.ca/record/CDR0794,School-Based Centre,Yes,10,236805,-8877112.98062294,5430232.06001772
435,CC-OTH-201,Songbirds Montessori School - Brampton West,Social Services,Child Care (Other),Child Care Centre,9705 James Potter Rd,1-3,Brampton,ON,L6X 0G9,905-453-5445,https://peelchildcare.cioc.ca/record/CDR0425,Community-Based For-Profit Centre,No,5,,-8883977.15658282,5415345.17432105
436,CC-PLP-149,St. Helen (PLASP),Social Services,Child Care (PLASP),Child Care Centre,1325 Bodley Rd,,Mississauga,ON,L5J 3X1,1-888-739-4102,https://peelchildcare.cioc.ca/record/CDR1364,School-Based Centre,Yes,2,139208,-8866692.26689162,5389291.98573457
437,CC-FDC-015,Nelson Mandela (Family Day Care),Social Services,Child Care (Family Day),Child Care Centre,10125 Chinguacousy Rd,,Brampton,ON,L7A 3Z6,416-922-3434,https://peelchildcare.cioc.ca/record/CDR1362,School-Based Centre,Yes,6,400220,-8884791.22125529,5417798.73976661
438,CC-YMC-001,Alloa (YMCA),Social Services,Child Care (YMCA),Child Care Centre,12287 Mississauga Rd,,Caledon,ON,L7C 1X1,905-843-2332,https://peelchildcare.cioc.ca/record/CDR1352,School-Based Centre,Yes,2,406066,-8891497.82393634,5419499.69497542
439,CC-OTH-015,Applewood Montessori Academy & Daycare (Applewood),Social Services,Child Care (Other),Child Care Centre,333 Fairhill Ave,1-6,Brampton,ON,L7A 3N9,416-951-4688,https://peelchildcare.cioc.ca/record/CDR0036,Community-Based For-Profit Centre,No,6,244754,-8885291.08856098,5417980.62787125
440,CC-OTH-020,Boni Montessori School,Social Services,Child Care (Other),Child Care Centre,9886 Torbram Rd,201A,Brampton,ON,L6S 3L9,905-790-2664,https://peelchildcare.cioc.ca/record/CDR1356,Community-Based For-Profit Centre,No,8,288806,-8875237.1954665,5426693.15185868
441,CC-OTH-120,King Academy Child Care Centre Inc.,Social Services,Child Care (Other),Child Care Centre,225 Castle Oaks Cross,11-13,Brampton,ON,L6P 3X3,905-913-0754,https://peelchildcare.cioc.ca/record/CDR1371,Community-Based For-Profit Centre,No,10,390102,-8868447.35005721,5433951.92514612
442,CC-OTH-026,BrightPath - Bolton,Social Services,Child Care (Other),Child Care Centre,14 McEwan Dr W,1,Caledon,ON,L7E 1H1,905-857-4634,https://peelchildcare.cioc.ca/record/CAL0099,Community-Based For-Profit Centre,No,5,392144,-8873973.02835298,5443842.26096873
443,CC-OTH-186,Ross Drive (Caring for Kids),Social Services,Child Care (Other),Child Care Centre,40 Ross Dr,,Brampton,ON,L6R 0W2,905-274-4362,https://peelchildcare.cioc.ca/record/CDR0124,School-Based Centre,Yes,9,,-8881547.92093298,5427003.94922169
444,CC-YMC-065,St. Joseph (YMCA),Social Services,Child Care (YMCA),Child Care Centre,8 Parkway Ave,,Brampton,ON,L6X 2G4,905-451-1400 ext 483,https://peelchildcare.cioc.ca/record/CDR1351?Number=50,School-Based Centre,Yes,5,57612,-8880945.44116036,5415562.49256843
445,CC-PLP-003a,All Saints (PLASP),Social Services,Child Care (PLASP),Child Care Centre,4105 Colonial Dr,,Mississauga,ON,L5L 4E8,905-890-1711,https://peelchildcare.cioc.ca/record/CDR0647,School-Based Centre,Yes,8,240440,-8873337.79953448,5393272.34866668
446,CC-PLP-013a,Brian W. Fleming (PLASP),Social Services,Child Care (PLASP),Child Care Centre,3255 Havenwood Dr,,Mississauga,ON,L4X 2M2,905-890-1711,https://peelchildcare.cioc.ca/record/CDR0689,School-Based Centre,Yes,3,22672,-8859590.21675906,5406541.5108163
447,CC-PLP-024a,Christ the King (PLASP),Social Services,Child Care (PLASP),Child Care Centre,3240 Garthwood Rd,,Mississauga,ON,L5L 5A3,905-890-1711,https://peelchildcare.cioc.ca/record/CDR0475,School-Based Centre,Yes,8,,-8871627.80904266,5392088.18624804
448,CC-PLP-040a,Edenrose (PLASP),Social Services,Child Care (PLASP),Child Care Centre,1342 Edenrose St,,Mississauga,ON,L5V 1K9,905-890-1711,https://peelchildcare.cioc.ca/record/CDR0708,School-Based Centre,Yes,6,272734,-8869455.49559735,5400560.76962842
449,CC-PLP-064a,Huntington Ridge (PLASP),Social Services,Child Care (PLASP),Child Care Centre,345 Huntington Ridge Dr,,Mississauga,ON,L5R 1R6,905-890-1711,https://peelchildcare.cioc.ca/record/CDR0709,School-Based Centre,Yes,4,90161,-8867381.27136751,5403225.1407276
450,CC-PLP-098a,Pauline Vanier (PLASP),Social Services,Child Care (PLASP),Child Care Centre,56 Oaklea Blvd,,Brampton,ON,L4Z 3E9,905-890-1711,https://peelchildcare.cioc.ca/record/CDR0436,School-Based Centre,Yes,4,275543,-8875988.06766505,5410922.33998836
451,CC-PLP-100a,Plum Tree Park (PLASP),Social Services,Child Care (PLASP),Child Care Centre,6855 Tenth Line W,,Mississauga,ON,L5N 5R2,905-890-1711,https://peelchildcare.cioc.ca/record/CDR0726,School-Based Centre,Yes,9,316831,-8880094.60999098,5400816.54113008
452,CC-PLP-123a,St. Agnes (PLASP),Social Services,Child Care (PLASP),Child Care Centre,103 Richvale Dr S,,Brampton,ON,L6Z 1C6,905-890-1711,https://peelchildcare.cioc.ca/record/CDR0748,School-Based Centre,Yes,2,170247,-8881159.93154097,5422934.29067355
453,CC-PLP-130a,St. Barbara (PLASP),Social Services,Child Care (PLASP),Child Care Centre,1455 Samuelson Cir,,Mississauga,ON,L5N 7Z2,905-890-1711,https://peelchildcare.cioc.ca/record/CDR0711,School-Based Centre,Yes,11,353065,-8877314.97867474,5407435.11670825
454,CC-PLP-140a,St. Edith Stein (PLASP),Social Services,Child Care (PLASP),Child Care Centre,6234 Osprey Blvd,,Mississauga,ON,L5N 5V5,905-890-1711,https://peelchildcare.cioc.ca/record/CDR0528,School-Based Centre,Yes,10,271173,-8878737.40533205,5398623.08646372
455,CC-PLP-148a,St. Gregory (PLASP),Social Services,Child Care (PLASP),Child Care Centre,1075 Swinbourne Dr,,Mississauga,ON,L5V 1B9,905-890-1711,https://peelchildcare.cioc.ca/record/CDR0698,School-Based Centre,Yes,11,278171,-8873009.71025016,5405166.65310481
456,CC-PLP-164a,St. Jude (PLASP),Social Services,Child Care (PLASP),Child Care Centre,175 Nahani Way,,Mississauga,ON,L4Z 3J6,905-890-1711,https://peelchildcare.cioc.ca/record/CDR0562,School-Based Centre,Yes,5,112169,-8866901.07063861,5405825.41993242
457,CC-PLP-166a,St. Kevin (PLASP),Social Services,Child Care (PLASP),Child Care Centre,103 Malta Ave,,Brampton,ON,L6Y 4C8,905-890-1711,https://peelchildcare.cioc.ca/record/CDR0974,School-Based Centre,Yes,4,55533,-8875662.45214559,5413073.18196517
458,CC-PLP-172a,St. Matthew (PLASP),Social Services,Child Care (PLASP),Child Care Centre,280 Kingsbridge Garden Cir,,Mississauga,ON,L5R 1L3,905-890-1711,https://peelchildcare.cioc.ca/record/CDR0563,School-Based Centre,Yes,4,291132,-8867256.49865051,5403676.44107791
459,CC-PLP-181a,St. Stephen (PLASP),Social Services,Child Care (PLASP),Child Care Centre,17 Colonel Bertram Rd,,Brampton,ON,L6Z 4N8,905-890-1711,https://peelchildcare.cioc.ca/record/CDR0930,School-Based Centre,Yes,2,177363,-8885051.32627855,5423501.04575227
460,CC-PLP-197a,Trelawny (PLASP),Social Services,Child Care (PLASP),Child Care Centre,3420 Trelawny Cir,,Mississauga,ON,L5N 6N6,905-890-1711,https://peelchildcare.cioc.ca/record/CDR0705,School-Based Centre,Yes,10,229815,-8879808.24087533,5399368.21329742
461,CC-HDC-009,Wee Watch - Brampton Private Home Day Care,Social Services,Child Care (Home Child Care),Child Care Centre,250 Main St N,2nd Floor,Brampton,ON,L6V 1P4,905-487-0661,https://peelchildcare.cioc.ca/record/CDR1404,Home Care,,1,57531,-8879546.57984017,5417738.08780617
462,CC-HDC-010,Wee Watch - Mississauga Private Home Day Care,Social Services,Child Care (Home Child Care),Child Care Centre,2430 Meadowpine Blvd,102,Mississauga,ON,L3R 2G1,905-285-9933,https://peelchildcare.cioc.ca/record/CDR0800,Home Care,,0,,-8880410.84090739,5404373.99610822
463,CC-OTH-219,Walnut Grove (PEAL Centres),Social Services,Child Care (Other),Child Care Centre,10 Pinestaff Rd,,Brampton,ON,L6P 3X8,647-294-2009,https://peelchildcare.cioc.ca/record/CDR0218,School-Based Centre,Yes,8,348515,-8871628.95518608,5431338.40597291
464,CC-OTH-077,Eh to Zed Preschool Canada Early Learning Academy,Social Services,Child Care (Other),Child Care Centre,8814 The Gore Rd,1,Brampton,ON,L6P 0B1,905-794-2929,https://peelchildcare.cioc.ca/record/CDR1392,Community-Based For-Profit Centre,No,8,419973,-8867633.7303069,5429398.63102719
465,CC-OTH-140,Lullaboo Nursery and Child Care - Churchill,Social Services,Child Care (Other),Child Care Centre,8015 Financial Dr,,Brampton,ON,L6Y 0J8,289-410-0111,https://peelchildcare.cioc.ca/record/CDR1389,Community-Based For-Profit Centre,No,4,396099,-8879983.32227041,5408903.63549211
466,CC-YMC-072,St. Sofia (YMCA),Social Services,Child Care (YMCA),Child Care Centre,3540 Havenwood Dr,,Mississauga,ON,L4X 2M9,647-963-9592,https://peelchildcare.cioc.ca/record/CDR0977,School-Based Centre,Yes,3,223236,-8860644.42946744,5407118.26192879
467,CC-PLP-120,Springbrook (PLASP),Social Services,Child Care (PLASP),Child Care Centre,145 Jordensen Dr,,Brampton,ON,L6X 0S1,905-890-1711 ext115,https://peelchildcare.cioc.ca/record/CDR1395,School-Based Centre,Yes,5,399969,-8882655.97853912,5413918.22343255
468,CC-YMC-013,Churchville (YMCA),Social Services,Child Care (YMCA),Child Care Centre,90 Bonnie Braes Dr,,Brampton,ON,L6Y 0Y3,905-943-9622,https://peelchildcare.cioc.ca/record/CDR1398,School-Based Centre,Yes,4,329223,-8881126.48462122,5412376.56811395
469,CC-OTH-187,Royal Academy Montessori Preschool,Social Services,Child Care (Other),Child Care Centre,965 Bovaird Dr W,"5,6,7",Brampton,ON,L6X 5K7,416-200-7264,https://peelchildcare.cioc.ca/record/CDR1394,Community-Based For-Profit Centre,No,5,403799,-8884100.34026042,5417115.94216788
470,CC-OTH-224,Western Heights Montessori Academy,Social Services,Child Care (Other),Child Care Centre,1261 Southdown Rd,,Mississauga,ON,L5J 2Y9,905-849-4777,,Community-Based For-Profit Centre,No,2,146597,-8865072.56641069,5390876.77768375
471,CC-PLP-007,Aylesbury (PLASP),Social Services,Child Care (PLASP),Child Care Centre,25 Aylesbury Dr,,Brampton,ON,L7A 0V3,905-890-1711,https://peelchildcare.cioc.ca/record/CDR1396,School-Based Centre,Yes,6,,-8886810.32710715,5415771.86022679
472,CC-OTH-054,Castle Oaks (Caring for Kids),Social Services,Child Care (Other),Child Care Centre,155 Castle Oaks Cross,,Brampton,ON,L6P 3V4,905-457-3370 ext 2,https://peelchildcare.cioc.ca/record/CDR1401,School-Based Centre,Yes,10,,-8868957.00912411,5433708.76184337
473,CC-OTH-070,Countryside Village (PEAL Centres),Social Services,Child Care (Other),Child Care Centre,40 Dolbyhill Dr,,Brampton,ON,L6R 3V8,905-796-4467,https://peelchildcare.cioc.ca/record/CDR1403,School-Based Centre,Yes,9,423161,-8881336.50152756,5428192.72176314
474,CC-HDC-007,Kreative Kids Home Child Care,Social Services,Child Care (Home Child Care),Child Care Centre,29 Princess St,,Orangeville,ON,L9W 1W2,519-942-2489,https://peelchildcare.cioc.ca/record/CDR1409,Home Care,,0,,-8915910.78985155,5451616.69690747
475,CC-OTH-172,Peel Montessori School,Social Services,Child Care (Other),Child Care Centre,964 Meadow Wood Road,,Mississauga,ON,L5J 2S6,905-823-6522,https://peelchildcare.cioc.ca/record/CDR0093,Community-Based For-Profit Centre,No,2,152238,-8863343.85590025,5391164.33402214
476,CC-OTH-209,Tall Pines School,Social Services,Child Care (Other),Child Care Centre,8525 Torbram Rd,,Brampton,ON,L6T 5K4,905-458-6770,https://peelchildcare.cioc.ca/record/CDR1020,Community-Based For-Profit Centre,No,8,,-8871419.07440124,5423056.74345853
477,CC-OTH-216,Toronto French School,Social Services,Child Care (French),Child Care Centre,1293 Meredith Ave,,Mississauga,ON,L5E 2E6,905-278-7243,https://peelchildcare.cioc.ca/record/CDR1406,Community-Based For-Profit Centre,No,1,,-8857331.73422624,5400880.72302739
478,CC-OTH-227,White Oaks Montessori (Vanier),Social Services,Child Care (Other),Child Care Centre,1200 Vanier Dr,,Mississauga,ON,L5H 4C7,905-278-4454,https://peelchildcare.cioc.ca/record/CDR0571,Community-Based For-Profit Centre,No,2,,-8863964.49207959,5394956.77108526
479,CC-OTH-226,White Oaks Montessori (Clarkson),Social Services,Child Care (Other),Child Care Centre,1338 Clarkson Rd,,Mississauga,ON,L5J 2W5,905-278-4454,https://peelchildcare.cioc.ca/record/CDR0571,Community-Based For-Profit Centre,No,2,42254,-8864756.16235023,5391897.34382471
480,CC-OTH-027,BrightPath - Charolais,Social Services,Child Care (Other),Child Care Centre,305 Charolais Blvd,,Brampton,ON,L6Y 2R2,905-452-5437,https://peelchildcare.cioc.ca/record/CDR1405,Community-Based For-Profit Centre,No,4,253772,-8877654.80176269,5412836.05824251
481,CC-OTH-068,Colors at Danton,Social Services,Child Care (Other),Child Care Centre,7025 Danton Prom,7,Mississauga,ON,L5N 5N4,905-824-7922,https://peelchildcare.cioc.ca/record/CDR1416,Community-Based For-Profit Centre,No,9,,-8880321.41804148,5401715.91484227
482,CC-OTH-170,Open Book Daycare Centres Inc.,Social Services,Child Care (Other),Child Care Centre,725 Balmoral Dr,,Brampton,ON,L6T 1X6,647-242-6076,https://peelchildcare.cioc.ca/record/CDR1423,Community-Based For-Profit Centre,No,7,75392,-8871262.08910913,5421976.06730834
483,CC-PLP-126,St. Alphonsa (PLASP),Social Services,Child Care (PLASP),Child Care Centre,60 Olivia Marie Rd,,Brampton,ON,L6Y 0M4,1-888-739-4102,https://peelchildcare.cioc.ca/record/CDR1428,School-Based Centre,Yes,4,,-8880173.78047049,5409190.64594908
484,CC-YMC-030,Hillside (YMCA),Social Services,Child Care (YMCA),Child Care Centre,1290 Kelly Rd,,Mississauga,ON,L5J 3V1,647-920-6883,https://peelchildcare.cioc.ca/record/CDR1427,School-Based Centre,Yes,2,,-8866206.23976405,5389762.52824833
485,CC-OTH-179,Preschool Petit Bateau Brampton-Caledon (Saint-Jean-Bosco),Social Services,Child Care (French),Child Care Centre,55 Abbotside Way,,Caledon,ON,L7C 4C3,905-495-2665,https://peelchildcare.cioc.ca/record/CDR1430,School-Based Centre,Yes,2,,-8885350.92354981,5426971.74336256
486,CC-OTH-181,Puddle Jumpers Preschool Inc.,Social Services,Child Care (Other),Child Care Centre,12570 Kennedy Rd,5,Caledon,ON,L7C 3N5,416-564-1843,https://peelchildcare.cioc.ca/record/CDR1431,Community-Based For-Profit Centre,No,2,406075,-8886661.5797294,5427695.66980337
487,CC-OTH-143,Lullaboo Nursery and Child Care - Queen,Social Services,Child Care (Other),Child Care Centre,1450 Queen St W,,Brampton,ON,L6X 0B2,289-298-5370,https://peelchildcare.cioc.ca/record/CDR1433,Community-Based For-Profit Centre,No,5,400491,-8882368.58933233,5412638.24242237
488,CC-OTH-089,Fun to Learn Montessori - Erindale,Social Services,Child Care (Other),Child Care Centre,2438 Glengarry Rd,,Mississauga,ON,L5C 1Y2,905-276-9606,https://peelchildcare.cioc.ca/record/CDR1443,Community-Based For-Profit Centre,No,7,218609,-8865259.98103822,5396547.18702968
489,CC-PLP-082,McClure (PLASP),Social Services,Child Care (PLASP),Child Care Centre,50 Parity Rd,,Brampton,ON,L6X 5M8,1-888-739-4102,https://peelchildcare.cioc.ca/record/CDR1441,School-Based Centre,Yes,5,423160,-8882531.83173618,5414747.36280616
490,CC-OTH-043,Buds and Blossoms (Caledon),Social Services,Child Care (Other),Child Care Centre,2976 Charleston Sideroad,,Caledon,ON,L7K 0V8,519-942-2661,https://peelchildcare.cioc.ca/record/CDR1444,Community-Based For-Profit Centre,No,1,199749,-8905195.71220445,5443778.64839253
491,CC-OTH-057,Cherubs Cove Montessori Child Care Inc. Downtown Brampton Campus,Social Services,Child Care (Other),Child Care Centre,104 Queen St W,,Brampton,ON,L6X1A4,905-451-0575,https://peelchildcare.cioc.ca/record/CDR1449,Community-Based For-Profit Centre,No,1,444687,-8879116.24005939,5416659.39663408
492,CC-PLP-198,Tribune (PLASP),Social Services,Child Care (PLASP),Child Care Centre,30 Tribune Dr,,Brampton,ON,L7A 0X5,647-408-2100,https://peelchildcare.cioc.ca/record/CDR1439,School-Based Centre,Yes,6,397281,-8887773.35595837,5417701.17291639
493,CC-OTH-154,Mini Skool - Clubhouse (106A),Social Services,Child Care (Other),Child Care Centre,723 Balmoral Dr,,Brampton,ON,L6T 1X5,905-793-2230,https://peelchildcare.cioc.ca/record/CDR1454,Community-Based Non-Profit Centre,No,7,176118,-8871443.35751321,5422033.94643419
494,CC-OTH-111,Kids & Company Mississauga,Social Services,Child Care (Other),Child Care Centre,85 Prologis Blvd,,Mississauga,ON,L5W 0G4,905-564-9888,https://peelchildcare.cioc.ca/record/CDR1466,Community-Based For-Profit Centre,No,5,405479,-8871500.109767,5408920.79393061
495,CC-OTH-230,Willowbrae Academy Brampton,Social Services,Child Care (Other),Child Care Centre,10651 Chinguacousy Rd,,Brampton,ON,L7A 0N5,647-332-2688,https://peelchildcare.cioc.ca/record/CDR1464,Community-Based For-Profit Centre,No,6,315315,-8885624.8990444,5419027.8350464
496,CC-OTH-144,Ma Petite Maison Childcare,Social Services,Child Care (French),Child Care Centre,354 Queen St S,,Mississauga,ON,L5M 1M2,416-389-0681,https://peelchildcare.cioc.ca/record/CDR1470,Community-Based For-Profit Centre,No,11,93448,-8872857.62768037,5400044.39309853
497,CC-PLP-137,St. Daniel Camboni (PLASP),Social Services,Child Care (PLASP),Child Care Centre,120 Veterans Dr,,Brampton,ON,L7A 0B5,1-888-739-4102,https://peelchildcare.cioc.ca/record/CDR1481,School-Based Centre,Yes,6,442357,-8887818.41612064,5416053.58599704
498,CC-OTH-229,Willow Tree Montessori,Social Services,Child Care (Other),Child Care Centre,274 Queen St S,,Mississauga,ON,L5M 1L8,647-787-8274,https://peelchildcare.cioc.ca/record/CDR1483,Community-Based For-Profit Centre,No,11,86366,-8873394.25206121,5400586.23070544
499,CC-OTH-066,Closer II Home Programs,Social Services,Child Care (Other),Child Care Centre,10 Squire Ellis Dr,,Brampton,ON,L6P 4K6,905-794-9173,https://peelchildcare.cioc.ca/record/CDR1471,Community-Based For-Profit Centre,No,10,419925,-8874698.65447132,5436922.35556904
500,CC-OTH-162,Mount Pleasant Montessori,Social Services,Child Care (Other),Child Care Centre,15 Ashby Field,1-4,Brampton,ON,L6X 3B7,905-452-8884,https://peelchildcare.cioc.ca/record/CDR1322,Community-Based For-Profit Centre,No,5,400187,-8885690.52340443,5414916.23953336
501,CC-OTH-102,Huron Park Montessori,Social Services,Child Care (Other),Child Care Centre,830 Paisley Blvd W,,Mississauga,ON,L5C 3P5,647-400-1436,https://peelchildcare.cioc.ca/record/CDR0460,Community-Based For-Profit Centre,No,7,84168,-8864712.98019062,5397459.29113095
502,CC-OTH-090,Garderie Cercle de l'amitie Mississauga (Le Flambeau),Social Services,Child Care (French),Child Care Centre,600 Novo Star Dr,,Mississauga,ON,L5W 1G4,905-403-1587,https://peelchildcare.cioc.ca/record/CDR1484,School-Based Centre,Yes,11,398715,-8873923.29203704,5408747.75055229
503,CC-OTH-129,Little Bloomers Childcare Centre,Social Services,Child Care (Other),Child Care Centre,153 Queen St W,,Brampton,ON,L6Y 1M4,905-499-0789,https://peelchildcare.cioc.ca/record/CDR1602,Community-Based For-Profit Centre,No,3,48892,-8879201.10252864,5416436.41351973
504,CC-OTH-141,Lullaboo Nursery and Child Care - Heartland,Social Services,Child Care (Other),Child Care Centre,5510 Mavis Rd,,Mississauga,ON,L5V 2X5,289-444-5055,https://peelchildcare.cioc.ca/record/CDR1601,Community-Based For-Profit Centre,No,6,265803,-8870843.59360327,5404579.17277686
505,CC-PLP-202,Whaley's Corner Public School (PLASP),Social Services,Child Care (PLASP),Child Care Centre,140 Howard Stewart Rd,,Brampton,ON,L6Y 6B1,1-888-739-4102,https://peelchildcare.cioc.ca/record/CDR1610,School-Based Centre,No,6,421467,-8881866.35819411,5408498.27587917
506,CC-OTH-211,Terry Fox Montessori Inc.,Social Services,Child Care (Other),Child Care Centre,1051 Eglinton Ave W,,Mississauga,ON,L5V 2W3,289-997-1312,https://peelchildcare.cioc.ca/record/CDR1614,Community-Based For-Profit Centre,No,6,226146,-8869803.6815628,5401366.1693964
507,CC-FDC-029,Tony Pontes (Family Day),Social Services,Child Care (Family Day),Child Care Centre,12872 Kennedy Rd,,Caledon,ON,L7C 4C4,416-922-9556 ext 2418,https://peelchildcare.cioc.ca/record/CDR1651,School-Based Centre,Yes,2,444721,-8887397.51558416,5428278.33725034
508,CC-PLP-151,St. Jacinta Marto (PLASP),Social Services,Child Care (PLASP),Child Care Centre,40 Fallowfield Rd,,Brampton,ON,L6X 0W5,647-484-4372,https://peelchildcare.cioc.ca/record/CDR1621,School-Based Centre,Yes,5,451861,-8883120.98526696,5412502.93853193
509,CC-OTH-197,Simply Smart Child Care - Brampton,Social Services,Child Care (Other),Child Care Centre,25 Montpelier St,,Brampton,ON,L6Y 6B6,905-593-6780,https://peelchildcare.cioc.ca/record/CDR1620,Community-Based For-Profit Centre,No,6,449951,-8881644.65236428,5408817.93001461
510,CC-OTH-112,Kids Development Daycare,Social Services,Child Care (Other),Child Care Centre,23 Conservation Dr,"9,10",Brampton,ON,L6Z 4R3,905-625-5355,https://peelchildcare.cioc.ca/record/CDR1616,Community-Based For-Profit Centre,No,2,331009,-8884757.23928097,5423095.73756117
511,CC-OTH-159,Montessori in the Woods Inc.,Social Services,Child Care (Other),Child Care Centre,1261 North Sheridan Way,,Mississauga,ON,L5H 2A3,416-887-9096,https://peelchildcare.cioc.ca/record/CDR1618,Community-Based For-Profit Centre,No,8,230689,-8864405.46252262,5394707.80013411
512,CC-OTH-083,Family Tree Child Care Centre Ltd.,Social Services,Child Care (Other),Child Care Centre,194 McEwan Dr E,2,Caledon,ON,L7E 4E5,905-951-7878,https://peelchildcare.cioc.ca/record/CDR1640,Community-Based For-Profit Centre,No,5,19283,-8873065.41592062,5444382.07226297
513,CC-OTH-199,Songbirds Montessori - Ellen St,Social Services,Child Care (Other),Child Care Centre,8 Ellen St,,Brampton,ON,L6V 1J6,905-453-0229,https://peelchildcare.cioc.ca/record/CDR1645,Community-Based For-Profit Centre,No,1,164462,-8879383.83400423,5417607.5897323
514,CC-YMC-018,Dolson (YMCA),Social Services,Child Care (YMCA),Child Care Centre,90 Remembrance Rd,,Brampton,ON,L7A 0A7,647-990-3338,https://peelchildcare.cioc.ca/record/CDR1650,School-Based Centre,Yes,6,,-8889284.41313799,5418010.18269379
515,CC-OTH-092,Garderie La Fontaine de l'Amitie,Social Services,Child Care (Other),Child Care Centre,1445 Lewisham Dr,,Mississauga,ON,L5J 3R2,647-834-5503,https://peelchildcare.cioc.ca/record/CDR1652,School-Based Centre,Yes,2,41564,-8866015.2040177,5390956.25618676
516,CC-PLP-143,St. Evan (PLASP),Social Services,Child Care (PLASP),Child Care Centre,500 Dougall Ave,,Caledon,ON,L7C 4C5,905-890-1711,https://peelchildcare.cioc.ca/record/CDR1654,School-Based Centre,Yes,2,423155,-8887238.9539032,5427203.27547273
517,CC-OTH-109,Kids & Company - Brampton,Social Services,Child Care (Other),Child Care Centre,75 Dufay Rd,C,Brampton,ON,L7A 4J1,905-843-2261,https://peelchildcare.cioc.ca/record/CDR1653,Community-Based For-Profit Centre,No,6,151408,-8888187.19887306,5415776.82401309
518,CC-OTH-163,My First Montessori School Inc.,Social Services,Child Care (Other),Child Care Centre,11210 Creditview Rd,C,Brampton,ON,L7A 4X3,416-834-6540,https://peelchildcare.cioc.ca/record/CDR1619,Community-Based For-Profit Centre,No,6,444807,-8888719.08485196,5418743.51581693
519,CC-OTH-174,Play Time Playground,Social Services,Child Care (Other),Child Care Centre,20 Simona Dr,3 & 4,Caledon,ON,L7E 4K1,905-951-2727,https://peelchildcare.cioc.ca/record/CDR1704?Number=411,Community-Based For-Profit Centre,No,5,427023,-8872835.25110629,5442929.84753337
520,CC-HDC-008,Learning Happens Child Care Inc.,Social Services,Child Care (Home Child Care),Child Care Centre,37 Martin Byrne Dr,,Brampton,ON,L6P 4E3,416-855-4242,https://peelchildcare.cioc.ca/record/CDR1683,Community-Based For-Profit Centre,Yes,10,397757,-8875060.9398055,5436259.42547822
521,CC-OTH-220,West Credit Child Care Centre,Social Services,Child Care (Other),Child Care Centre,6325 Montevideo Rd,,Mississauga,ON,L5N 4G7,905-858-3087 ext 209,https://peelchildcare.cioc.ca/record/CDR1475,School-Based Centre,No,9,1239,-8877363.67023271,5401570.46993607
522,CC-OTH-212,The Early Childhood Academy Corp. (20 Simona),Social Services,Child Care (Other),Child Care Centre,20 Simona Dr,1,Caledon,ON,L7E 4K1,905-857-6664,https://peelchildcare.cioc.ca/record/CDR1685,Community-Based For-Profit Centre,No,5,427021,-8872847.09544757,5442916.37139023
523,CC-OTH-164,Nestlings Early Learning & Childcare,Social Services,Child Care (Other),Child Care Centre,17 Dean St,,Brampton,ON,L6W 1M7,647-302-8553,https://peelchildcare.cioc.ca/record/CDR1712,Community-Based For-Profit Centre,No,3,46608,-8876405.4531091,5416944.64474595
524,CC-PLP-077,Malala Yousafzai P.S. (PLASP),Social Services,Child Care (PLASP),Child Care Centre,1248 Mayfield Rd,,Caledon,ON,L7C 0Y7,905-890-1711,https://peelchildcare.cioc.ca/record/CDR1714,School-Based Centre,No,2,206835,-8890248.42468153,5419205.80379177
525,CC-OTH-047,Busy Hands 'N' Minds Childcare Centre Brampton,Social Services,Child Care (Other),Child Care Centre,8255 Financial Dr,,Brampton,ON,L6Y 0C1,905-569-2999,https://peelchildcare.cioc.ca/record/CDR1715,Community-Based For-Profit Centre,No,6,475853,-8882068.7933275,5409044.36712955
526,CC-HDC-002,Bright Future Childcare Services,Social Services,Child Care (Home Child Care),Child Care Centre,17 Red Clover Rd,,Brampton,ON,L6R 1Z6,647-283-7486,https://peel.cioc.ca/record/CDR1716,Community-Based Non-Profit Centre,No,9,75246,-8877021.02817181,5427668.7466529
527,CC-OTH-117,Kidz Kove Childcare Centre,Social Services,Child Care (Other),Child Care Centre,4870 Tomken Rd,7,Mississauga,ON,L4W 1J8,905-602-6656,https://peelchildcare.cioc.ca/record/CDR1721,Community-Based For-Profit Centre,No,3,257847,-8864298.62548321,5407712.01176272
528,CC-OTH-175,Playdays Childcare Centre,Social Services,Child Care (Other),Child Care Centre,2255 Dundas St W,101B,Mississauga,ON,L5K 1R6,416-888-8847,https://peelchildcare.cioc.ca/record/CDR1720,Community-Based For-Profit Centre,No,8,127045,-8868978.174539,5393477.80164396
529,CC-FDC-007,Esker Lake Early Learning and Child Care Centre,Social Services,Child Care (Family Day),Child Care Centre,10420 Heart Lake Rd,,Brampton,ON,L6Z 4S2,905-840-5442,https://peelchildcare.cioc.ca/record/CDR0405?Number=7,School-Based Centre,Yes,2,259836,-8880773.69063405,5424163.53802541
530,CC-YMC-002,Alton YMCA,Social Services,Child Care (YMCA),Child Care Centre,19681 Main St,,Caledon,ON,L7K 0E1,1-866-317-6251,https://peelchildcare.cioc.ca/record/CDR1717,School-Based Centre,Yes,1,402119,-8912805.11384432,5443523.86076436
531,CC-OTH-116,Kidtopia Child Care Centre,Social Services,Child Care (Other),Child Care Centre,2233 Argentia Rd,,Mississauga,ON,L5N 2X7,905-858-8181,https://peel.cioc.ca/record/CDR1731,Community-Based For-Profit Centre,No,9,8144,-8877245.98952562,5403402.21580577
532,CC-OTH-050,Caring for Kids - Dundas St,Social Services,Child Care (Other),Child Care Centre,130 Dundas St E,101,Mississauga,ON,L5A 3V8,905-896-8125,https://peelchildcare.cioc.ca/record/CDR1733,Community-Based Non-Profit Centre,No,7,126334,-8862413.83571651,5401126.80835233
533,CC-OTH-073,Early Learners' Montessori School - Bolton,Social Services,Child Care (Other),Child Care Centre,81 Ellwood Dr W,,Caledon,ON,L7E 4W8,905-857-1700,https://peel.cioc.ca/record/CDR1751,Community-Based For-Profit Centre,No,5,254536,-8875903.18911508,5445817.98891426
534,CC-OTH-147,Mighty Wonders Preschool and Childcare,Social Services,Child Care (Other),Child Care Centre,6945 Meadowvale Town Centre Circle,,Mississauga,ON,L5N 2W7,905-858-5800,https://peelchildcare.cioc.ca/record/CDR1746?Number=7,Community-Based For-Profit Centre,No,9,262903,-8878623.65375637,5401113.97185999
535,CC-OTH-024,Bright Scholars Montessori Caledon,Social Services,Child Care (Other),Child Care Centre,225 Dougall Ave,,Caledon,ON,L7C 2H1,905-849-0762,https://peel.cioc.ca/record/CDR1758,Community-Based For-Profit Centre,No,2,477652,-8886226.46758004,5427878.78223552
536,CC-OTH-013,Angelic Treasures Christian Daycare,Social Services,Child Care (Other),Child Care Centre,2626 Mayfield Rd,,Caledon,ON,L7C 3K7,905-495-1417,https://peel.cioc.ca/record/CDR1758?Number=0 ,Community-Based For-Profit Centre,No,2,74995,-8887024.87734734,5423365.80167455
537,CC-YMC-043,Meadowvale YMCA Child Care Centre,Social Services,Child Care (YMCA),Child Care Centre,6700 Edenwood Dr,,Mississauga,ON,L5N3B2,416-928-9622,https://peel.cioc.ca/record/CDR1768?Number=0 ,School-Based Centre,No,9,16266,-8879039.94841793,5400390.74361387
538,CC-PLP-101,Pte. Buckam Singh Public School,Social Services,Child Care (PLASP),Child Care Centre,100 Martin Byrne Dr,,Brampton,ON,L6P0H7,,https://peel.cioc.ca/record/CDR1767?Number=0,School-Based Centre,No,10,423403,-8875351.70094313,5436626.38759554
539,CC-YMC-041,Meadowvale (YMCA),Social Services,Child Care (YMCA),Child Care Centre,6700 Edenwood Dr,,Mississauga,ON,L5N 3B2,1-416-928-9622,https://peel.cioc.ca/record/CDR1768,School-Based Centre,No,,11607,-8879039.94841793,5400390.74361387
540,CC-OTH-123,Laugh & Learn Children Services Inc.,Social Services,Child Care (Other),Child Care Centre,15 Beaumaris Dr,,Brampton,ON,L6T5J6,905-789-8900,https://peel.cioc.ca/record/CDR1780?Number=0,Community-Based For-Profit Centre,No,8,484379,-8867706.88560078,5429069.1422453
541,CC-OTH-158,Mississauga East ATCD,Social Services,Child Care (Other),Child Care Centre,977 Panterra Dr,,Mississauga,ON,L4W2T4,905-624-0033,https://peel.cioc.ca/record/CDR1784?Number=0,Community-Based For-Profit Centre,No,5,22637,-8865376.19792597,5408496.54307869
542,CC-OTH-080,Erindale Early Education Academy,Social Services,Child Care (Other),Child Care Centre,1133 Dundas St W,,Mississauga,ON,L5C1C4,905-803-1133,https://peel.cioc.ca/record/CDR1783?Number=0,Community-Based For-Profit Centre,No,6,311315,-8865907.90862624,5397172.10899172
543,CC-OTH-200,Songbirds Montessori Academy,Social Services,Child Care (Other),Child Care Centre,10 Rivermont Rd,A1,Brampton,ON,L6Y6G7,905-450-8505,https://peel.cioc.ca/record/CDR1787?Number=0,Community-Based For-Profit Centre,No,6,427397,-8881320.65150723,5407196.08390734
544,CC-OTH-052,Casa Dee Montessori School,Social Services,Child Care (Other),Child Care Centre,625 Remembrance Rd,D103,Brampton,ON,L7A4P2,905-955-2333,https://peel.cioc.ca/record/CDR1795 ,Community-Based For-Profit Centre,No,6,482956,-8886490.05769265,5421686.00290164
545,CC-OTH-082,EYES Childcare Brampton 320,Social Services,Child Care (Other),Child Care Centre,320 Main St N,14,Brampton,ON,L6V4A3,905-459-5439,https://peel.cioc.ca/record/CDR1796,Community-Based For-Profit Centre,No,1,314876,-8879746.18106603,5417994.58163347
546,CC-OTH-016,Applewood Montessori Academy & Daycare (Downtown),Social Services,Child Care (Other),Child Care Centre,98A Queen St W,,Brampton,ON,L6X1A4,905-453-2022,https://peel.cioc.ca/record/CDR1797?Number=1,Community-Based For-Profit Centre,No,1,389923,-8879082.25462374,5416695.94105045
547,CC-PLP-065,Huttonville P.S. (PLASP),Social Services,Child Care (PLASP),Child Care Centre,2322 Embleton Rd,,Brampton,ON,L6X0C9,1-888-739-4102,https://peel.cioc.ca/record/CDR1799?Number=1,School-Based Centre,No,6,220352,-8884331.72891814,5410121.99312521
548,CC-OTH-139,Lullaboo Meadowvale,Social Services,Child Care (Other),Child Care Centre,6677 Meadowvale Town Centre Cir,,Mississauga,ON,L5N2R5,289-410-0111,https://peel.cioc.ca/record/CDR1802?Number=1,Community-Based For-Profit Centre,,9,229851,-8878769.32750463,5401109.52106225
549,CC-OTH-007,Alder Ridge Academy,Social Services,Child Care (Other),Child Care Centre,25 Kings Cross Rd,,Brampton,ON,L6T3V5,905-699-2060,https://peel.cioc.ca/record/CDR1804?Number=0,Community-Based For-Profit Centre,No,7,301000,-8874131.11609795,5422248.99098877
550,CC-OTH-113,Kids Fun Club,Social Services,Child Care (Other),Child Care Centre,8920 Highway 50,5B,Brampton,ON,L6P3A3,647-367-9321,https://peel.cioc.ca/record/CDR1808?Number=0,Community-Based For-Profit Centre,No,8,304212,-8867033.61016771,5430697.26012411
551,CC-FDC-011,Gordon Graydon Early Learning & Child Care Centre (Family Day Care),Social Services,Child Care (Family Day),Child Care Centre,1490 Ogden Ave,,Mississauga,ON,L5E2H8,905-268-3335,https://peel.cioc.ca/record/CDR1806?Number=0,School-Based Centre,No,1,308403,-8857946.54940414,5401506.24702829
552,CC-OTH-213,The Early Childhood Academy Corp. (22 Simona),Social Services,Child Care (Other),Child Care Centre,22 Simona Dr,6,Caledon,ON,L7E4K1,905-857-6664,https://peel.cioc.ca/record/CDR1685?Number=1,Community-Based For-Profit Centre,No,5,427033,-8872926.07782718,5442962.82069123
553,CC-OTH-223,Western Heights Montessori (Tomken),Social Services,Child Care (Other),Child Care Centre,4094 Tomken Rd,,Mississauga,ON,L4W1J5,905-848-8448,https://peel.cioc.ca/record/CDR1761?Number=0,Community-Based For-Profit Centre,No,3,19937,-8862756.98238511,5406170.94743022
554,CC-OTH-100,Hide-N-Seek Daycare Inc.,Social Services,Child Care (Other),Child Care Centre,11093 Kennedy Rd N,,Brampton,ON,L6Z0A3,905-840-9990,https://peel.cioc.ca/record/CDR1754?Number=0,Community-Based For-Profit Centre,No,2,204572,-8883751.13039441,5424785.49878953
555,CC-OTH-108,Khalsa Montessori School,Social Services,Child Care (Other),Child Care Centre,11499 The Gore Rd,,Brampton,ON,L6P0B2,905-913-0801,https://peel.cioc.ca/record/CDR0336?Number=0,Community-Based For-Profit Centre,No,10,167486,-8874520.61374954,5437010.39076435
556,CC-OTH-124,Le Petit Kangaroo Child Care Centre,Social Services,Child Care (Other),Child Care Centre,68 Bramalea Rd,1,Brampton,ON,L6T0H3,905-216-2024,https://peelchildcare.cioc.ca/record/CDR1814?Number=0,Community-Based For-Profit Centre,No,7,426201,-8871757.60790981,5420287.13581579
557,CC-OTH-126,Light of the World Christian Childcare Centre,Social Services,Child Care (Other),Child Care Centre,12091 Hurontario St,,Brampton,ON,L6Z4P8,647-333-7939,,Community-Based Non-Profit Centre,No,2,204060,-8886320.45967683,5424694.54233238
558,CC-OTH-053,Casa Dee Montessori School,Social Services,Child Care (Other),Child Care Centre,12612 Hwy 50,13A,Caledon,ON,L7E1T6,905-955-2333,,Community-Based For-Profit Centre,No,5,392162,-8873540.87181419,5443758.98516765
559,CC-OTH-133,Little Galaxy Childcare & Montessori ,Social Services,Child Care (Other),Child Care Centre,10960 Goreway Dr,,Brampton,ON,L6P 0N1,905-247-5507,,Community-Based For-Profit Centre,,10,495800,-8876387.93250636,5433231.69914218
560,CC-OTH-055,Castlemore Montessori,Social Services,Child Care (Other),Child Care Centre,6455 Mayfield Rd,,Brampton,ON,L6P0H9,647-367-1663,,Community-Based For-Profit Centre,,10,492284,-8877674.52594318,5434450.12607853
561,CC-FDC-009,Family Day Care Services - Elm Drive Early Learning and Child Care Centre,Social Services,Child Care (Family Day),Child Care Centre,3492 Kariya Dr,,Mississauga,ON,L5B0L2,905-566-4785,,School-Based Centre,Yes,7,484334,-8864594.06518687,5401828.98933522
562,CC-OTH-096,Guiding Light Montessori Inc,Social Services,Child Care (Other),Child Care Centre,215 Broadway St,,Mississauga,ON,L5M1J1,647-405-0900,,Community-Based For-Profit Centre,No,11,680,-8873689.93844394,5400662.4239433
563,CC-OTH-101,House of Wonder Early Learning Centre,Social Services,Child Care (Other),Child Care Centre,2101 Dixie Rd,,Mississauga,ON,L4Y1Z1,647-885-7082,,Community-Based For-Profit Centre,No,1,123819,-8857706.94704366,5403759.18502118
564,CC-OTH-145,Maplewood Academy,Social Services,Child Care (Other),Child Care Centre,3580 Thomas St,,Mississauga,ON,L5M2S6,905-285-0030,,Community-Based For-Profit Centre,No,10,493973,-8876765.38166919,5397303.5643912
565,CC-OTH-097,Hakuna Matata Child Care Centre Inc.,Social Services,Child Care (Other),Child Care Centre,5650 Montevideo Rd,,Mississauga,ON,L5N4E4,416-302-5174,,Community-Based For-Profit Centre,No,9,114053,-8878084.63017938,5400391.63179776
566,CC-OTH-138,Lullaboo Childcare Center - Wanless,Social Services,Child Care (Other),Child Care Centre,760 Wanless Dr,,Brampton,ON,L7A0A9,905-863-1146,,Community-Based For-Profit Centre,No,6,495149,-8886680.20621098,5420818.95327389
567,CC-OTH-008,Alpha's Discovery Kids Preschool and Daycare,Social Services,Child Care (Other),Child Care Centre,2632 Liruma Rd,,Mississauga,ON,L5K1Z1,905-812-8880,https://www.alphasdiscoveryclub.com/mississauga/,Community-Based For-Profit Centre,No,2,142866,-8869035.59099308,5393003.35587615
