X,Y,OBJECTID,PNT_GIS_ID,NAME,ORG_NAME,CATEGORY,POSTAL_CODE,PHONE_NO,PHONE_EXT,MAIN_INTERSECTION,TYPE,SUBSIDIZED,CWELCC,PROVIDDISP,FULL_ADDRESS,UNIT_NUMBER,COMMUNITY,MUNICIPALITY
607404.3049,4863725.7336,1,213716,The Montessori Country School – Nobleton,1000706718 ONTARIO LIMITED,Child Care Centre,L0G 1N0,(905) 752-8118 ,Ext.375,15th Sideroad & Hwy 27,Centre Based Child Care,Yes,No,THE M08,6185 15th Side Rd Box 455,,Nobleton,King
641594.238,4861106.7747,2,16264,First Academy Montessori East,1347457 Ontario Inc.,Child Care Centre,L6B 1A8,(905) 471-0732,,16th Ave/ 9th Line,Centre Based Child Care,Yes,No,FIRST10,8961 Ninth Line,,Markham,Markham
625991.125,4856044.75,3,115343,Kidz World Childcare Centre - Richmond Hill,2046508 Ontario Inc.,Child Care Centre,L4C 6V6,(905) 881-2713,,Yonge Street & Rutherford Road,Centre Based Child Care,Yes,Yes,KIDZ 04,6 Scott Drive ,Unit 101,Richmond Hill,Richmond Hill
618899.7968,4854586.6884,4,392134,Goodness Childcare Centre,2411544 Ontario Inc.,Child Care Centre,L4K 0H1,(905) 553-8900,,Melville Road & Rutherford Road,Centre Based Child Care,Yes,Yes,GOODN01,"2620 Rutherford Road, ",Unit 101,Vaughan,Vaughan
608290.2986,4861945.8492,5,155166,Little Bears Child Care,2432398 Ontario Inc.,Child Care Centre,L0G 1N0,(437) 427-8678,,King Road and Hwy 27,Centre Based Child Care,Yes,Yes,LITTL30,5970 King Road ,Unit 1,Nobleton,King
623373.125,4851684.75,6,189297,Mini Einstein Daycare,2710010 Ontario Inc.,Child Care Centre,L4J 3M9,(905) 597-6464,,Dufferin Street & Centre Street,Centre Based Child Care,Yes,Yes,MINI 01,1238 Centre Street,,Vaughan,Vaughan
626183.6027,4857307.2048,7,352322,Open Arms Nursery,798518 Ontario Inc.,Child Care Centre,L4C 0A4,(905) 508-1000,,Yonge /16th Avenue,Centre Based Child Care,Yes,Yes,OPEN 02,31 Marshall Street,,Richmond Hill,Richmond Hill
618165.6536,4865242.0156,8,213682,Kidz World Child Care Centre -  King,804762 Ontario Limited,Child Care Centre,L7B 1G1,(905) 833-0868,,Keele Street & King Road,Centre Based Child Care,Yes,Yes,KIDZ 03,13097 Keele Street North,,King City,King
630457.6252,4856210.9154,9,113706,Academia Concept Educational Centre,Academia Concept Educational Centre,Child Care Centre,L4B 1J8,(647) 478-6788,,Hwy 7 & Leslie St,Centre Based Child Care,Yes,Yes,ACADE03,"100 York Blvd, ",Unit 100,Richmond  Hill,Richmond Hill
639141.2339,4863026.9777,10,353563,ACE MONTESSORI,,Child Care Centre,L3P 3J3,(905) 472-9899,,Major Mackenzie Drive East & Markham Road,Centre Based Child Care,Yes,Yes,ACE M01,9899 Markham Road,,Markham,Markham
625908.25,4856590.0,11,112612,Active Kidz Daycare Centre,Active Kidz Daycare Centre Inc.,Child Care Centre,L4C 7A2,(905) 764-8787,,Yonge Street & 16th Avenue,Centre Based Child Care,Yes,Yes,ACTIV01,9206 Yonge Street 2nd Floor,,Richmond Hill,Richmond Hill
623445.2458,4855893.9903,12,234377,Advanced Care & Education Inc. (Thornhill),Advanced Care & Education Daycare Inc. (Thornhill),Child Care Centre,L6A 1S2,(905) 764-9555,,Bathurst Street & Rutherford Road,Centre Based Child Care,Yes,Yes,ADVAN06,941 Rutherford Road,,Maple,Vaughan
637067.7187,4854357.7375,13,42609,Upper Canada Child Care at Aldergrove PS,Upper Canada Creative Child Care Centres of Ontari,Child Care Centre,L3R 6Z8,(905) 470-4029,,Denison Street & Old Kennedy Road,Centre Based Child Care,Yes,Yes,UPPER02,150 Aldergrove Drive,,Unionville,Markham
620253.608,4879116.145,14,340597,Alexander Muir YMCA Child Care,YMCA of Greater Toronto,Child Care Centre,L3X 3G1,(905) 868-9622,,Yonge Street & Davis Drive,Centre Based Child Care,Yes,Yes,ALEXA02,75 Ford Wilson Boulevard,,Newmarket,Newmarket
641912.011,4861161.6416,15,353462,All About Kids Day Care,All About Kids Inc.,Child Care Centre,L6B 1B6,(905) 201-1706,,Ninth Line North of Highway 7,Centre Based Child Care,Yes,Yes,ALL A01,17 Cornell Meadows Avenue ,Unit 1 & 2,Markham,Markham
641920.0223,4861118.4586,16,293534,All About Kids - Cornell 2,All About Kids Inc.,Child Care Centre,L6B 1B6,(905) 201-1706,,9th Line Cornell Park Avenue,Centre Based Child Care,Yes,Yes,ALL A02,96 Cornell Park Drive ,Unit 3,Markham,Markham
641226.625,4862676.25,17,37063,All Smiles Childcare Centre,2123569 Ontario Ltd.,Child Care Centre,L6E 1K7,(905) 294-1144,,9th Line & Bur Oak Avenue,Centre Based Child Care,Yes,Yes,ALL S01,8 Green Hollow Court,,Markham,Markham
634789.5966,4854376.9529,18,57468,All Saints' Montessori School,The Churchwardens of the Church of All Saints in the Town of Markham,Child Care Centre,L3R 0Z4,(905) 946-1586,,Warden Avenue & Denison Street,Centre Based Child Care,Yes,Yes,ALL S03,1100 Denison Street,,Markham,Markham
639308.594,4862415.0,19,63831,Amazing Grace Bilingual Montessori Inc.,Amazing Grace Bilingual Montessori Inc.,Child Care Centre,L6E 1A5,(905) 201-0124,,Markham Road & Bur Oak Avenue,Centre Based Child Care,No,Yes,AMAZI01,"114 Anderson Avenue, ",Unit 4-5,Markham,Markham
622243.906,4872849.0,20,232397,First Smiles Christian Daycare,11760483 CANADA INCORPORATED,Child Care Centre,L4G 2N9,(647) 812-1179,,Wellington Street & Yonge Street,Centre Based Child Care,Yes,Yes,FIRST11,101-126 Wellington Street West,,Aurora,Aurora
622984.5198,4879193.9076,21,190296,Angelic Treasures Christian Daycare - Newmarket,2719833 Ontario Inc.,Child Care Centre,L3Y 2G5,(905) 898-5437,,Davis Dr & Lorne Ave,Centre Based Child Care,Yes,Yes,ANGEL02,337 Queen Street,,Newmarket,Newmarket
634978.6159,4861831.7163,22,372527,Angus Glen Montessori,Angus Glen Montessori Inc.,Child Care Centre,L6C 0M4,(905) 534-5200,,Kennedy Road & Major Mackenzie Drive,Centre Based Child Care,Yes,No,ANGUS02,10000 Kennedy Road,,Markham,Markham
607552.7774,4854058.3572,23,254430,Angus Valley Montessori,1000359676 ONTARIO INC.,Child Care Centre,L0J 1C0,,,Major Mackenzie Rd & HWY 50,Centre Based Child Care,No,No,ANGUS04,10356 Huntington Road,,Kleinburg,Vaughan
623373.8237,4857402.5396,24,389724,Anne Frank Public Elementary School,,Child Care Centre,L6A 0X2,(905) 265-7458,,Major Mac/Ilan Ramon,Centre Based Child Care,Yes,Yes,ANNE 01,431 Ilan Ramon Boulevard,,Vaughan,Vaughan
635356.7343,4860939.0428,25,356843,Apple Blossoms Center Inc.,Apple Blossoms Center Inc.,Child Care Centre,L6C 0A2,(905) 888-0900,,Kennedy Road &16th Avenue,Centre Based Child Care,No,Yes,APPLE06,50 Bur Oak Avenue ,Units 1-3,Markham,Markham
638496.8714,4869360.2269,26,269688,Apple Blossoms Center Stouffville,Apple Blossoms Center Stouffville Inc.,Child Care Centre,L4A 8C1,(905) 642-2888,,Markham Rd. & Main St.,Centre Based Child Care,Yes,Yes,APPLE08,21 Ringwood Drive,,Stouffville,Whitchurch-Stouffville
618375.8532,4850243.4929,27,412296,Apple Mill Road YMCA Child Care (David Braley) CC),YMCA of Greater Toronto,Child Care Centre,L4K 0J8,(905) 326-9622 ,Ext.7,Jane St & Highway 7,Centre Based Child Care,Yes,Yes,APPLE09,200 Apple Mill Road,,Vaughan,Vaughan
638868.0716,4855225.0038,28,36084,Armadale Child Care Centre,Family Day Care Services,Child Care Centre,L3S 2J4,(905) 472-5497,,McCowan Road & Denison Avenue,Centre Based Child Care,Yes,Yes,ARMAD01,11 Coppard Avenue,,Markham,Markham
622719.2694,4876724.2951,29,127385,Upper Canada Child Care at Armitage Village PS,Upper Canada Creative Child Care Centres of Ontari,Child Care Centre,L3X 1R1,(905) 830-9719,,Yonge Street & Mulock Drive,Centre Based Child Care,Yes,Yes,UPPER03,125 Savage Road,,Newmarket,Newmarket
625335.4311,4880809.0168,30,155628,Upper Canada Child Care Nursery School,Upper Canada Creative Child Care Centres of Ontari,Child Care Centre,L3Y 2W9,(905) 898-3708,,Davis Drive & Leslie Street,Centre Based Child Care,Yes,Yes,UPPER04,1035 Wayne Drive,,Newmarket,Newmarket
625586.1642,4880914.2995,31,291507,Art of Life Nursery and Montessori School,Art of Life Nursery and Montessori School Inc.,Child Care Centre,L3Y 3E3,(905) 953-8898,,Leslie Street & Davis Drive,Centre Based Child Care,Yes,Yes,ART O05,18- 17665 Leslie Street,,Newmarket,Newmarket
623331.2188,4879527.2551,32,149212,Simcoe Street Montessori School,Simcoe Steet Montessori School Inc.,Child Care Centre,L3Y 2M5,(905) 836-9898,,Davis Drive & Main Street,Centre Based Child Care,Yes,Yes,SIMCO03,443 Simcoe Street,,Newmarket,Newmarket
631794.3589,4859061.1615,33,40506,Upper Canada Child Care at Ashton Meadows PS,Upper Canada Creative Child Care Centres of Ontari,Child Care Centre,L6C 1T5,(905) 887-2539,,Woodbine Avenue & 16th Avenue,Centre Based Child Care,Yes,Yes,UPPER05,230 Calvert Road,,Markham,Markham
623749.531,4855420.5,34,265036,As-Sadiq Day Care,As-Sadiq Islamic Schools,Child Care Centre,L4J 8A7,(905) 695-1588,,Bathurst and Rutherford,Centre Based Child Care,Yes,Yes,AS-SA02,9000 Bathurst Street,,Thornhill,Vaughan
625947.7391,4878875.3416,35,341502,Atscott Pre-School Academy,Atscott Pre-School Academy Inc.,Child Care Centre,L3Y 9A2,(905) 953-5437,,Leslie Street & Davis Drive,Centre Based Child Care,No,No,ATSCO01,16945 Leslie Street,,Newmarket,Newmarket
624547.9627,4872370.4091,36,259261,Aurora Grove Kids Club,York Professional Care & Education Inc.,Child Care Centre,L4G 6Z5,(905) 503-0260,,Bayview Ave /Stone Road,Centre Based Child Care,Yes,Yes,AUROR04,415 Stone Road,,Aurora,Aurora
616483.305,4851888.118,37,273369,Wee Watch - Aurora/King,Aurora Day Care Services Inc.,Child Care Centre,L4K 1Z8,(647) 933-1153,,Weston Road & Langstaff Road,Home Based  Child Care,Yes,Yes,WEE W08,"7250 Keele Street, ",Unit 387,Vaughan,Vaughan
622346.5828,4873447.089,38,258636,Aurora Heights YMCA School Age,YMCA of Greater Toronto,Child Care Centre,L4G 2X5,(905) 713-6767,,Yonge Street & Wellington Street,Centre Based Child Care,Yes,Yes,AUROR10,85 Tecumseh Drive,,Aurora,Aurora
623169.344,4874978.0,39,122017,Aurora Montessori School,Aurora Montessori School Inc.,Child Care Centre,L4G 4C3,(905) 841-0065 ,Ext.302,Industrial Parkway & St. John's Sideroad,Centre Based Child Care,No,No,AUROR18,330 Industrial Parkway North,,Aurora,Aurora
623474.8041,4873270.7703,40,126758,Aurora Early Learning Centre,2453221 Ontario Inc.,Child Care Centre,L4G 1K1,(905) 713-1122,,Yonge & Industrial Parkway,Centre Based Child Care,Yes,Yes,AUROR19,138 Centre Street,,Aurora,Aurora
637437.2092,4877885.6277,41,174145,Ballantrae Child Care Centre,Ballantrae Child Care Centre Inc.,Child Care Centre,L4A 7X4,(905) 640-2152,,Aurora Sideroad & Highway 48,Centre Based Child Care,Yes,Yes,BALLA04,5632 Aurora Road,,Stouffville,Whitchurch-Stouffville
642370.4053,4869928.1961,42,376966,Barbara Reid Child Care Centre,Friends of Mine Childcare,Child Care Centre,L4A 1S5,(905) 591-2231,,Hoover Park Drive & Tenth Line,Centre Based Child Care,Yes,Yes,BARBA01,130 Hoover Park Drive,,Stouffville,Whitchurch-Stouffville
630243.3706,4906668.3045,43,359242,Upper Canada Child Care at Sutton PS,Upper Canada Creative Child Care Centres of Ontari,Child Care Centre,L0E 1R0,(905) 722-9855,,Baseline Road & Dalton Road,Centre Based Child Care,Yes,Yes,UPPER06,5147 Baseline Road,,Sutton West,Georgina
626992.8083,4853886.6482,44,66086,Upper Canada Child Care at Baythorn PS,Upper Canada Creative Child Care Centres of Ontari,Child Care Centre,L3T 3V2,(905) 889-7436,,Yonge Street & John Street,Centre Based Child Care,Yes,Yes,UPPER07,201 Baythorn Drive,,Thornhill,Markham
628166.4419,4857883.0387,45,106845,Bayview Hill Child Care Centre,Family Day Care Services,Child Care Centre,L4B 2J5,(905) 508-7671,,Bayview Avenue & 16th Avenue,Centre Based Child Care,Yes,Yes,BAYVI03,81 Strathearn Avenue,,Richmond Hill,Richmond Hill
630026.8166,4852983.8749,46,34312,Bayview Fairways B & A School Program,Family Day Care Services,Child Care Centre,L3T 2Z6,(905) 881-3129,,John Street &  Bayview Fairways,Centre Based Child Care,Yes,Yes,BAYVI04,255 Bayview Fairways Drive,,Thornhill,Markham
629290.3473,4852086.3846,47,59634,Bayview Glen Before & After School Program,,Child Care Centre,L3T 2V5,(905) 265-7458,,Bayview Avenue/Limcombe,Centre Based Child Care,Yes,Yes,BAYVI06,42 Limcombe Drive,,Markham,Markham
630038,4856125,48,114797,Bayview Elite Learning Centre,Golden 88 Investments Ltd.,Child Care Centre,L4B 3B6,(905) 882-4809,,Leslie Street & Highway 7,Centre Based Child Care,Yes,Yes,BAYVI07,9011 Leslie Street ,Units 105,Richmond Hill,Richmond Hill
637071.75,4856108.0,49,42340,Beckenridge Discovery Preschool,Beckenridge Discovery Preschool Inc.,Child Care Centre,L3S 3K7,(905) 944-9200,,Brimley Avenue & 14th Avenue,Centre Based Child Care,Yes,Yes,BECKE01,4813 14th Avenue,,Markham,Markham
625782.4368,4862049.7975,50,86637,Bernard Junior Y,YMCA of Greater Toronto,Child Care Centre,L4S 1E1,(905) 884-6604,,Elgin Mills & Yonge Street,Centre Based Child Care,Yes,Yes,BERNA04,245 Bernard Avenue,,Richmond Hill,Richmond Hill
621825.8712,4873622.4322,51,159699,Best Friends,605061 Ontario Ltd,Child Care Centre,L4G 3Z4,(905) 552-0610 ,Ext.3,Wellington Street & Yonge Street,Centre Based Child Care,Yes,Yes,BEST 02,70 Devins Drive,,Aurora,Aurora
622981.3188,4855899.1426,52,240284,Beth Sholom First Foundations Community Preschool,First Foundations Jewish Community Preschools,Child Care Centre,L6A 1S2,(204) 939-0931,,Rutherford Road & Bathurst St,Centre Based Child Care,No,Yes,BETH 01,"1076 Rutherford Road, ",Unit 1,Vaughan,Vaughan
634525.313,4859020.5,53,55617,Between Friends,605061 Ontario Ltd,Child Care Centre,L3R 1Z9,(905) 475-3011,,Warden & Highway 7,Centre Based Child Care,Yes,Yes,BETWE02,120 Carlton Road,,Markham,Markham
625466.6984,4878324.5624,54,163091,Bev Bernier Child Care Centre,York Child Development and Family Services Inc.,Child Care Centre,L3Y 8H1,(905) 830-4425,,Mulock Drive & College Manor Drive,Centre Based Child Care,Yes,Yes,BEV B01,505 Pickering Crescent,,Newmarket,Newmarket
622742.2676,4863641.2179,55,375363,Beynon Fields Before and After School Program,Le Club Child Care Program,Child Care Centre,L4E 0R9,(905) 881-8585,,Jafferson Side Rd and Bathurst St,Centre Based Child Care,Yes,Yes,BEYNO01,258 Selwyn Road,,Richmond Hill,Richmond Hill
611166.25,4852261.0,56,132376,Bizzy Buddies II,Bizzy Buddies Learning & Childcare Centre Inc.,Child Care Centre,L4H 1M4,(905) 893-3400,,Rutherford Road & Islington Avenue,Centre Based Child Care,Yes,Yes,BIZZY03,75 Napa Valley Avenue  ,Unit #6,Woodbridge,Vaughan
618455.656,4855593.0,57,206198,Blessed Trinity School Age Program - B & A School,Community of Maple Child Care Services,Child Care Centre,L6A 2R2,(905) 832-4850,,Melville Road & Rutherford Road,Centre Based Child Care,Yes,Yes,BLESS02,230 Hawker Road,,Maple,Vaughan
634678.5361,4858184.0865,58,8227,Upper Canada Child Care at St. John XXIII CES,Upper Canada Creative Child Care Centres of Ontari,Child Care Centre,L3R 1V8,(905) 477-3883,,Warden Avenue & Highway 7,Centre Based Child Care,Yes,Yes,UPPER45,125 Krieghoff Avenue,,Unionville,Markham
639817.7665,4871441.1193,59,427592,Blessed Chiara Badano Child Care Centre,The Village – Children’s Programs,Child Care Centre,L4A 4X5,(647) 202-0713,,Main Street & Ninth Line,Centre Based Child Care,Yes,Yes,BLESS03,55 Meridian Drive,,Stouffville,Whitchurch-Stouffville
622296.375,4900132.0,60,185663,BlissRoot Childcare Centre,,Child Care Centre,L4P 1J4,(416) 875-3088,,The Queensway S & Shurch Street,Centre Based Child Care,No,No,BLISS02,177 Church Street,,Keswick,Georgina
631631.063,4858375.5,61,55878,Blooming Lives Montessori Inc.,Blooming Lives Montessori Inc,Child Care Centre,L3R 0K1,(905) 604-9201,,16th Avenue & Woodbine Avenue,Centre Based Child Care,No,No,BLOOM03,9201 Woodbine Avenue,,Markham,Markham
622630.688,4868545.5,62,73468,Bloomfield Junior Academy Montessori School,2287634 ONTARIO LIMITED,Child Care Centre,L4E 2H8,(289) 234-7711,,Yonge Street & Bloomington,Centre Based Child Care,Yes,Yes,BLOOM04,2 Bloomfield Trail ,Unit 1-2,Richmond Hill,Richmond Hill
635483.8151,4859315.1395,63,41316,Blossoms,605061 Ontario Ltd,Child Care Centre,L3R 2H2,(905) 470-1822,,Kennedy Road & 16th Avenue,Centre Based Child Care,Yes,Yes,BLOSS02,300 Main Street,,Unionville,Markham
616031.125,4849807.499,64,125702,Blue Willow Before & After School Program,Le Club Child Care Program,Child Care Centre,L4L 9E1,(905) 881-8585,,Weston Road & Highway 7,Centre Based Child Care,Yes,Yes,BLUE 03,250 Blue Willow Drive,,Woodbridge,Vaughan
625127.2244,4878434.9844,65,167817,Bogart Child Care Centre,York Child Development and Family Services Inc.,Child Care Centre,L3Y 8G7,(905) 830-5052,,Mulock Drive/College Manor,Centre Based Child Care,Yes,Yes,BOGAR03,855 College Manor Drive,,Newmarket,Newmarket
623205.312,4878831.75,66,126453,Botsford Academy,Botsford Day Care Centre Inc.,Child Care Centre,L3Y 1S7,(905) 853-3300,,Lorne and Botsford,Centre Based Child Care,Yes,Yes,BOTSF03,373 Botsford Street,,Newmarket,Newmarket
641092.1996,4857300.7469,67,32538,Boxwood School Age Program,Family Day Care Services,Child Care Centre,L3S 3P7,(905) 305-8974 ,Ext.234,14th Avenue & Markham Road,Centre Based Child Care,Yes,Yes,BOXWO01,30 Boxwood Crescent,,Markham,Markham
637670.9716,4854264.8821,68,50437,Brimley-Steeles Montessori School,2508066 Ontario Inc.,Child Care Centre,L3R 7B4,(647) 996-9619,,,Centre Based Child Care,Yes,Yes,BRIML03,5000 Steeles Avenue East,,Markham,Markham
623769.1628,4851437.3134,69,215612,Brownridge Junior Y,YMCA of Greater Toronto,Child Care Centre,L4J 7R8,(905) 660-6676,,Bathurst Street & Clark Street,Centre Based Child Care,Yes,Yes,BROWN03,65 Brownridge Drive,,Thornhill,Vaughan
630059.8549,4896972.2759,70,248493,EarlyON Brown Hill Tract Mobile,,EarlyON Program,L0G 1M0,(905) 476-3834,,Ravenshoe Road and McCowen Road,Centre Based Child Care,No,No,EARL125,4389 Ravenshoe Road,,East Gwillimbury,East Gwillimbury
624372.1001,4852792.2164,71,262487,Upper Canada Child Care at Westmount CI,Upper Canada Creative Child Care Centres of Ontari,Child Care Centre,L4J 8G3,(905) 882-9551,,Bathurst Street/Centre,Centre Based Child Care,Yes,Yes,UPPER08,1000 New Westminster Drive Suite 101,,Thornhill,Vaughan
632163.813,4858162.25,72,20229,Upper Canada Child Care at Buttonville PS,Upper Canada Creative Child Care Centres of Ontari,Child Care Centre,L3R 9C2,(905) 946-1216,,Woodbine Avenue & 16th Avenue,Centre Based Child Care,Yes,Yes,UPPER09,141 John Button Boulevard,,Markham,Markham
622207.438,4880033.0,73,193595,Upper Canada Child Care at Canadian Martyrs CES,Upper Canada Creative Child Care Centres of Ontari,Child Care Centre,L3Y 6R5,(905) 836-9078,,Yonge Street & Davis Drive,Centre Based Child Care,Yes,Yes,UPPER10,170 London Road,,Newmarket,Newmarket
622340.729,4859356.366,74,337000,Carnegie Child Care Centre,Kids Connection Care & Education,Child Care Centre,L6A 0G1,(905) 879-6006,,Bathurst Street & Teston Road,Centre Based Child Care,Yes,Yes,CARNE02,575 Via Romano Boulevard,,Vaughan,Vaughan
636221.6443,4861889.4998,75,8111,Castlemore School Age Program,YMCA of Greater Toronto,Child Care Centre,L6C 2R5,(416) 418-6606,,Major Mackenzie Drive & Kennedy Road,Centre Based Child Care,Yes,Yes,CASTL03,256 Ridge Crest Road,,Markham,Markham
603730.7769,4861706.8857,76,135584,Cedar Glen YMCA Child Care,YMCA of Greater Toronto,Child Care Centre,L0G 1T0,(905) 859-9622 ,Ext.300,King Side Road & 11th Concession,Centre Based Child Care,Yes,Yes,CEDAR02,13300 11th Concession,,Schomberg,King
626838.0205,4861518.855,77,88837,LoveView Early Learning Centre,TET Management Inc.,Child Care Centre,L4S 1M7,(905) 237-3808,,Bayview Avenue & Elgin Mills Road,Centre Based Child Care,Yes,Yes,LOVEV01,119-10856 Bayview Avenue,,Richmond Hill,Richmond Hill
616708.719,4850804.0,78,120120,Centered On Children Child Care Centre,Centered on Children Child Care Centre,Child Care Centre,L4L 0J6,(905) 856-5437,,Highway 7 & Weston Road,Centre Based Child Care,Yes,Yes,CENTE02,8201 Weston Road,,Woodbridge,Vaughan
637211.1788,4859967.541,79,61846,Central Park Child Care Centre,YMCA of Greater Toronto,Child Care Centre,L3P 7G2,(905) 940-3274,,16th Avenue & McCowan Road,Centre Based Child Care,Yes,Yes,CENTR01,100 Central Park Drive,,Markham,Markham
626907.625,4850714.75,80,241117,Central Montessori School of Thornhill,Central Montessori Thornhill Campus & Private School Inc.,Child Care Centre,L4J 1A1,(905) 889-0012,,Yonge Street & Steeles Avenue,Centre Based Child Care,Yes,Yes,CENTR03,72 Steeles Avenue West,,Thornhill,Vaughan
623862.2694,4867425.66,81,76912,Centres éducatifs de L'AFRY Campus Richmond Hill,Association des francophones de la region de York Inc,Child Care Centre,L4E 2T2,(289) 552-5200,,Yonge Street & Regatta,Centre Based Child Care,Yes,Yes,CENTR04,13200 Yonge Street,,Richmond Hill,Richmond Hill
625062.1155,4861977.1216,82,86743,Century Private School,9238689 Canada Corporation,Child Care Centre,L4S 1L6,(905) 737-1160,,Yonge Street & Elgin Mills Road,Centre Based Child Care,Yes,No,CENTU05,11181 Yonge Street,,Richmond Hill,Richmond Hill
631674.0526,4858227.2459,83,67258,Chapel Place Daycare Centre,Chapel Place Daycare Centre,Child Care Centre,L3R 9C4,(905) 946-8307,,Woodbine Avenue & 16th Avenue,Centre Based Child Care,Yes,Yes,CHAPE03,8 Chapel Place,,Markham,Markham
623546.3111,4850389.9917,84,173094,Charlton First Base Centre,YMCA of Greater Toronto,Child Care Centre,L4J 6J5,(905) 482-2247,,Dufferin Street & Steeles Avenue,Centre Based Child Care,Yes,Yes,CHARL03,121 Joseph Aaron Boulevard,,Thornhill,Vaughan
628943.052,4862040.012,85,329506,Childventures Early Learning Academy-Richmond Hill,Childventures Early Learning Academy Inc.,Child Care Centre,L4S 0B2,(905) 737-5505,,Leslie Street & Elgin Mills,Centre Based Child Care,Yes,Yes,CHILD14,,Unit 6-10775 Leslie Street,Richmond Hill,Richmond Hill
623662.0904,4856156.716,86,364062,Childventures Early Learning Academy - Vaughan,Childventures Early Learning Academy Inc.,Child Care Centre,L6A 4N9,(905) 303-5090,,Bathurst Street & Rutherford Road,Centre Based Child Care,Yes,Yes,CHILD15,9306 Bathurst Street Building 1 ,Unit 201,Maple,Vaughan
627645.4821,4873891.2103,87,383649,Childventures Early Learning Academy Aurora,Childventures Early Learning Academy Inc.,Child Care Centre,L4G 0Z6,(905) 841-2680,,Wellington Street E & Leslie Street,Centre Based Child Care,Yes,Yes,CHILD18,95 Eric T Smith Way ,Unit 5,Aurora,Aurora
628549.5714,4861156.1019,88,90351,Christians Day Care Centre,Among Friends Day Care Centre,Child Care Centre,L4S 2H1,(905) 552-0610 ,Ext.3,Leslie Street & Elgin Mills Road,Centre Based Child Care,Yes,Yes,CHRIS08,275 Redstone Road,,Richmond Hill,Richmond Hill
640098.9108,4869712.7564,89,183551,Christ Church Child Care Centre,Christ Church Child Care Centre,Child Care Centre,L4A 3R1,(905) 640-8642,,Main Street & Ninth Line,Centre Based Child Care,Yes,Yes,CHRIS03,254 Sunset Boulevard,,Stouffville,Whitchurch-Stouffville
628866.063,4857224.25,90,109445,Christ The King Child Care Centre,Kids Connection Care & Education,Child Care Centre,L4B 2E1,(905) 771-6247,,16th Avenue & Leslie Street,Centre Based Child Care,Yes,Yes,CHRIS06,329 Valleymede Drive,,Richmond Hill,Richmond Hill
628827.6109,4856829.3329,91,110971,Circle of Friends Daycare Centre,605061 Ontario Ltd,Child Care Centre,L4B 2B1,(905) 882-4840,,Leslie & 16th Avenue,Centre Based Child Care,Yes,Yes,CIRCL04,124 Blackmore Avenue,,Richmond Hill,Richmond Hill
619950.6394,4856925.2278,92,340142,City of Vaughan Recreation Program,The Corporation of the City of Vaughan,Child Care Centre,L6A 1T1,(905) 832-8540 ,Ext.7659,Keele Street & Major Mackenzie Drive East,Centre Based Child Care,Yes,No,CITY 10,2141 Major Mackenzie Drive,,Vaughan,Vaughan
621168.5143,4877079.4741,93,266307,Upper Canada Child Care at Clearmeadow PS,Upper Canada Creative Child Care Centres of Ontari,Child Care Centre,L3X 2E4,(905) 953-7812,,Bathurst Street & Mulock Drive,Centre Based Child Care,Yes,Yes,UPPER11,200 Clearmeadow Boulevard,,Newmarket,Newmarket
633079.3056,4858158.0212,94,54143,Coledale Junior Y,YMCA of Greater Toronto,Child Care Centre,L3R 7W8,(905) 940-3275,,Warden Avenue & 16th Avenue,Centre Based Child Care,Yes,Yes,COLED02,60 Coledale Road,,Unionville,Markham
641747.3774,4861289.11,95,48551,Upper Canada Child Care at Cornell Village PS,Upper Canada Creative Child Care Centres of Ontari,Child Care Centre,L6B 1B5,(905) 472-1344,,16th Avenue & 9th Line,Centre Based Child Care,Yes,Yes,UPPER12,186 Country Glen Road,,Markham,Markham
625489.909,4861659.267,96,88053,Corpus Christi Day Care Centre,Among Friends Day Care Centre,Child Care Centre,L4S 1C6,(905) 552-0610 ,Ext.3,Yonge Street & 19th,Centre Based Child Care,Yes,Yes,CORPU03,35 Squire Drive,,Richmond Hill,Richmond Hill
623185.6476,4850483.1549,97,189601,Upper Canada Child Care at Hodan Nalayeh SS,Upper Canada Creative Child Care Centres of Ontari,Child Care Centre,L4J 7R4,(905) 660-5152,,Dufferin Street/Centre,Centre Based Child Care,Yes,Yes,UPPER13,1401 Clark Avenue West,,Thornhill,Vaughan
636478.3108,4876807.2293,98,207089,Country Casa Montessori and Daycare,Country Casa Montessori and Daycare Ltd.,Child Care Centre,L4A 7X3,(905) 640-5437 ,Ext.100,Highway 48 & Aurora Sideroad,Centre Based Child Care,Yes,Yes,COUNT02,15018 Highway 48,,Stouffville,Whitchurch-Stouffville
608089.75,4861814.25,99,246835,Country Kids Nobleton Inc.,Country Kids Nobleton Inc.,Child Care Centre,L0G 1N0,(905) 859-3672,,Highway 27 & King Road,Centre Based Child Care,Yes,Yes,COUNT04,6045 King Road West,,Nobleton,King
619856.122,4854651.7657,100,177306,Cozy Time,2489194 Ontario Ltd.,Child Care Centre,L4K 5A3,(416) 602-3811,,Keele Street & Rutherford Road,Centre Based Child Care,Yes,Yes,COZY 01,9222 Keele Street Building B West,,Vaughan,Vaughan
626454.063,4860267.5,101,95273,Crosby YMCA School Age,YMCA of Greater Toronto,Child Care Centre,L4C 3K8,(416) 457-9979,,Yonge Street & Bayview Avenue,Centre Based Child Care,Yes,Yes,CROSB03,190 Neal Drive,,Richmond Hill,Richmond Hill
620803.2184,4877763.7352,102,174606,Crossland Child Care Centre,York Child Development and Family Services Inc.,Child Care Centre,L3Y 1H8,(905) 898-0545,,Eagle Street/Crossland Gate,Centre Based Child Care,Yes,Yes,CROSS01,255 Brimson Drive,,Newmarket,Newmarket
622336.7857,4876948.3876,103,223764,Cuties and Patooties,10018511 Canada Corp.,Child Care Centre,L3X 1V6,(905) 252-7833,,Yonge Street & Mulock Drive,Centre Based Child Care,Yes,Yes,CUTIE01,16655 Yonge Street ,Unit 33,Newmarket,Newmarket
621258.3818,4879761.0863,104,307721,Cutie Pie Daycare & Child Development Centre,1970238 Ontario Ltd.,Child Care Centre,L3X 3C7,(905) 235-8877,,Yonge Street and Davis Drive,Centre Based Child Care,Yes,Yes,CUTIE03,199 Matthew Boyd Crescent,,Newmarket,Newmarket
622336.7857,4876948.3876,105,223764,"Kidz ""R"" Us Daycare",5001228 Ontario Inc.,Child Care Centre,L3X 1V6,(905) 235-8652,,Yonge Street and Mulock Street,Centre Based Child Care,Yes,Yes,KIDZ 05,"16655 Yonge Street, ",Unit 3,Newmarket,Newmarket
642642.7658,4857387.1258,106,349382,Upper Canada Child Care at David Suzuki PS,Upper Canada Creative Child Care Centres of Ontari,Child Care Centre,L6B 0L9,(905) 472-0555,,9th Line/14th Ave,Centre Based Child Care,Yes,Yes,UPPER14,45 Riverwalk Drive,,Markham,Markham
641787.6268,4871727.7421,107,132055,Deer Park Child Care Ltd.,Deer Park Child Care Ltd.,Child Care Centre,L4A 2X5,(905) 642-9352,,Tenth Line & Stouffville Road,Centre Based Child Care,Yes,Yes,DEER 02,12637 Tenth Line,,Stouffville,Whitchurch-Stouffville
630572.7286,4907194.8732,108,164775,Deer Park,,Child Care Centre,L4P 0L8,(905) 722-5540 ,Ext.5519,Baseline Rd & Dalton Rd,Centre Based Child Care,Yes,Yes,DEER 03,605 Varney Road,,Keswick,Georgina
623088.9884,4880852.1136,109,215738,Denne First Base,YMCA of Greater Toronto,Child Care Centre,L3Y 6L1,(905) 252-4500,,Davis Drive & Main Street North,Centre Based Child Care,Yes,Yes,DENNE03,330 Burford Street,,Newmarket,Newmarket
617079.6139,4857165.186,110,161230,Discovery Public School,,Child Care Centre,L6A 2Z2,(905) 265-7458,,Jane Street/Discovery Trail,Centre Based Child Care,Yes,Yes,DISCO03,120 Discovery Trail,,Vaughan,Vaughan
615527.759,4856905.7711,111,323167,Discovery Point Nursery and Academy,Discovery Point Nursery and Academy Inc.,Child Care Centre,L4H 4G8,(905) 727-3568,,Major Mackenzie Drive & Weston Road,Centre Based Child Care,Yes,Yes,DISCO07,10501 Weston Road ,Unit 9-13,Vaughan,Vaughan
641558.7589,4859873.1432,112,58222,Discovery Preschool On 7 Inc.,Discovery Preschool On 7 Inc.,Child Care Centre,L3P 3B4,(905) 471-6260,,Ninth line & Hwy7,Centre Based Child Care,Yes,Yes,DISCO08,6605 Highway 7 East ,Unit 6-7,Markham,Markham
617982.4423,4857103.905,113,202259,Divine Mercy School Age Program,Among Friends Day Care Centre,Child Care Centre,L6A 1Z1,(905) 552-0610 ,Ext.1,Keele Street & Rutherford,Centre Based Child Care,Yes,Yes,DIVIN03,251 Melville Avenue,,Maple,Vaughan
638441.895,4862735.307,114,337388,Upper Canada Child Care at Donald Cousens PS,Upper Canada Creative Child Care Centres of Ontari,Child Care Centre,L6E 1T5,(905) 202-4310,,Major Mackenzie Drive & Highway 48,Centre Based Child Care,Yes,Yes,UPPER15,315 Mingay Avenue,,Markham,Markham
628827.6109,4856829.3329,115,110971,Doncrest Child Care Centre,Family Day Care Services,Child Care Centre,L4B 2B1,(905) 731-9596,,Bayview Avenue & 16th Avenue,Centre Based Child Care,Yes,Yes,DONCR02,124 Blackmore Avenue,,Richmond Hill,Richmond Hill
626785.4226,4855586.7069,116,117082,EarlyON Dr James Langstaff Community Park,,EarlyON Program,L4B 4N5,(905) 948-9627,,,Centre Based Child Care,No,No,EARL139,155 Red Maple Road,,Richmond Hill,Richmond Hill
621935.25,4880724.25,117,216989,Dr. John M. Denison Child Care Centre,Denison Child Care,Child Care Centre,L3Y 8J7,(905) 836-0144,,Yonge Street & Bristol Road,Centre Based Child Care,Yes,Yes,DR. J01,135 Bristol Road,,Newmarket,Newmarket
621418.871,4856596.742,118,321992,Dr. Roberta Bondar YMCA Child Care,YMCA of Greater Toronto,Child Care Centre,L6A 0T4,(905) 303-6260,,Dufferin Street & Major MacKenzie Drive,Centre Based Child Care,Yes,Yes,DR. R02,401 Grand Trunk Avenue,,Maple,Vaughan
608350.466,4861770.644,119,216192,EarlyON Nobleton Community Park,,EarlyON Program,L0G 1N0,(905) 859-9941,,King and Highway 27,Centre Based Child Care,No,No,EARL108,15 Old King Road,,Nobleton,King
641407.688,4857991.5,120,25004,EarlyON Rouge Valley Trail - Markham East,,EarlyON Program,L3S 4B7,(905) 471-1620,,14th Avenue and Boxgrove Bypass,Centre Based Child Care,No,No,EARL111,120 Rouge Bank Drive,,Markham,Markham
625480.062,4850845.0,121,189003,EarlyON York Hills District Park,,EarlyON Program,L4J 4E5,(905) 709-6159,,Bathurst St and Clark Ave West,Centre Based Child Care,No,No,EARL114,330 York Hill Boulevard,,Thornhill,Markham
627708.938,4852861.75,122,68006,EarlyON Pomona Mills Park,,EarlyON Program,L3T 1Y7,(905) 709-6159,,,Centre Based Child Care,No,No,EARL115,200 John Street,,Thornhill,Vaughan
623439.063,4854009.0,123,217968,EarlyON Sugarbush Heritage Park,,EarlyON Program,L4J 8S1,(905) 709-6159,,,Centre Based Child Care,No,No,EARL117,91 Thornhill Woods Drive,,Thornhill,Vaughan
624629.156,4866530.0,124,78965,EarlyON Ozark Park,,EarlyON Program,L4E 3G4,(905) 948-9627,,Yonge street and King Road,Centre Based Child Care,No,No,EARL127,70 Old Colony Road,,Richmond Hill,Richmond Hill
641536.9576,4869550.0594,125,329996,EarlyON Byers Pond Park Mobile,,EarlyON Program,L4A 0M4,(289) 612-1777,,Byers Pond Way & Dufferin Drive,Centre Based Child Care,No,No,EARL123,Byer's Pond Way,,Whitchurch-Stouffville,Whitchurch-Stouffville
625444.4564,4858662.4358,126,103683,EarlyON Central Public Library Mobile,,EarlyON Program,L4C 0H5,(905) 948-9627,,Major Mackenzie and Yonge Street,Centre Based Child Care,No,No,EARL128,1 Atkinson Street,,Richmond Hill  ON,Richmond Hill
626917.9216,4860851.5815,127,91736,EarlyON Richmond Hill Centre (Unit 17),,EarlyON Program,L4C 3N8,(905) 948-9627,,Bayview Avenue and Taylor Mills Drive North,Centre Based Child Care,No,No,EARL129,"10610 Bayview Avenue, ",Unit 17,Richmond Hill,Richmond Hill
643170.2945,4861384.5516,128,383707,EarlyON Cornell Rouge Woods Park,,EarlyON Program,L6B 0V5,(905) 471-1620,,Jack Leaf Rd & William Forester Rd,Centre Based Child Care,No,No,EARL132,William Forester Road,,"Markham, ON",Markham
619351.956,4857353.17,129,123472,EarlyON Maple Public Library,,EarlyON Program,L6A 1G3,(905) 859-9941,,Keele Street & McNaughton Road,Centre Based Child Care,No,No,EARL133,10190 Keele Street,,Maple,Vaughan
610588.031,4855064.0,130,207453,EarlyON Kleinburg Public Library,,EarlyON Program,L0J 1C0,(866) 404-2077 ,Ext.215,Islington Avenue & Rushworth Crescent,Centre Based Child Care,No,No,EARL134,10341 Islington Avenue,,Kleinburg,Vaughan
631925.9832,4858071.307,131,31778,ON y va Markham,,Child Care Centre,L3R 9C1,,,,Centre Based Child Care,No,No,ON Y 02,111 John Button Boulevard,,"Markham, ON",Markham
610858.0375,4854423.014,132,210080,ON y va  Klieinburg,,Child Care Centre,L0J 1C0,,,,Centre Based Child Care,No,No,ON Y 01,10110 Islington Avenue,,Kleinburg,King
639376.8537,4856892.6915,133,408462,EarlyON Aaniin Community Centre,,EarlyON Program,L3S 3K5,(905) 479-0002 ,Ext.239,,Centre Based Child Care,No,No,EARL138,5665 14th Avenue,,Markham,Markham
628685.2655,4862249.364,134,349383,EarlyON Richmond Green Library,,EarlyON Program,L4S 2T9,(905) 948-9627,,,Centre Based Child Care,No,No,EARL140,1 William F. Bell Parkway,,Richmond Hil,Richmond Hill
623774.3842,4867751.7038,135,340429,EarlyON Oak Ridges Library Mobile,,EarlyON Program,L4E 4R1,(905) 948-9627,,Yonge Street and Bloomington,Centre Based Child Care,No,No,EARL141,34 Regatta Avenue,,RichmondHill,Richmond Hill
619000.6427,4865342.5053,136,141105,EarlyON King City Public Library,,EarlyON Program,L7B 1K9,(905) 859-9941,,King road and Keel,Centre Based Child Care,No,No,EARL145,"1970 King Rd, King City",,Kiing City,King
635663.9646,4888832.3366,137,363996,EarlyON Robert Munsch Public School mobile,,EarlyON Program,L0G 1M0,(905) 853-0754,,,Centre Based Child Care,No,No,EARL148,"395 King Street East , Mount Albert",,Mount Albert,East Gwillimbury
615866.332,4856773.108,138,336268,EarlyON St Mary of the Angels,,EarlyON Program,L4H 0E4,(866) 404-2077 ,Ext.215,Weston Rd and Teston Rd,Centre Based Child Care,No,No,EARL149,351 Vellore Park Ave,,Woodbridge,Vaughan
622336.7857,4876948.3876,139,223764,EarlyON Newmarket Welcome Centre,,EarlyON Program,L3X 1V6,(905) 853-0754,,Yonge and Mulock,Centre Based Child Care,No,No,EARL150,16655 Yonge Street,,Newmarket,Newmarket
642068.6049,4861637.5965,140,46024,Early Blooms Montessori,Vonam Inc.,Child Care Centre,L6B 1E3,(289) 818-7656,,Bur Oak Avenue and 16th Avenue,Centre Based Child Care,Yes,Yes,EARLY04,2780 Bur Oak Avenue,,Markham,Markham
621677.6902,4878494.0535,141,205637,EarlyON Newmarket Centre,,EarlyON Program,L3Y 7R8,(905) 853-0754,,Yonge Street & Millard Avenue West,Centre Based Child Care,No,No,EARLY05,"17310 Yonge Street, ",Unit 6 & 7,Newmarket,Newmarket
624090.8423,4880744.0811,142,167346,EarlyON Meadowbrook Public School Mobile,,EarlyON Program,L3Y 3L5,(905) 853-0754,,Patterson Street & Mountview Place,Centre Based Child Care,No,No,EARLY08,233 Patterson Street,,Newmarket,Newmarket
634981.4817,4855479.1057,143,67130,EarlyON Markham Centre,,EarlyON Program,L3R 0B2,(905) 479-0002 ,Ext.239,Birchmount Road & 14th Avenue,Centre Based Child Care,No,No,EARLY15,3990 14th Avenue,,Markham,Markham
635581.276,4858743.991,144,345360,EarlyON Toogood Pond Mobile,,EarlyON Program,L3R 2H2,(905) 479-0002 ,Ext.239,Main Street & Carlton Road,Centre Based Child Care,No,No,EARLY18,280 Main Street Unionville,,Unionville,Markham
628660.25,4853143.25,145,2687,EarlyON Thornhill Centre,,EarlyON Program,L3T 4P1,(905) 709-6159,,John Street & Bayview Avenue,Centre Based Child Care,No,No,EARLY25,7755 Bayview Avenue,,Thornhill,Vaughan
621693.6367,4854766.4429,146,246366,EarlyON Forest Run Public School Mobile,,EarlyON Program,L4K 5H3,(905) 709-6159,,Forest Run Boulevard & Ten Oaks Boulevard,Centre Based Child Care,No,No,EARLY26,200 Forest Run Boulevard,,Maple,Vaughan
623546.3111,4850389.9917,147,173094,EarlyON Charlton Public School Mobile,,EarlyON Program,L4J 6J5,(905) 709-6159,,Joseph Aaron Boulevard & Charlton Avenue,Centre Based Child Care,No,No,EARLY27,121 Joseph Aaron Boulevard,,Thornhill,Vaughan
626738.0983,4852098.4509,148,224819,EarlyON Thornhill Public School Mobile,,EarlyON Program,L4J 1V8,(905) 709-6159,,Arnold Avenue & Yonge Street,Centre Based Child Care,No,No,EARLY28,7554 Yonge Street,,Thornhill,Vaughan
623705.8496,4872759.1751,149,360162,EarlyON Sheppard's Bush Park Mobile,,EarlyON Program,L4G 7B3,(866) 404-2077 ,Ext.217,Industrial Parkway South & Mary Street,Centre Based Child Care,No,No,EARLY38,Industry Street,,Aurora,Aurora
623878.094,4871971.5,150,171427,EarlyON Aurora Centre,,EarlyON Program,L4G 6X6,(866) 404-2077 ,Ext.217,Englehard Drive & Industrial Parkway South,Centre Based Child Care,No,No,EARLY42,"40 Englehard Drive , ",Unit 1,Aurora,Aurora
622199.063,4871194.0,151,140911,EarlyON Regency Acres Public School Mobile,,EarlyON Program,L4G 2C7,(866) 404-2077 ,Ext.217,Murray Drive & Glass Drive,Centre Based Child Care,No,No,EARLY43,123 Murray Drive,,Aurora,Aurora
623954.874,4874635.5,152,129630,EarlyON St. Jerome Catholic School Mobile,,EarlyON Program,L4G 2C7,(866) 404-2077 ,Ext.217,Bridgenorth Drive & Hollandview Trail,Centre Based Child Care,No,No,EARLY47,20 Bridgenorth Drive,,Aurora,Aurora
626917.9216,4860851.5815,153,91736,EarlyON Richmond Hill Centre (unit 9),,EarlyON Program,L4C 3N8,(905) 948-9627,,Bayview Avenue & Taylor Mills Drive North,Centre Based Child Care,No,No,EARLY49,"10610 Bayview Avenue, ",Unit 9,Richmond Hill,Richmond Hill
625505.75,4855839.0,154,116953,EarlyON Richvale Library Mobile,,EarlyON Program,L4C 6T7,(905) 948-9627,,Pearson Avenue & Scott Drive,Centre Based Child Care,No,No,EARLY53,40 Pearson Avenue,,Richmond Hill,Richmond Hill
624480.656,4867841.999,155,75273,EarlyON Our Lady of Annunciation Catholic School Mobile,,EarlyON Program,L4E 2L3,(905) 948-9627,,Lorridge Street & Bayswater Avenue,Centre Based Child Care,No,No,EARLY61,30 Bayswater Avenue,,Richmond Hill,Richmond Hill
623803.281,4878711.0,156,164327,EarlyON Fairy Lake Park,,EarlyON Program,L3Y 1M5,(905) 853-0754,,Water Street & Eagle Street,Centre Based Child Care,No,No,EARLY65,520 Water Street,,Newmarket,Newmarket
622555.063,4877522.25,157,115434,EarlyON St. Paul's Catholic Elementary School,,EarlyON Program,L3Y 1B2,(905) 853-0754,,William Roe Boulevard & Sandford Street,Centre Based Child Care,No,No,EARLY69,140 William Roe Boulevard,,Newmarket,Newmarket
639870.719,4856071.0,158,6250,EarlyON Markham Gateway Public School Mobile,,EarlyON Program,L3S 3X3,(905) 471-1620,,Fonda Road & Golden Avenue,Centre Based Child Care,No,No,EARLY72,30 Fonda Road,,Markham,Markham
642242.458,4860531.5514,159,384642,EarlyON Cornell Public Library Mobile,,EarlyON Program,L6B 0T2,(905) 471-1620,,Highway 7 & Bur Oak Avenue,Centre Based Child Care,No,No,EARLY73,3201 Bur Oak Avenue,,Markham,Markham
631794.3589,4859061.1615,160,40506,EarlyON Ashton Meadows Public School,,EarlyON Program,L6C 1T5,(905) 471-1620,,16th Avenue & highway 404,Centre Based Child Care,No,No,EARLY80,230 Calvert Road,,Makham,Markham
639917.2337,4859283.7802,161,45926,EarlyON Markham Library,,EarlyON Program,L3P 3A7,(905) 471-1620,,Highway 7 & Markham Road,Centre Based Child Care,No,No,EARLY81,6031 Highway 7 East,,Marham,Markham
635765.0998,4858790.6338,162,9043,EarlyON Unionville Library,,EarlyON Program,L3R 5C4,(905) 471-1620,,Main Street & Carlton Road,Centre Based Child Care,No,No,EARLY82,15 Library Lane,,Unionville,Markham
625782.4368,4862049.7975,163,86637,EarlyON H.G. Bernard Public School Mobile,,EarlyON Program,L4S 1E1,(905) 948-9627,,Bayview Avennue & Elgin Mills Road,Centre Based Child Care,No,No,EARLY83,245 Bernard Avenue,,Richmond  Hill,Richmond Hill
608350.466,4861770.644,164,216192,EarlyON King Centre,,EarlyON Program,L0G 1N0,(905) 859-9941,,King & Highway 27,Centre Based Child Care,No,No,EARLY84,15 Old King Road,,Nobleton,King
639817.4979,4859701.4979,165,55587,EarlyON Markham East Centre,,EarlyON Program,L3P 2R5,(905) 471-1620,,Washington Street & Joseph Street,Centre Based Child Care,No,No,EARLY85,40 Washington Street,,Markham,Markham
639908.875,4855567.0,166,51995,EarlyON Parkland Public School Mobile,,EarlyON Program,L3S 3B8,(905) 471-1620,,Elson Street & Coxworth Avenue,Centre Based Child Care,No,No,EARLY86,18 Coxworth Avenue,,Markham,Markham
639643.2094,4869942.2292,167,195597,EarlyON Stouffville Centre,,EarlyON Program,L4A 1T2,(289) 612-1777,,Main Street and Ninth Line,Centre Based Child Care,No,No,EARLY87,5892 Main Street,,Stouffville,Whitchurch-Stouffville
630572.7286,4907194.8732,168,164775,EarlyON The Link Mobile,,EarlyON Program,L0E 1R0,(905) 476-3834,,Dalton Road & High Street,Centre Based Child Care,No,No,EARLY89,20849 Dalton Road,,Sutton West,Georgina
623202.361,4896851.1405,169,241923,EarlyON Jersey Public School Mobile,,EarlyON Program,L4P 3E9,(905) 476-3834,,Glenwoods Avenue & Lowndes Avenue,Centre Based Child Care,No,No,EARLY90,176 Glenwoods Avenue,,Keswick,Georgina
623020.188,4897886.2614,170,143336,EarlyON Keswick Centre,,EarlyON Program,L4P 3M8,(905) 476-3834,,Biscayne Boulevard & Hodgins Avenue,Centre Based Child Care,No,No,EARLY91,70 Biscayne Boulevard,,Keswick,Georgina
637909.174,4861952.978,171,336320,EarlyON San Lorenzo Ruiz Catholic School Mobile,,EarlyON Program,L6E 0E1,(289) 612-1777,,Bur Oak Avenue & Roy Rainey Avenue,Centre Based Child Care,No,No,EARLY93,840 Bur Oak Avenue,,Markham,Markham
638446.2924,4862071.0403,172,350404,EarlyON Whitchurch-Stouffville Public Library Mobile,,EarlyON Program,L3R 8T6,(289) 612-1777,,Park Drive & Hoover Park Drive,Centre Based Child Care,No,No,EARLY94,2 Park Drive,,Stouffville,Whitchurch-Stouffville
638446.2924,4862071.0403,173,350404,EarlyON Wismer Park Mobile,,EarlyON Program,L6E 0E1,(289) 612-1777,,Bur Oak Avenue & Mingay Avenue,Centre Based Child Care,No,No,EARLY95,980 Bur Oak Avenue,,Markham,Markham
613179.7908,4849037.5666,174,366422,EarlyON Veterans Park Mobile,,EarlyON Program,L4L 4K9,(800) 404-2077 ,Ext.215,Woodbridge Avenue & Clarence Street,Centre Based Child Care,No,No,EARLY97,"140 Woodbridge Avenue, ",Unit E,Woodbridge,Vaughan
619823.0708,4865480.052,175,152629,EarlyON King Bible Church,,EarlyON Program,L7B 1J4,(905) 859-9941,,Dufferin Street & King Road,Centre Based Child Care,No,No,EARLY98,1555 King Road,,King City,King
617940.0148,4854622.0119,176,336342,EarlyON Vaughan Community Health Centre,,EarlyON Program,L6A 4H7,(866) 404-2077 ,Ext.215,Jane Street & Rutherford Road,Centre Based Child Care,No,No,EARL100,"9401 Jane Street , Suite 106",,Maple,Vaughan
617886.6616,4853991.5666,177,352409,EarlyON Welcome Centre Vaughan,,EarlyON Program,L4K 0A4,(866) 404-2077 ,Ext.215,Jane Street & Rutherford Road,Centre Based Child Care,No,No,EARL104,"9100 Jane Street , Building H, ",Units 56-67,Vaughan,Vaughan
613179.7908,4849037.5666,178,366422,EarlyON Woodbridge Centre,,EarlyON Program,L4L 4K9,(866) 404-2077 ,Ext.215,Woodbridge Avenue & Clarence Street,Centre Based Child Care,No,No,EARL105,"140 Woodbridge Avenue, ",Unit E,Woodbridge,Vaughan
620661.0404,4879528.8027,179,392055,EarlyON Environmental Park,,EarlyON Program,L3X 3H1,(905) 853-0754,,,Centre Based Child Care,No,No,EARL109,325 woodspring Avenue,,Newmarket ON,Newmarket
635162.7682,4888865.5043,180,257509,EarlyON Mount Albert Library,,EarlyON Program,L0G 1M0,(905) 853-0754,,,Centre Based Child Care,No,No,EARLY88,19300 Centre Street,,Mount Albert,East Gwillimbury
625149.8866,4882654.2196,181,148104,East Gwillimbury Children's Centre,,Child Care Centre,L9N 0M3,(365) 337-0048 ,Ext.100,Leslie Street & Green Lane East,Centre Based Child Care,Yes,Yes,EAST 01,18335 Leslie Street,,East Gwillimbury,East Gwillimbury
625460.375,4884440.0,182,221241,Ecole Elementaire Chantal-Benoit,Conseil Scolaire Viamonde,Child Care Centre,L0G 1V0,(437) 488-1634,,Leslie Street & Mount Albert Road,Centre Based Child Care,Yes,No,ECOLE01,53 Morton Avenue,,East Gwillimbury,East Gwillimbury
616408.25,4852298.0,183,183981,EDU Children's Academy,EDU CHILDREN'S ACADEMY LTD.,Child Care Centre,L4L 1A6,(647) 567-4102,,Weston Road & Langstaff Road,Centre Based Child Care,No,No,EDU C01,8787 Weston Road ,Unit 8-13,Woodbridge,Vaughan
624720.4118,4884797.891,184,423772,Eh to Zed Preschool Canada Sharon,2648029 Ontario Inc.,Child Care Centre,L0G 1V0,(905) 478-2793,,Mt Albert & Leslie St,Centre Based Child Care,Yes,Yes,EH TO04,19105 Leslie Street East ,Unit E1,Sharon,East Gwillimbury
625182.9637,4851086.6812,185,121396,Eitz Chaim Schools Spring Farm,Eitz Chaim Schools,Child Care Centre,L4J 2P6,(905) 764-6633 ,Ext.1005,Bathurst Street & Clark Street,Centre Based Child Care,Yes,Yes,EITZ 03,80 Yorkhill Boulevard,,Thornhill,Vaughan
611006.1103,4852145.1155,186,249815,Upper Canada Child Care at Elder's Mills PS,Upper Canada Creative Child Care Centres of Ontari,Child Care Centre,L4H 1L1,(905) 893-9043,,Rutherford Road & Highway 7,Centre Based Child Care,Yes,Yes,UPPER16,120 Napa Valley Avenue,,Woodbridge,Vaughan
640180.313,4856580.0,187,72602,Upper Canada Child Care at Ellen Fairclough PS,Upper Canada Creative Child Care Centres of Ontari,Child Care Centre,L3S 4K9,(905) 472-1866,,Markham Road & 14th Avenue,Centre Based Child Care,Yes,Yes,UPPER17,33 Brando Avenue,,Markham,Markham
633689.9813,4861532.7216,188,29107,EarlyON Angus Glen Library Mobile,,EarlyON Program,L6C 1P8,(289) 612-1777,,Major Mackenzie Drive & Angus Glen Boulevard,Centre Based Child Care,No,No,EARL107,3990 Major Mackenzie Drive East,,Markham,Markham
623903.75,4867839.5,189,75452,Eureka Montessori,1619722 Ontario Ltd.,Child Care Centre,L4E 3L3,(905) 773-7999,,Yonge Street & King Road,Centre Based Child Care,No,Yes,EUREK01,13345 Yonge Street,,Richmond Hill,Richmond Hill
607950.313,4862931.25,190,131683,EYES Green Cube Childcare,Green Cube Childcare Centre Inc.,Child Care Centre,L0G 1N0,(416) 707-1458,,King Road & Highway 27,Centre Based Child Care,Yes,Yes,EYES 01,191 Mactaggart Drive ,Unit 302/303,Nobleton,King
624192.9111,4864895.9389,191,425096,EYES Childcare Richmond Hill Montessori,14340884 Canada Inc.,Child Care Centre,L4E 0W5,(905) 773-1164,,Yonge Street & Silver Maple Rd,Centre Based Child Care,No,No,EYES 02,12270 Yonge Street ,Unit A6 A6-A8,Richmond Hill,Richmond Hill
623873.5095,4897659.3452,192,190581,Fairwood Public School,,Child Care Centre,L4P 3Y5,(905) 722-5540 ,Ext.5519,Biscayne Blvd & Woodbine Ave,Centre Based Child Care,Yes,Yes,FAIRW02,201  Fairwood Drive,,Keswick,Georgina
625526.5658,4859830.1806,193,356942,Faith Infant & Early Education Centre,Faith Infant and Early Education Centre,Child Care Centre,L4C 2R3,(905) 737-4493 ,Ext.0,Yonge Street and Major Mackenzie Road East,Centre Based Child Care,Yes,Yes,FAITH02,43 Crosby Avenue,,Richmond Hill,Richmond Hill
641101.438,4856112.4313,194,11884,Cedarwood Before & After School Program,Family Day Care Services,Child Care Centre,L3S 4R8,(905) 472-9685,,Denison Street & Markham Road,Centre Based Child Care,Yes,Yes,CEDAR01,399 Elson Street,,Markham,Markham
623615.656,4861209.0,195,90079,Father Henri Nouwen,Among Friends Day Care Centre,Child Care Centre,L4C 0E6,(905) 552-0610 ,Ext.3,Yonge Street & Elgin Mills Road,Centre Based Child Care,Yes,Yes,FATHE05,121 Larratt Lane,,Richmond Hill,Richmond Hill
619788.813,4855184.75,196,226741,Father John Kelly Child Care Centre,Community of Maple Child Care Services,Child Care Centre,L6A 1P4,(905) 832-5752,,Keele Street & Rutherford Road,Centre Based Child Care,Yes,Yes,FATHE07,9350 Keele Street,,Maple,Vaughan
622288.632,4865813.612,197,318768,Upper Canada Child Care at Father Frederick McGinn CES,Upper Canada Creative Child Care Centres of Ontari,Child Care Centre,L4E 4W2,(905) 223-4173,,Bathurst Street & King Road,Centre Based Child Care,Yes,Yes,UPPER18,61 Brockdale Street,,Richmond Hill,Richmond Hill
632057.3417,4858182.9417,198,372807,First Academy,1857361 Ontario Ltd.,Child Care Centre,L3R 9C2,(905) 479-6904,,Woodbine Avenue & Sixteenth Avenue,Centre Based Child Care,Yes,No,FIRST05,131 John Button Boulevard,,Markham,Markham
624802.3518,4862495.7684,199,424059,First Roots Early Education Academy,First Roots Early Education Academy Ltd.,Child Care Centre,L4S 1Z6,(905) 884-9339,,Yonge Street & Nottingham,Centre Based Child Care,Yes,Yes,FIRST09,11384 Yonge Street,,Richmond Hill,Richmond Hill
637457.3484,4860946.6477,200,6158,Forever Blessed Child Care Inc.,Forever Blessed Child Care Inc.,Child Care Centre,L3P 3J3,(905) 471-0222,,McCowan Road & 16th Avenue,Centre Based Child Care,No,No,FOREV01,9377 McCowan Road,,Markham,Markham
623075.7091,4857870.9956,201,343024,Four Seasons Childcare,Four Seasons Childcare Corporation,Child Care Centre,L6A 4P8,(905) 303-4333,,Major Mackenzie Drive & Bathurst St,Centre Based Child Care,Yes,Yes,FOUR 01,965 Major Mackenzie Drive ,Unit 5,Maple,Vaughan
637728.7879,4861247.6142,202,391997,Upper Canada Child Care at Fred Varley PS,Upper Canada Creative Child Care Centres of Ontari,Child Care Centre,L6E 0J8,(905) 294-9158,,Bur Oak Avenue & McCowan Road,Centre Based Child Care,Yes,Yes,UPPER19,81 Alexandar Lawrie Avenue,,Markham,Markham
641279.3115,4870338.2113,203,175515,Friends,605061 Ontario Ltd,Child Care Centre,L4A 5Z4,(905) 640-2857,,Stouffville Road & 9th Line,Centre Based Child Care,Yes,Yes,FRIEN03,6551 Main Street,,Stouffville,Whitchurch-Stouffville
640035.5725,4861229.1456,204,28975,Friendships,605061 Ontario Ltd,Child Care Centre,L3P 4P8,(905) 294-6770,,16th Avenue & Highway 48,Centre Based Child Care,Yes,Yes,FRIEN04,15 Larkin Avenue,,Markham,Markham
622840.7347,4856855.1027,205,356262,Fun on the Run - Nellie McClung,,Child Care Centre,L6A 4M1,(905) 265-7458,,Rutherford Road/Thomas Cook,Centre Based Child Care,Yes,Yes,FUN O10,360 Thomas Cook Avenue,,Maple,Vaughan
618579.3561,4858462.4562,206,224846,Fun On The Run - Holy Jubilee,,Child Care Centre,L6A 2S8,(905) 265-7458,,Teston Road/Jane,Centre Based Child Care,Yes,Yes,FUN O03,400 St. Joan of Arc Avenue,,Vaughan,Vaughan
612216.4017,4848301.3615,207,203128,Fun on the Run - St. Peter CES,,Child Care Centre,L4L 1G2,(905) 265-7458,,Highway 7 & Martingrove Road,Centre Based Child Care,Yes,Yes,FUN O04,120 Andrew Park Crescent,,Woodbridge,Vaughan
614990.4729,4856093.9346,208,387943,Fun on the Run  - Guardian Angel,,Child Care Centre,L4H 0Z5,(905) 265-7458,,Major Mackenzie Drive/Lawford,Centre Based Child Care,Yes,Yes,FUN O05,200 Lawford Drive,,Vaughan,Vaughan
614888.7025,4856409.0886,209,392596,Fun on the Run Johnny Lombardi,,Child Care Centre,L4H 4C3,(905) 265-7458,,Major Mackenzie Drive/Lawford,Centre Based Child Care,Yes,Yes,FUN O08,350 Lawford Road,,Woodbridge,Vaughan
608103.5246,4853899.6344,210,392570,Fun on the Run Pope Francis,,Child Care Centre,L4L 3Z3,(905) 265-7458,,Major Mackenzie/ Secord,Centre Based Child Care,Yes,Yes,FUN O09,15 Secord Avenue,,Kleinburg,Vaughan
624344.3837,4863550.3909,211,336388,Galaxy Montessori,1816827 Ontario Limited,Child Care Centre,L4E 0K6,(905) 884-3252,,Yonge Street & Gamble Road,Centre Based Child Care,Yes,Yes,GALAX05,130 Tower Hill Road,,Richmond Hill,Richmond Hill
624404.686,4863541.729,212,336387,Galaxy Montessori Casa,2445125 Ontario Ltd.,Child Care Centre,L4E 0K6,(905) 884-3252,,Yonge Street & Gamble Road,Centre Based Child Care,Yes,Yes,GALAX06,126 Tower Hill Road,,Richmond Hill,Richmond Hill
624574.5571,4852277.1794,213,402119,Gan Nitzanim Nursery,Gan Nitzanim Child Care Centre Inc.,Child Care Centre,L4J 0H6,(905) 764-4811,,Bathurst Street & Centre Street,Centre Based Child Care,Yes,Yes,GAN N03,7770 Bathurst Street,,Thornhill,Vaughan
623102.311,4859793.081,214,340990,Gan Shalom Preschool,Chabad Lubavitch of Richmond Hill,Child Care Centre,L6A 0H2,(905) 303-1880,,Bathurst Street/Teston,Centre Based Child Care,Yes,Yes,GAN S01,10500 Bathurst Street,,Richmond Hill,Vaughan
623695.3165,4851877.5555,215,140201,Gan Shelanu Jewish Israeli Daycare,1845287 Ontario Ltd.,Child Care Centre,L4J 7R9,(905) 597-2210,,Dufferin & Centre,Centre Based Child Care,Yes,Yes,GAN S07,"1118 Centre Street, ",units 16-18,Thornhill,Vaughan
610858.0375,4854423.014,216,210080,Garderie Du Soleil Levant,Garderie Du Soleil Levant,Child Care Centre,L0J 1C0,(905) 893-3100,,Major Mackenzie Drive & Islington Avenue,Centre Based Child Care,Yes,Yes,GARDE01,10110 Islington Avenue,,Kleinburg,Vaughan
631362.8942,4852635.5749,217,69546,German Mills Children's Academy,York Professional Care & Education Inc.,Child Care Centre,L3T 4R5,(905) 726-0565,,Don Mills Road & Steeles Avenue,Centre Based Child Care,Yes,Yes,GERMA04,61 Simonston Boulevard,,Thornhill,Markham
624123.6161,4883807.1077,218,405240,Ginger Hills Learning Centre,Ginger Hills Learning Centre,Child Care Centre,L9N 0P6,(905) 478-8348,,Mt Albert Rd & Leslie St,Centre Based Child Care,No,No,GINGE01,900 Murrell Blvd,,Sharon,Georgina
639672.0287,4870492.4915,219,188376,Glad Park Child Care Centre,605061 Ontario Ltd,Child Care Centre,L4A 1E5,(905) 640-4734,,Stouffville Sideroad & 9th Line,Centre Based Child Care,Yes,Yes,GLAD 02,300 Glad Park Avenue,,Stouffville,Whitchurch-Stouffville
624922.3205,4880742.5718,220,137092,Glen Cedar School Age Program,Denison Child Care,Child Care Centre,L3Y 5W1,(905) 715-8231,,Wayne Dr/ Leslie Street,Centre Based Child Care,Yes,Yes,GLEN 03,915 Wayne Drive,,Newmarket,Newmarket
611968.7545,4852947.6738,221,353442,Glencedar Montessori Preparatory School Inc.,Glencedar Montessori Preparatory School Inc.,Child Care Centre,L4H 3C4,(905) 417-5433,,Islington Avenue & Rutherford Road,Centre Based Child Care,No,No,GLENC02,11 Sonoma Boulevard,,Vaughan,Vaughan
615928.2824,4857382.2453,222,343643,Glenn Gould Child Care Centre,605061 Ontario Ltd,Child Care Centre,L4H 0G5,(905) 417-1970,,Teston Road & Weston Road,Centre Based Child Care,Yes,Yes,GLENN04,675 Vellore Park Avenue,,Woodbridge,Vaughan
622990.445,4879558.121,223,308451,Golden Minds Montessori School,Golden Minds Montessori School Inc.,Child Care Centre,L3Y 2N6,(647) 787-6454,,Davis Drive & Main Street,Centre Based Child Care,No,Yes,GOLDE01,355 Davis Drive,,Newmarket,Newmarket
622538.0394,4883939.4881,224,349642,Good Shepherd Child Care Centre,Community of Maple Child Care Services,Child Care Centre,L9N 0H2,(905) 895-7575,,Mount Albert Road & Second Concession Road,Centre Based Child Care,Yes,Yes,GOOD 02,19112 Second Concession Road,,East Gwillimbury,East Gwillimbury
629983.6395,4866553.6744,225,149859,Gormley Daycare Centre,Gormley Daycare Centre Inc.,Child Care Centre,L0H 1G0,(905) 887-9380,,Woodbine Avenue & Stouffville Road,Centre Based Child Care,Yes,Yes,GORML06,11 Union Street PO BOX 9,,Gormley,Whitchurch-Stouffville
622755.794,4852775.831,226,161744,Great Lakes Montessori,2494290 Ontario Inc.,Child Care Centre,L4J 8X9,(905) 881-4094,,Highway 407 ETR & Dufferin Street,Centre Based Child Care,Yes,No,GREAT08,200 Racco Parkway,,Thornhill,Vaughan
616740.625,4850631.0,227,197765,Great Lakes Montessori Weston Branch,2494290 Ontario Inc.,Child Care Centre,L4L 9T6,(905) 881-4094,,Langstaff Road and Weston Road,Centre Based Child Care,Yes,No,GREAT09,8111 Weston Road,,Woodbridge,Vaughan
640959.4709,4862474.4685,228,353565,Greensborough Before and After School Program,YMCA of Greater Toronto,Child Care Centre,L6E 1J5,(416) 300-2212,,Sixteenth Avenue & 9th Line,Centre Based Child Care,Yes,Yes,GREEN02,80 Alfred Paterson Drive,,Markham,Markham
621481.2141,4881365.8477,229,390422,Greenlane Montessori Inc,Greenlane Montessori Inc,Child Care Centre,L9N 0A2,(905) 954-1253,,Yonge Street & Green Lane West,Centre Based Child Care,No,Yes,GREEN03,18295 Yonge St,,East Gwilliambury,East Gwillimbury
624859.781,4884129.5,230,258830,Gwillimbury Hills Day Care,Gwillimbury Hills Day Care Ltd,Child Care Centre,L0G 1V0,(905) 478-8348,,Leslie Street & Mount Albert Sdrd,Centre Based Child Care,Yes,Yes,GWILL04,18907 Leslie Street,,Sharon,East Gwillimbury
624923.5256,4883145.1031,231,176615,Gwillimbury Hills Club House,Gwillimbury Hills Day Care Ltd,Child Care Centre,L0G 1V0,(905) 478-8348,,Leslie Street & Green Lane,Centre Based Child Care,Yes,Yes,GWILL05,18532 Leslie Street,,Sharon,East Gwillimbury
634981.4817,4855479.1057,232,67130,Hagerman House Early Learning and Family Centre,Family Day Care Services,Child Care Centre,L3R 0B2,(905) 305-8974 ,Ext.234,Birchmount Road & 14th Avenue,Centre Based Child Care,Yes,Yes,HAGER01,3990 14th Avenue East,,Markham,Markham
629980.938,4855764.25,233,36168,Happy Kids Family Daycare,1824090 ONTARIO INC.,Child Care Centre,L4J 1A7,(416) 804-6457,,Steeles Ave west & Hilda Ave,Home Based  Child Care,Yes,Yes,HAPPY01,93 Crestwood Road,,Thornhill,Vaughan
640894.265,4871256.694,234,310421,Upper Canada Child Care at Harry Bowes PS,Upper Canada Creative Child Care Centres of Ontari,Child Care Centre,L4A 0N8,(905) 640-8722,,10th Line/Main St,Centre Based Child Care,Yes,Yes,UPPER20,90 Greenwood Road,,Stouffville,Whitchurch-Stouffville
625032.6984,4874256.6875,235,230351,Hartman YMCA Child Care,YMCA of Greater Toronto,Child Care Centre,L4G 7T7,(905) 713-6767,,Bayview Avenue & Wellington Street,Centre Based Child Care,Yes,Yes,HARTM02,130 River Ridge Boulevard,,Aurora,Aurora
627948.438,4851434.5,236,27959,Henderson Ave Kids Club,York Professional Care & Education Inc.,Child Care Centre,L3T 2K7,(905) 884-8588,,Henderson Avenue and Yonge Street,Centre Based Child Care,Yes,Yes,HENDE04,66 Henderson Avenue,,Markham,Markham
639235.5903,4861281.1087,237,5349,Heritage Discovery Pre-School Inc.,Heritage Discovery Pre-School Inc.,Child Care Centre,L3P 7R1,(905) 201-0185,,16th Avenue & Markham Road,Centre Based Child Care,Yes,Yes,HERIT02,5970 16th Avenue ,Unit 120-126,Markham,Markham
635484.0889,4854024.5104,238,7205,Highgate School-Age Childcare,High Birch Childcare & Learning Centre Inc.,Child Care Centre,L3R 3R6,(905) 479-9877,,Birchmount Road & Denison Avenue,Centre Based Child Care,Yes,Yes,HIGHG01,35 Highgate Drive,,Markham,Markham
621790.0067,4869876.6553,239,187711,Highview Child Care Centre,"McClellan Community Child Care, Inc.",Child Care Centre,L4G 6N9,(905) 841-1638,,Bathurst and McClellan Way,Centre Based Child Care,Yes,Yes,HIGHV01,240 McClellan Way,,Aurora,Aurora
621820.1576,4883685.3682,240,148181,Holland Landing Children's Academy,York Professional Care & Education Inc.,Child Care Centre,L9N 1C5,(905) 836-8916,,Holland River Boulevard & Mount Albert Road,Centre Based Child Care,Yes,Yes,HOLLA05,16 Holland River Boulevard,,Holland Landing,East Gwillimbury
615500.813,4850637.25,241,125455,Holy Family Daycare,Carmelite Missionary Sisters of Saint Theresa of t,Child Care Centre,L4L 3W4,(905) 851-7583,,Ansley Grove Road & Highway 7,Centre Based Child Care,Yes,Yes,HOLY 01,200 Ansley Grove,,Woodbridge,Vaughan
624387.3361,4872453.4862,242,159658,Holy Spirit School Age Program,Among Friends Day Care Centre,Child Care Centre,L4G 6Y7,(905) 552-0610,,Bayview Avenue & Wellington Street,Centre Based Child Care,Yes,Yes,HOLY 06,315 Stone Road,,Aurora,Aurora
619718.5406,4865090.6459,243,373783,Upper Canada Child Care at Holy Name CES,Upper Canada Creative Child Care Centres of Ontari,Child Care Centre,L7B 1H3,(905) 833-2077,,King Road & Dufferin Street,Centre Based Child Care,Yes,Yes,UPPER21,65 Spring Hill Drive,,King City,King
638065.5,4854773.5,244,72113,Wilclay Childcare Centre,Hope Childcare Centre,Child Care Centre,L3S 1R4,(905) 513-8561,,Brimley Road & Steeles Avenue,Centre Based Child Care,Yes,Yes,WILCL01,60 Wilclay Avenue,,Markham,Markham
622872.75,4877096.0,245,119504,Hopscotch Home Daycare Agency,Hopscotch Daycare Services Ltd.,Child Care Centre,L3X 1T2,(289) 466-1111,,Bayview Avenue & Mulock Drive,Home Based  Child Care,Yes,Yes,HOPSC01,350 Chambers Crescent,,Newmarket,Newmarket
621720.063,4867471.5,246,76818,Humberland Montessori Academy,2282543 Ontario Inc.,Child Care Centre,L4E 4P2,(905) 773-3100,,Bathurst Street and Bloomington,Centre Based Child Care,Yes,No,HUMBE01,13495 Bathurst Street ,Unit 1-2,Richmond Hill,Richmond Hill
623921.5809,4867044.4791,247,75981,Imaginarium For Kids,Imaginarium For Kids Ltd.,Child Care Centre,L4E 2T2,(905) 773-3077,,Yonge Street & King Road,Centre Based Child Care,Yes,Yes,IMAGI02,13070 Yonge Street ,Unit 2,Richmond Hill,Richmond Hill
638982.8755,4862715.7519,248,350056,Inspire Montessori School Corp,Inspire Montessori School Corp,Child Care Centre,L6E 0H7,(289) 800-2238,,Major Mackenzie Road East & Markham Road,Centre Based Child Care,Yes,Yes,INSPI01,1210 Castlemore Ave ,Unit 7A,Markham,Markham
636158.6281,4856119.9685,249,14177,Inspire Montessori Milliken 2,2673663 Ontario Limited,Child Care Centre,L3R 5P1,(289) 800-2238,,Kennedy Road & 14th Ave,Centre Based Child Care,Yes,Yes,INSPI02,7828 Kennedy Road ,Unit 201,Markham,Markham
626772.656,4852671.5,250,41638,"Inventiveminds Child, Youth Family Services","Inventiveminds Child, Youth and Family Support Center",Child Care Centre,L3T 2C4,(905) 886-5437,,Yonge Street & Center Street,Centre Based Child Care,Yes,Yes,INVEN05,7751 Yonge Street,,Thornhill,Markham
619623.375,4856954.855,251,164057,It All Begins Here Daycare,It All Begins Here Daycare Ltd.,Child Care Centre,L6A 3Y8,(905) 417-9999,,Keele Street & Major Mackenzie Drive,Centre Based Child Care,Yes,Yes,IT AL02,10 Richmond Street,,Vaughan,Vaughan
634310.5661,4858539.7335,252,4442,It Takes A Village Preschool,Grace Church Markham Nursery School,Child Care Centre,L3R 6C2,(416) 788-0802,,16th & Warden,Nursery School Child Care,No,Yes,IT TA01,600 Village Parkway North,,Unionville,Markham
619021.8713,4856295.2999,253,191843,Upper Canada Child Care at Joseph A. Gibson PS,Upper Canada Creative Child Care Centres of Ontari,Child Care Centre,L6A 1R8,(905) 832-7293,,Keele Street & Major Mackenzie Drive,Centre Based Child Care,Yes,Yes,UPPER22,50 Naylon Street,,Maple,Vaughan
622172.0618,4878926.986,254,147902,J.L.R. Bell Junior Y,YMCA of Greater Toronto,Child Care Centre,L3Y 2E9,(905) 868-9622 ,Ext.0,Davis Drive & Yonge Street,Centre Based Child Care,Yes,Yes,J.L.R04,121 Queen Street,,Newmarket,Newmarket
639136.2611,4859528.9593,255,39119,James Robinson School Age Program,High Birch Childcare & Learning Centre Inc.,Child Care Centre,L3P 1N9,(905) 294-5599,,Highway 7 & McCowan Road,Centre Based Child Care,Yes,Yes,JAMES01,90 Robinson Street,,Markham,Markham
623756.156,4889041.5,256,205834,Queensville Montessori Academy,2291052 Ontario Inc.,Child Care Centre,L0G 1R0,(905) 478-4949,,Leslie Street & Queensville Sidroad East,Centre Based Child Care,No,No,QUEEN02,20728 Leslie Street PO BOX 170,,Queensville,East Gwillimbury
640209.1977,4909548.6134,257,142963,Jericho Youth Services Morning Glory,,Child Care Centre,L0E 1N0,(905) 722-5540 ,Ext.5519,Hwy 48 & Weirs Sideroad,Centre Based Child Care,Yes,Yes,JERIC01,29478 ON-48,,Pefferlaw,Georgina
623202.361,4896851.1405,258,241923,Jersey Public School,,Child Care Centre,L4P 3E9,(905) 722-5540 ,Ext.5518,Glenwoods Avenue & The Queensway,Centre Based Child Care,Yes,Yes,JERSE03,176 Glenwoods Avenue,,Keswick,Georgina
626583.5568,4856902.9457,259,110948,Jingbao Bilingual Montessori School,2206960 Ontario Ltd.,Child Care Centre,L4C 7A6,(905) 889-2121,,16th Avenue & Yonge Street,Centre Based Child Care,Yes,No,JINGB01,265 16th Avenue,,Richmond Hill,Richmond Hill
637530.2429,4862393.9934,260,336999,Upper Canada Child Care at John McCrae PS,Upper Canada Creative Child Care Centres of Ontari,Child Care Centre,L6E 1N7,(905) 201-9675,,Major Mackenzie & McCowan Road,Centre Based Child Care,Yes,Yes,UPPER23,565 Fred McLaren Boulevard,,Markham,Markham
628918.9075,4852799.7468,261,46066,Johnsview School-Age Program,Social Enterprise for Canada,Child Care Centre,L3T 5C3,(647) 883-1414,,Highway 7 and Leslie Street,Centre Based Child Care,Yes,Yes,JOHNS01,41 Porterfield Crescent,,Thornhill,Markham
640741.1451,4861254.4052,262,71758,Kateri Tekakwitha Before & After School Program,The Village – Children’s Programs,Child Care Centre,L3P 4B5,(905) 209-8886,,Wootten Way & Fincham Avenue,Centre Based Child Care,Yes,Yes,KATER03,230 Fincham Avenue,,Markham,Markham
622249.688,4875924.75,263,137429,Better Than Home,1925669 Ontario Ltd.,Child Care Centre,L3X 2Y8,(416) 831-1217,,Yonge St & Mulock Dr.,Home Based  Child Care,Yes,Yes,BETTE01,922 Joe Persechini Drive,,Newmarket,Newmarket
636289.1046,4856000.2166,264,49052,Kennedy Montessori Private School,2012323 Ontario Inc.,Child Care Centre,L3R 2C8,(905) 948-1785,,Kennedy Road & 14th Avenue,Centre Based Child Care,Yes,No,KENNE01,7781 Kennedy Road,,Unionville,Markham
613653.553,4873296.2853,265,201730,Upper Canada Child Care at Kettleby PS,Upper Canada Creative Child Care Centres of Ontari,Child Care Centre,L7B 0H4,(905) 726-2271,,Highway 400 & Lloydtown-Aurora Road,Centre Based Child Care,Yes,Yes,UPPER24,3286 Lloydtown-Aurora Road,,Kettleby,King
622526.706,4865860.738,266,324175,Kettle Lakes YMCA Child Care,YMCA of Greater Toronto,Child Care Centre,L4E 4X5,(905) 773-6025,,Bathurst Street & King Road,Centre Based Child Care,Yes,Yes,KETTL05,62 Kingshill Road,,Richmond Hill,Richmond Hill
617419.4063,4857607.1785,267,264804,Kiddy Place Childcare Centre,Kiddy Place Childcare Centre Inc.,Child Care Centre,L6A 3L1,(905) 879-0623,,Jane Street & Major Mackenzie Drive,Centre Based Child Care,Yes,Yes,KIDDY01,10555 Jane Street ,Unit 1-2,Maple,Vaughan
623936.4613,4859050.6362,268,102033,Kids Can Doodle - Pleasantville,Kids Can Doodle Before And After School Program,Child Care Centre,L4C 4B9,(416) 523-6804,,Bathurst Street & Major Mackenzie Drive,Centre Based Child Care,Yes,Yes,KIDS 02,400 Mill Street,,Richmond Hill,Richmond Hill
614957.8561,4849850.0875,269,233832,Kids Can Doodle B & A School Program - Woodbridge,Kids Can Doodle Before And After School Program,Child Care Centre,L4L 5J4,(416) 319-9800,,Hwy 7 & Weston Road,Centre Based Child Care,Yes,Yes,KIDS 03,500 Aberdeen Avenue,,Woodbridge,Vaughan
635087.0291,4887992.6337,270,155496,Mount Albert Kids Club,York Professional Care & Education Inc.,Child Care Centre,L0G 1M0,(905) 478-1414,,Highway 48 & Mount Albert Sideroad,Centre Based Child Care,Yes,Yes,MOUNT03,5488 Mount Albert Road,,Mount Albert,East Gwillimbury
617710.346,4854298.7194,271,353443,Kids Come First @ Julliard,Kids Come First Child Care Services,Child Care Centre,L6A 3W7,(905) 417-4744,,Jane Street & Rutherford Road,Centre Based Child Care,Yes,Yes,KIDS 14,61 Julliard Drive,,Maple,Vaughan
623057.9903,4853876.7627,272,150138,Kids Come First @ Bakersfield,Kids Come First Child Care Services,Child Care Centre,L4J 8T6,(905) 707-0912,,Dufferin/Rutherford,Centre Based Child Care,Yes,Yes,KIDS 15,121 Misty Sugar Trail,,Thornhill,Vaughan
621693.6367,4854766.4429,273,246366,Kids Come First @ Forest Run,Kids Come First Child Care Services,Child Care Centre,L4K 5H3,(905) 303-8728,,Duffernin Street & Rutherford Road,Centre Based Child Care,Yes,Yes,KIDS 49,200 Forest Run Boulevard,,Vaughan,Vaughan
618453.625,4855470.5,274,222336,Kids Come First @ Maple Creek,Kids Come First Child Care Services,Child Care Centre,L6A 2J8,(905) 303-9360,,Jane/Rutherford,Centre Based Child Care,Yes,Yes,KIDS 17,210 Hawker Road,,Maple,Vaughan
623245.022,4854683.726,275,275763,Kids Come First @ Thornhill Woods,Kids Come First Child Care Services,Child Care Centre,L4J 8V6,(905) 326-4900,,Dufferin/Rutherford,Centre Based Child Care,Yes,Yes,KIDS 18,341 Thornhill Woods Drive,,Thornhill,Vaughan
623987.4547,4849833.6251,276,215225,Kids Come First Child Care Centre,Kids Come First Child Care Services,Child Care Centre,L4J 7Z8,(905) 660-3467,,Dufferin Street & Steeles Avenue,Centre Based Child Care,Yes,Yes,KIDS 57,40 New Westminster Drive,,Thornhill,Vaughan
622126.4919,4853934.5617,277,159379,Kids Island Daycare Centre,Kids Island Inc.,Child Care Centre,L4K 4S2,(905) 482-1784,,Langstaff Road & Dufferin Street,Centre Based Child Care,Yes,No,KIDS 25,8700 Dufferin Street ,Unit 19-21,Concord,Vaughan
626751.0039,4855831.3967,278,116356,Kids Connection - Richmond Hill,Kids Connection Care & Education,Child Care Centre,L4B 4P9,(416) 452-0403,,Yonge Street & Highway 7,Centre Based Child Care,Yes,Yes,KIDS 58,155 Red Maple Road,,Richmond Hill,Richmond Hill
635917.7216,4861792.6689,279,44311,Kids Connection @ All Saints,Kids Connection Care & Education,Child Care Centre,L6C 2P6,(647) 212-9465,,Kennedy Road & Major Mackenzie Drive,Centre Based Child Care,Yes,Yes,KIDS 44,130 Castlemore Avenue,,Markham,Markham
622665.3238,4855267.1663,280,356946,Kids Come First Children's Centre,Kids Come First Child Care Services,Child Care Centre,L4J 8W5,(905) 886-1717,,Dufferin Street & Rutherford Road,Centre Based Child Care,Yes,Yes,KIDS 29,270 Apple Blossom Drive,,Vaughan,Vaughan
627503.938,4860966.75,281,91230,Kids Connection @ Michaelle Jean,Kids Connection Care & Education,Child Care Centre,L4S 2P1,(905) 883-5353,,Elgin Mills and Bayview Ave,Centre Based Child Care,Yes,Yes,KIDS 41,320 Shirley Drive,,Richmond Hill,Richmond Hill
626730.063,4860790.75,282,92162,Kids Connection @ Beverly Acres,Kids Connection Care & Education,Child Care Centre,L4C 3L3,(416) 895-0501,,Bayview Ave & Elgin Mills Dr,Centre Based Child Care,Yes,Yes,KIDS 42,283 Neal Drive,,Richmond Hill,Richmond Hill
623807.8268,4873406.7751,283,354705,Kids & Company - Aurora,Kids & Company Ltd.,Child Care Centre,L4G 1J5,(905) 751-1531 ,Ext.0,Wellington Street & Industrial Parkway,Centre Based Child Care,Yes,Yes,KIDS 56,236 Wellington Street East,,Aurora,Aurora
635797.5282,4860365.7853,284,381763,Kids Connection @ Black Walnut,Kids Connection Care & Education,Child Care Centre,L4B 0P4,(647) 454-0579,,16th Ave & Donald Cousens,Centre Based Child Care,Yes,Yes,KIDS 46,30 John Allan Cameron Street,,Markham,Markham
622156.5759,4849870.334,285,143075,Kids Come First @ Glen Shields,Kids Come First Child Care Services,Child Care Centre,L4K 1T8,(905) 760-8020,,Dufferin Street & Steeles Avenue,Centre Based Child Care,Yes,Yes,KIDS 50,158 Glen Shields Avenue,,Concord,Vaughan
635797.5282,4860365.7853,286,381763,Kids Connection @ Beckett Farm,Kids Connection Care & Education,Child Care Centre,L6C 0T3,(647) 454-2178,,Kennedy Road & 16th Avenue,Centre Based Child Care,Yes,Yes,KIDS 52,78 Beckett Avenue,,Markham,Markham
623725.875,4867917.5,287,75091,Play Island Explorers,Play Island Explorers Inc.,Child Care Centre,L4E 2P6,(905) 773-6677,,Yonge Street and Bloomington Road,Centre Based Child Care,Yes,Yes,PLAY 17,"13390 Yonge Street; ",Unit 7,Richmond Hill,Richmond Hill
621799.63,4853223.103,288,180516,Kids Concord Childcare & Preschool Inc.,Kids Concord Childcare & Preschool Inc.,Child Care Centre,L4K 2H2,(289) 843-5437,,Langstaff & Hwy 407,Centre Based Child Care,No,Yes,KIDS 60,10 North Rivermede Road,,Vaughan,Vaughan
608289.4031,4861118.0582,289,398124,Kidsfirst Child Care Centre,10699152 CANADA INC.,Child Care Centre,L0G 1N0,(905) 859-2288,,Hwy 27 & King Rd,Centre Based Child Care,Yes,No,KIDSF01,12840 Hwy 27 ,Unit C1,Nobelton,King
621911,4866313,290,79850,Kidz Town Learning Centre,Kidz Town Learning Centre Inc.,Child Care Centre,L4E 2Z2,(416) 735-7200,,Bathrust Street & King Road,Centre Based Child Care,No,No,KIDZ 06,13029 Bathurst Street,,Richmond Hill,Richmond Hill
619533.201,4857132.0312,291,253153,Kinderland Education and Childcare Centre Ltd.,Kinderland Education and Childcare Centre Ltd.,Child Care Centre,L6A 1R7,(905) 417-3895,,Keele Street & Major Mackenzie Drive,Centre Based Child Care,Yes,Yes,KINDE04,10103 Keele Street,,Maple,Vaughan
618356.25,4864542.5,292,201892,King City Co-Operative Nursery School,King City Nursery School,Child Care Centre,L7B 1H7,(905) 833-0378,,Keele Street & King Sideroad,Nursery School Child Care,Yes,Yes,KING 14,2-50 Elizabeth Grove,,King City,King
618335.063,4865105.5,293,218423,King City Montessori School,King City Montessori School,Child Care Centre,L7B 1L3,(905) 833-2971,,Keele Street & King Sideroad,Centre Based Child Care,No,No,KING 13,2194 King Road ,Unit 2,King City,King
619760.8619,4865843.4057,294,390125,King's Ridge Montessori,King's Ridge Montessori Inc.,Child Care Centre,L7B 0N7,(905) 833-5522,,Dufferin Street & King Road,Centre Based Child Care,Yes,Yes,KING 19,30 Tatton Court,,King City,King
610530.5439,4855232.2708,295,200818,Kleinburg YMCA Child Care,YMCA of Greater Toronto,Child Care Centre,L0J 1C0,(905) 893-4233,,Major MacKenzie Drive & Islington Avenue,Centre Based Child Care,Yes,Yes,KLEIN04,10391 Islington Avenue,,Kleinburg,Vaughan
606965.5884,4855158.3973,296,131965,Kleinburg Early Learning Centre,The Trustees of the Calvary Baptist Church,Child Care Centre,L0J 1C0,(905) 893-7211 ,Ext.222,Highway 50 & Nashville Road,Centre Based Child Care,Yes,Yes,KLEIN03,6950 Nashville Road RR 1,,Kleinburg,Vaughan
624367.625,4851005.0,297,248423,Ktantanim Daycare,Ktantanim Daycare Inc.,Child Care Centre,L4J 8G6,(647) 400-7703,,Bathrust Street & Clark Avenue,Centre Based Child Care,Yes,Yes,KTANT02,949 Clark Avenue West,,Thornhill,Vaughan
622628.401,4884440.0743,298,397682,Centres éducatifs de l'AFRY Campus Holland Landing,Association des francophones de la region de York Inc,Child Care Centre,L9N 0E5,(289) 221-0341,,Mount Albert Road & Green Lane,Centre Based Child Care,Yes,Yes,CENTR05,19300 2nd Concession,,East Gwillimbury,East Gwillimbury
631925.9832,4858071.307,299,31778,La Garderie Des Moussaillons,La Garderie des Moussaillons,Child Care Centre,L3R 9C1,(905) 477-4081,,16th Avenue & Woodbine Avenue,Centre Based Child Care,Yes,Yes,LA GA05,111 John Button Boulevard,,Unionville,Markham
640030.625,4869656.5,300,243021,La Garderie des Moussaillons Site Stouffville,La Garderie des Moussaillons,Child Care Centre,L4A 3R1,(905) 640-4080,,9th Line & Main Street,Centre Based Child Care,Yes,Yes,LA GA06,276 Sunset Boulevard,,Stouffville,Whitchurch-Stouffville
625358.3184,4867918.3354,301,75070,Lake Wilcox Before and After School Program,YMCA of Greater Toronto,Child Care Centre,L4E 3B5,(416) 902-1511,,Yonge Street & Bloomington Road,Centre Based Child Care,Yes,Yes,LAKE 04,80 Wildwood Avenue,,Richmond Hill,Richmond Hill
623247.5991,4894966.8808,302,251424,Upper Canada Child Care at Lake Simcoe PS,Upper Canada Creative Child Care Centres of Ontari,Child Care Centre,L4P 4A3,(905) 535-1448,,Joe Dales/The Queensway,Centre Based Child Care,Yes,Yes,UPPER25,38 Thornlodge Drive,,Keswick,Georgina
621930.2356,4900170.947,303,166906,Lakeside Kids Club,York Professional Care & Education Inc.,Child Care Centre,L4P 1J1,(905) 535-0570,,Shorecrest Road & Metro Road,Centre Based Child Care,Yes,Yes,LAKES02,213 Shorecrest Road,,Keswick,Georgina
627563.5636,4853700.7122,304,7756,Le Club Child Care - School Age Child Care - Woodland,Le Club Child Care Program,Child Care Centre,L3T 3C9,(905) 881-8585,,Royal Orchard Road & Yonge Street,Centre Based Child Care,Yes,Yes,LE CL10,120 Royal Orchard Boulevard,,Thornhill,Markham
628602.469,4860883.0,305,91801,Le Club @ Redstone,Le Club Child Care Program,Child Care Centre,L4S 2E2,(905) 881-8585 ,Ext.202,Leslie Street & Elgin Mills Road,Centre Based Child Care,Yes,Yes,LE CL11,235 Redstone Road,,Richmond Hill,Richmond Hill
623993.3505,4863077.8656,306,83959,Le Club - Moraine Hills,Le Club Child Care Program,Child Care Centre,L4E 4C7,(905) 881-8585,,Yonge Street & Gamble Road,Centre Based Child Care,Yes,Yes,LE CL04,85 Rollinghill Road,,Richmond Hill,Richmond Hill
623489.9296,4852626.0,307,187700,Le Club - Ventura Park,Le Club Child Care Program,Child Care Centre,L4J 7V5,(905) 881-8585,,Bathurst Street & Highway 7,Centre Based Child Care,Yes,Yes,LE CL05,121 Worth Boulevard,,Thornhill,Vaughan
618916.7339,4865437.7796,308,185644,Le Club - King City,Le Club Child Care Program,Child Care Centre,L7B 1K9,(905) 881-8585,,King Rd & Dufferin St,Centre Based Child Care,Yes,Yes,LE CL06,25 King Boulevard,,King City,King
638558.719,4858448.5,309,52592,Le Club - Roy H Crosby,Le Club Child Care Program,Child Care Centre,L3P 1G9,(905) 881-8585,,Highway 7 & McCowan Road,Centre Based Child Care,Yes,Yes,LE CL09,115 Drakefield Road,,Markham,Markham
625246.375,4866193.75,310,80088,Le Club - Bond Lake,Le Club Child Care Program,Child Care Centre,L4E 5B9,(905) 881-8585,,Stouffville Road & Bayview Avenue,Centre Based Child Care,Yes,Yes,LE CL08,245 Old Colony Road,,Oak Ridges,Richmond Hill
640647.69,4862592.37,311,319388,Learning Jungle School - Greensborough Campus,2096201 Ontario Inc.,Child Care Centre,L6E 0C7,(905) 201-1688,,Bur Oak Avenue & Ninth Line,Centre Based Child Care,Yes,Yes,LEARN01,38 Greensborough Village Circle  ,Units 13,Markham,Markham
622569.8687,4897711.6563,312,213751,Learning Together Childcare Inc.,Learning Together Childcare Inc.,Child Care Centre,L4P 2B6,(905) 989-0085,,The Queensway & Bessrough Drive,Centre Based Child Care,Yes,Yes,LEARN02,319 The Queensway South,,Keswick,Georgina
625871.4329,4879860.0514,313,356025,Learning Jungle Newmarket,2645108 ONTARIO INC.,Child Care Centre,L3Y 0A4,(905) 734-2522,,Leslie Street & Davis Drive,Centre Based Child Care,Yes,Yes,LEARN04,"17305 Leslie Street , ",Unit #1,Newmaket,Newmarket
616636.0273,4851382.7178,314,223582,Learning Jungle School - Vaughan South Campus,2490995 Ontario Inc.,Child Care Centre,L4L 1A6,(905) 856-9909 ,Ext.3,Weston Road & Langstaff Road,Centre Based Child Care,Yes,Yes,LEARN06,8383 Weston Road ,Unit 113,Woodbridge,Vaughan
619372.469,4858498.5,315,171159,Learning Tree Academy - Maple,11951858 Canada Corp.,Child Care Centre,L6A 0J5,(289) 304-4404 ,Ext.2,Keele Stree & Teston Road,Centre Based Child Care,Yes,Yes,LEARN07,10557 Keele St ,Unit 5,Vaughan,Vaughan
641910.719,4858331.0,316,18705,Legacy YMCA Child Care,YMCA of Greater Toronto,Child Care Centre,L3S 4B1,(905) 910-9628,,Ninth Line & Highway 407,Centre Based Child Care,Yes,Yes,LEGAC01,61 Russell Jarvis Drive,,Markham,Markham
620597.563,4850589.5,317,200870,Les Fanfans Daycare,Les Fanfans Daycare LTD.,Child Care Centre,L4K 2A1,(905) 597-5010,,Keele & Highway 7,Centre Based Child Care,Yes,Yes,LES F02,8B - 7700 Keele Street,,Concord,Vaughan
625532.75,4881614.5,318,162867,Leslie Street Day Care Centre,1437947 Ontario Limited,Child Care Centre,L3Y 7B8,(905) 853-1074,,Leslie Street/Davis,Centre Based Child Care,Yes,Yes,LESLI01,"1111 Stellar Drive ,",Unit 9,Newmarket,Newmarket
623058.6991,4873791.2357,319,157548,Lester B. Pearson Children's Academy,York Professional Care & Education Inc.,Child Care Centre,L4G 3T3,(905) 727-0450,,Mark St/Yonge St,Centre Based Child Care,Yes,Yes,LESTE03,15 Odin Crescent,,Aurora,Aurora
605905.0524,4873384.5639,320,422612,Let Them Be Little Childcare Centre,Let Them Be Little Childcare Centre Ltd.,Child Care Centre,L0G 1T0,(905) 939-9181,,,Centre Based Child Care,Yes,Yes,LET T01,50 Doctor Kay Drive ,Unit A1,Schomberg,King
621513.8958,4869816.3501,321,175948,Light of Christ Child Care Centre,"McClellan Community Child Care, Inc.",Child Care Centre,L4G 6P3,(905) 841-7742,,Bathurst Street & McClellan Way,Centre Based Child Care,Yes,Yes,LIGHT01,290 McClellan Way,,Aurora,Aurora
631076.679,4859525.177,322,319113,Upper Canada Child Care at Lincoln Alexander PS,Upper Canada Creative Child Care Centres of Ontari,Child Care Centre,L6C 2H4,(905) 927-9405,,Highway 7 & Woodbine Avenue,Centre Based Child Care,Yes,Yes,UPPER26,38 Hillmount Road,,Markham,Markham
622562.3269,4897663.2792,323,129426,The Little Red School House,1286909 Ontario Limited,Child Care Centre,L4P 2B8,(905) 476-5508,,Queensway South & Bessborough Street,Centre Based Child Care,Yes,Yes,THE L04,325 The Queensway South,,Keswick,Georgina
621174.75,4854420.501,324,130968,Little Hands At Play Daycare Centre,Little Hands At Play Daycare Centre Limited,Child Care Centre,L4K 0A8,(905) 761-1227,,Bathurst Street & Rutherford Road,Centre Based Child Care,Yes,Yes,LITTL14,411 Confederation Parkway ,Unit 16,Vaughan,Vaughan
641736.7123,4862504.0699,325,34844,Upper Canada Child Care at Little Rouge PS,Upper Canada Creative Child Care Centres of Ontari,Child Care Centre,L6B 1E8,(905) 202-1596,,16th Avenue & Ninth Line,Centre Based Child Care,Yes,Yes,UPPER27,571 Country Glen Road,,Markham,Markham
609758.8894,4855413.3891,326,352986,Little Angels Montessori School,Little Angels Montessori School Inc.,Child Care Centre,L0J 1C0,(905) 893-0389,,Highway 27 & Nashville Road,Centre Based Child Care,Yes,No,LITTL09,180 Nashville Road,,Kleinburg,Vaughan
639283.4413,4861701.4356,327,367724,Little Steps Early Learning and Child Care Centre,2262892 Ont Ltd.,Child Care Centre,L6E 0N1,(905) 472-5437,,16th Ave/Markham Road,Centre Based Child Care,Yes,Yes,LITTL12,9418 Markham Road ,Unit 9,Markham,Markham
626553.125,4860227.0,328,95874,Little Valley Montessori,Little Valley Montessori Inc.,Child Care Centre,L4C 2R5,(416) 833-0272,,Major Mac/Bayview,Centre Based Child Care,Yes,No,LITTL15,333 Crosby Avenue,,Richmond Hill,Richmond Hill
632834.7117,4856841.8219,329,391911,Little Miracles Child Care and Learning Centre,Little Miracles Child Care & Learning Centre,Child Care Centre,L3R 5N9,(416) 800-8880,,Highway 7 & Rodick Road,Centre Based Child Care,Yes,Yes,LITTL23,3300 Highway 7 East,,Markham,Markham
621519.1004,4880763.012,330,336995,Little Einstein Day Care Centre,Little Einstein Day Care Centre Ltd.,Child Care Centre,L9H 0H9,(647) 417-1137,,Green Lane & Yonge,Centre Based Child Care,Yes,Yes,LITTL25,18183 Yonge Street ,Unit 2,East Gwillimbury,East Gwillimbury
626601.183,4851970.223,331,278110,Little Angels Early Learning Centre,St. Gabriel Child Care Centre of Woodbridge,Child Care Centre,L4J 2K7,(905) 731-2927,,Yonge Street & Centre Street,Centre Based Child Care,Yes,No,LITTL29,1 Brooke Street,,Thornhill,Vaughan
621288.954,4879722.3042,332,345244,Little Feet Montessori,,Child Care Centre,L3X 2H5,(647) 994-7374,,Yonge Street & Davis Drive,Centre Based Child Care,No,No,LITTL31,75 Dawson Manor Boulevard,,Newmarket,Newmarket
610916.6583,4853053.5946,333,214551,Lorna Jackson YMCA School Age,YMCA of Greater Toronto,Child Care Centre,L4H 1R1,(647) 921-4265,,John Street & Major Mackenzie Drive,Centre Based Child Care,Yes,Yes,LORNA02,589 Napa Valley Avenue,,Woodbridge,Vaughan
640598.8107,4861688.0712,334,1569,Love n' Learn Childcare,Love n' Learn Childcare Inc.,Child Care Centre,L3P 5X4,(905) 201-4000,,16th Avenue & Ninth Line,Centre Based Child Care,Yes,Yes,LOVE 01,1 Mintleaf Gate ,Unit 1-3,Markham,Markham
625062.1155,4861977.1216,335,86743,Loyal True Blue and Orange Home,Loyal True Blue and Orange Home,Child Care Centre,L4S 1L2,(905) 737-1011 ,Ext.234,Yonge Street & Elgin Mills Road,Centre Based Child Care,Yes,Yes,LOYAL01,11181 Yonge Street,,Richmond Hill,Richmond Hill
624656.688,4860676.25,336,93316,Lullaboo Nursery And Childcare Center Elgin Mills,Lullaboo Nursery And Childcare Center Inc.,Child Care Centre,L4C 4M2,(905) 884-1501,,Yonge Street & Elgin Mills Road,Centre Based Child Care,Yes,Yes,LULLA16,180 Elgin Mills Road West,,Richmond Hill,Richmond Hill
621714.07,4857843.718,337,338989,Lullaboo Nursery and Child Care Centre - Maple,2251371 Ontario Inc.,Child Care Centre,L6A 4H6,(905) 585-9509,,Major Mackenzie Drive & Dufferin Street,Centre Based Child Care,Yes,Yes,LULLA19,"1410 Major Mackenzie Drive West , C15",,Vaughan,Vaughan
627024.1424,4874498.7716,338,336826,Lullaboo Aurora,Lullaboo Aurora Inc.,Child Care Centre,L4C 0H5,(905) 713-5705,,Wellington Road & Leslie Street,Centre Based Child Care,Yes,Yes,LULLA20,16 First Commerce Drive,,Aurora,Aurora
618070.1189,4857864.0802,339,201354,Upper Canada Child Care at Mackenzie Glen PS,Upper Canada Creative Child Care Centres of Ontari,Child Care Centre,L6A 2M4,(905) 832-7290,,Major Mackenzie Drive/Jane,Centre Based Child Care,Yes,Yes,UPPER28,575 Melville Avenue,,Maple,Vaughan
638497.0758,4855686.1996,340,10900,Macklin House Daycare Centre,Macklin House Daycare Centre Inc.,Child Care Centre,L3S 2P9,(905) 472-6201,,McCowan Road & Denison Street,Centre Based Child Care,Yes,Yes,MACKL01,2501 Denison Street,,Markham,Markham
638815.281,4856176.0,341,842,Macklin House Kidzone - Coppard Glen,Macklin House Daycare Centre Inc.,Child Care Centre,L3S 2T5,(905) 472-6201,,Coppard Avenue & Dension Street,Centre Based Child Care,Yes,Yes,MACKL02,131 Coppard Avenue,,Markham,Markham
626738.0983,4852098.4509,342,224819,Macklin House Kidzone-Thornhill Public School,Macklin House Daycare Centre Inc.,Child Care Centre,L4J 1V8,(905) 472-6201,,Yonge Street & Arnold,Centre Based Child Care,Yes,Yes,MACKL11,7554 Yonge Street,,Thornhill,Vaughan
624808.8296,4859866.2226,343,98190,Macklin House Kidzone - O.M. Mackillop,Macklin House Daycare Centre Inc.,Child Care Centre,L4C 4P7,(905) 472-6201,,Yonge Street /Elgin Mills Road,Centre Based Child Care,Yes,Yes,MACKL05,206 Lucas Street,,Richmond Hill,Richmond Hill
640378.9224,4863257.639,344,354703,Macklin House Kidzone - Sam Chapman,Macklin House Daycare Centre Inc.,Child Care Centre,L6E 2G1,(905) 472-6201,,Markham Road/ Major MacKenzie Drive,Centre Based Child Care,Yes,Yes,MACKL07,270 Alfred Paterson Drive,,Markham,Markham
620714.047,4856892.8353,345,390131,Macklin House KidZone-Romeo Dallaire,Macklin House Daycare Centre Inc.,Child Care Centre,L6A 0S1,(905) 472-6201,,Major MacKenzie Drive &Bathurst,Centre Based Child Care,Yes,Yes,MACKL08,550 Peter Rupert Avenue,,Maple,Vaughan
628475.4236,4856090.071,346,114824,Macklin House Kidzone - Adrienne Clarkson,Macklin House Daycare Centre Inc.,Child Care Centre,L4B 1X3,(905) 472-6201,,Bayview & 16th Avenue,Centre Based Child Care,Yes,Yes,MACKL03,68 Queens College Drive,,Richmond Hill,Richmond Hill
623972.688,4864590.75,347,81947,Upper Canada Child Care at MacLeod's Landing PS,Upper Canada Creative Child Care Centres of Ontari,Child Care Centre,L4E 4Z1,(905) 398-6599,,Yonge/Elgin Mills,Centre Based Child Care,Yes,Yes,UPPER29,195 Silver Maple Road,,Richmond Hill,Richmond Hill
620306.8835,4877211.1829,348,176786,Magic Balloon Child Care,Magic Balloon Child Care Centre Inc.,Child Care Centre,L3X 1V5,(905) 836-5126,,Bathurst Street & Mulock Drive,Centre Based Child Care,Yes,Yes,MAGIC02,480 Keith Avenue,,Newmarket,Newmarket
622978.0861,4872844.4597,349,185607,Magic Tree Childcare,Magic Tree Childcare Inc.,Child Care Centre,L4G 1G6,(416) 358-8481,,Yonge St and Wellington St.,Centre Based Child Care,Yes,Yes,MAGIC03,16 Mosley Street,,Aurora,Aurora
619561.688,4856596.5,350,154291,Maple Preschool,Maple Preschool Inc.,Child Care Centre,L7B 1G1,(905) 833-7373,,Keele Street & King Road,Centre Based Child Care,Yes,No,MAPLE02,13121 Keele Street,,King City,King
619517.614,4857239.1739,351,186926,Maple Children's Montessori School,Maple Children's Montessori School Inc.,Child Care Centre,L6A 3Y9,(905) 832-6665,,Keele Street & Major MacKenzie Drive,Centre Based Child Care,Yes,No,MAPLE12,10175 Keele Street ,Unit 9,Maple,Vaughan
633097.808,4858916.347,352,23986,Maple Seed Montessori and Child Care,Littlefoot Private Home Daycare Inc.,Child Care Centre,L3R 8X4,(905) 604-5437,,16th Avenue & Warden Avenue,Centre Based Child Care,Yes,Yes,MAPLE14,50 Lockridge Avenue ,Units 2-5,Markham,Markham
619517.614,4857239.1739,353,186926,Maple Child Care Centre Inc.,Maple Child Care Centre Inc.,Child Care Centre,L6A 3Y9,(905) 832-3218,,Keele Street & Major MacKenzie Drive,Centre Based Child Care,Yes,Yes,MAPLE16,8 - 10175 Keele Street,,Maple,Vaughan
622550.9688,4879828.1732,354,232881,Maple Leaf Public School,Social Enterprise for Canada,Child Care Centre,L3Y 2Y7,(905) 868-4362,,Davis Drive and Main Street,Centre Based Child Care,Yes,Yes,MAPLE17,155 Longford Drive,,Newmarket,Newmarket
613179.7908,4849037.5666,355,366422,Market Lane Early Learning Centre,Maghra Inc.,Child Care Centre,L4L 4K9,(905) 265-7285,,Islington Ave and Woodbridge Ave.,Centre Based Child Care,Yes,Yes,MARKE03,Block A and B 140 Woodbridge Avenue,,Woodbridge,Vaughan
639522.3327,4861343.12,356,68595,Markham Montessori School,1043282 Ontario Inc.,Child Care Centre,L3P 2B2,(905) 294-3373,,16th Avenue & Main Street Markham North,Centre Based Child Care,No,No,MARKH07,6007 16th Avenue,,Markham,Markham
639870.719,4856071.0,357,6250,Markham Gateway Kid's Club,York Professional Care & Education Inc.,Child Care Centre,L3S 3X3,(905) 780-9857,,Denison Street & Markham Road,Centre Based Child Care,Yes,Yes,MARKH08,30 Fonda Road,,Markham,Markham
637416.623,4859676.38,358,294104,Markville Child Care Centre,Family Day Care Services,Child Care Centre,L3P 7P5,(905) 474-1392,,Highway 7 & McCowan Road,Centre Based Child Care,Yes,Yes,MARKV01,1000 Carlton Road,,Markham,Markham
630653.3405,4860535.962,359,336309,Mastermind Montessori Schools,Mastermind Montessori Schools,Child Care Centre,L6C 0G6,(905) 888-8488,,Major Mackenzie Drive & Highway 404,Centre Based Child Care,No,No,MASTE01,735 Markland Street,,Markham,Markham
624313.1945,4875211.4899,360,209040,Aspen Grove Montessori School,2463566 Ontario Inc.,Child Care Centre,L4G 7Y3,(905) 841-1888,,Wellington Street & Byview Avenue,Centre Based Child Care,No,No,ASPEN01,"233 Earl Stewart Drive, ",Unit 1-5,Aurora,Aurora
624948.438,4879831.0,361,251556,Mazo De La Roche Junior Y,YMCA of Greater Toronto,Child Care Centre,L3Y 2E2,(905) 836-9342,,Leslie Street & Davis Drive,Centre Based Child Care,Yes,Yes,MAZO 03,860 Arnold Crescent,,Newmarket,Newmarket
638350.8213,4856684.5831,362,68710,McGivney Early Learning Centre,The Village – Children’s Programs,Child Care Centre,L3S 3K8,(905) 471-8180,,14th Avenue & McCowan Road,Centre Based Child Care,Yes,Yes,MCGIV02,5300 14th Avenue,,Markham,Markham
624090.8423,4880744.0811,363,167346,Upper Canada Child Care at Meadowbrook PS,Upper Canada Creative Child Care Centres of Ontari,Child Care Centre,L3Y 3L5,(905) 836-0791,,Main Street North & Davis Drive,Centre Based Child Care,Yes,Yes,UPPER30,233 Patterson Street,,Newmarket,Newmarket
617937.171,4856853.8219,364,177534,Michael Cranny Public School,,Child Care Centre,L6A 1Y9,(905) 265-7458,,Major Mackenzie Drive & Melville Avenue,Centre Based Child Care,Yes,Yes,MICHA01,155 Melville Avenue,,Vaughan,Vaughan
635150.2375,4854036.8064,365,65060,Milliken Mills School-Age Child Care,High Birch Childcare & Learning Centre Inc.,Child Care Centre,L3R 3J3,(905) 479-9831,,Birchmount Road & Denison Avenue,Centre Based Child Care,Yes,Yes,MILLI01,289 Risebrough Circuit,,Markham,Markham
638476.4582,4866489.0891,366,132,MindTech Academic Schools Ins-NEW,MindTech Academic Schools Ins,Child Care Centre,L3P 3J3,(905) 640-5333,,HWY 48 AND ELGIN MILLS,Centre Based Child Care,Yes,No,MINDT04,1 Dickson Hill Road,,Markham,Markham
624906.0,4856322.5,367,113654,Mini-Skool 'A Child's Place' Inc.,"Mini-Skool ""A Child's Place"" Inc.",Child Care Centre,L4C 6B9,(905) 881-0710,,Carville and Avenue Rd,Centre Based Child Care,Yes,Yes,MINI-04,54 Avenue Road,,Richmond Hill,Richmond Hill
625522.1939,4855707.0384,368,117335,Mini-Skool Before & After School Program - Charles,"Mini-Skool ""A Child's Place"" Inc.",Child Care Centre,L4C 6T7,(905) 881-0710,,Yonge Street & Westwood Lane,Centre Based Child Care,Yes,Yes,MINI-05,30 Pearson Avenue,,Richmond Hill,Richmond Hill
610076.984,4855259.2599,369,266564,Montessori School in Kleinburg,Montessori School in Kleinburg Inc.,Child Care Centre,L0J 1C0,(905) 893-0560,,Highway 27 & Nashville Road,Centre Based Child Care,No,No,MONTE01,10515 Highway 27,,Kleinburg,Vaughan
621605.6504,4856875.0637,370,339335,Montessori School House Maple,Montessori School House Inc.,Child Care Centre,L6A 4L6,(905) 303-0011,,Dufferin Street/Major Mac,Centre Based Child Care,Yes,Yes,MONTE04,9730 Dufferin Street ,Unit 6,Maple,Vaughan
636023.0504,4857893.6032,371,38299,Montessori North School,Anahita Enterprises Inc.,Child Care Centre,L3R 1M4,(416) 953-0391,,Hwy 7 & Main Street Unionville,Centre Based Child Care,Yes,Yes,MONTE09,4561 Highway 7 East,,Markham,Markham
618774.5,4856389.78,372,345434,Mother of Carmel Child Care Centre,Sisters of Our Lady of Mount Carmel (Canada),Child Care Centre,L6A 1C6,(905) 303-1000,,Keele Street & Major Mackenzie Drive,Centre Based Child Care,Yes,Yes,MOTHE01,2599 Major Mackenzie Drive,,Maple,Vaughan
635377.4614,4888871.2514,373,184471,Mount Albert Children's Academy,York Professional Care & Education Inc.,Child Care Centre,L0G 1M0,(905) 473-1106,,Mount Albert Rd. & Hwy 48,Centre Based Child Care,Yes,Yes,MOUNT02,19299 Centre Street,,Mount Albert,East Gwillimbury
639869.125,4862551.5,374,57414,Mount Joy YMCA School Age,YMCA of Greater Toronto,Child Care Centre,L6E 1X1,(905) 943-9587,,Ninth Line & Bur Oak Avenue,Centre Based Child Care,Yes,Yes,MOUNT07,281 Williamson Road,,Markham,Markham
641514.751,4870792.5,375,129695,My First School Daycare Inc.,My First School Daycare Inc.,Child Care Centre,L4A 4Y9,(905) 640-0676,,Main Street & Montreal Street,Centre Based Child Care,Yes,Yes,MY FI01,94 Montreal Street,,Stouffville,Whitchurch-Stouffville
625194.729,4851873.198,376,154298,Netivot HaTorah Day School,Netivot HaTorah Day School,Child Care Centre,L4J 8C8,(905) 771-1234 ,Ext.255,Bathurst and Clark,Centre Based Child Care,Yes,Yes,NETIV01,18 Atkinson Avenue,,Thornhill,Vaughan
623438.9328,4878997.9445,377,120710,Newmarket Co-Operative Nursery School,"Newmarket Co-Operative Nursery School, Inc.",Child Care Centre,L3Y 1V9,(289) 231-8300,,Main Street & Park Avenue,Nursery School Child Care,Yes,Yes,NEWMA08,443 Park Avenue,,Newmarket,Newmarket
623664.314,4873651.0,378,246635,Newpark Children's Centre,Newpark Children's Centre,Child Care Centre,L4G 4C4,(905) 727-8859,,Bayview Avenue & Wellington Street,Centre Based Child Care,Yes,Yes,NEWPA01,81 Industrial Parkway North ,Unit 2,Aurora,Aurora
636312.7951,4857256.4466,379,371811,Newstar Learning Centre Inc.,Newstar Learning Centre Inc.,Child Care Centre,L3R 4P9,(647) 991-3027,,South Unionville Avenue & Kennedy Road,Centre Based Child Care,No,Yes,NEWST01,28 South Unionville Avenue ,Unit 2 Level A,Markham,Markham
623999.7344,4867285.1395,380,352338,Newstead Academy,Newstead Education Group Corp.,Child Care Centre,L4E 3S8,(289) 234-8886,,King Road and Yonge Street,Centre Based Child Care,Yes,Yes,NEWST02,13085 Yonge Street ,Unit 12 & 22,Richmond Hill,Richmond Hill
623895.75,4850577.25,381,249928,Yorkview Daycare Ltd.,Yorkview Daycare Ltd.,Child Care Centre,L4J 6N3,(905) 738-5462,,Clark Avenue & New Westminster Drive,Centre Based Child Care,Yes,Yes,YORKV02,3 Coulter's Mill Gate,,Thornhill,Vaughan
624795.594,4862341.5,382,85848,Noah's Ark Childcare and Nursery,St. Mary and St. Joseph Daycare Nursery,Child Care Centre,L4S 1K9,(416) 800-5577 ,Ext.2,Yonge Street & Nottingham Dr,Centre Based Child Care,Yes,Yes,NOAH 02,11308 Yonge Street,,Richmond Hill,Richmond Hill
608275.334,4862825.3545,383,230458,Nobleton Sr. Child Care,605061 Ontario Ltd,Child Care Centre,L0G 1N0,(905) 859-8479,,Highway 27 & King Road,Centre Based Child Care,Yes,Yes,NOBLE04,13375 Highway 27,,Nobleton,King
630700.1324,4861020.957,384,364086,EarlyON Nokiidaa Public School,,EarlyON Program,L6C 0J4,(289) 612-1777,,,Centre Based Child Care,No,No,EARL137,45 Murison Drive,,Markham,Markham
625387.0808,4850835.1423,385,245324,Upper Canada Child Care at Blessed Scalabrini CES,Upper Canada Creative Child Care Centres of Ontari,Child Care Centre,L4J 3B6,(905) 889-5270,,Clark Avenue /Bathurst,Centre Based Child Care,Yes,Yes,UPPER31,290 Yorkhill Boulevard,,Thornhill,Vaughan
621963.531,4855119.5,386,155687,Autumn Hill Academy,Academic Holding Inc.,Child Care Centre,L4K 5M4,(905) 417-9779,,Dufferin Street & Rutherford Road,Centre Based Child Care,No,Yes,AUTUM02,9050 Dufferin Street,,Concord,Vaughan
616052.1921,4854413.6054,387,366412,North Hill Private School  - Woodbridge,North Hill Private School (Woodbridge) Inc.,Child Care Centre,L4H 3A5,(905) 832-7783,,Weston Road & Rutherford Road,Centre Based Child Care,No,No,NORTH06,9555 Weston Road,,Woodbridge,Vaughan
623946.0297,4874785.0792,388,213658,Northern Lights Kids Club,York Professional Care & Education Inc.,Child Care Centre,L4G 7S6,(905) 503-0260,,Bayview Ave/Pedersen Drive,Centre Based Child Care,Yes,Yes,NORTH14,40 Bridgenorth Drive,,Aurora,Aurora
622520.7374,4854459.1034,389,360182,Upper Canada Child Care at North Thornhill CC,Upper Canada Creative Child Care Centres of Ontari,Child Care Centre,L4J 9B3,(905) 597-1180,,Dufferin Avenue/Rutherford,Centre Based Child Care,Yes,Yes,UPPER32,300 Pleasant Ridge Avenue,,Vaughan,Vaughan
626449.5898,4852632.7779,390,159487,Northwood Montessori-Centre St Campus,A Right to Learn Inc.,Child Care Centre,L4J 1E9,(905) 889-9297,,Yonge Street & Centre Street,Centre Based Child Care,Yes,Yes,NORTH17,86 Centre Street,,Thornhill,Vaughan
625301.769,4877452.0888,391,171998,Notre Dame Before & After School Program,York Child Development and Family Services Inc.,Child Care Centre,L3X 1L4,(905) 960-6043,,Leslie Street/Ivsbridge Blvd,Centre Based Child Care,Yes,Yes,NOTRE13,715 Kingsmere Avenue,,Newmarket,Newmarket
619456.594,4856949.0,392,133026,NUF House North INC.,NUF House North INC.,Child Care Centre,L6A 1G3,(905) 303-3202,,Keele Street & Major Mackenzie Drive,Centre Based Child Care,Yes,Yes,NUF H06,10040 Keele Street ,Unit 4,Maple,Vaughan
622470.9256,4849896.7103,393,169125,NUF House Academy,1626269 Ontario Inc.,Child Care Centre,L4K 1T7,(905) 738-3917,,Steeles St. & Dufferin St.,Centre Based Child Care,Yes,Yes,NUF H08,80 Glen Shields Avenue ,"Unit 10; 12",Concord,Vaughan
622900.938,4867682.501,394,75812,Oak Ridges Before and After School Program,YMCA of Greater Toronto,Child Care Centre,L4E 2P7,(416) 953-4658,,Yonge Street & Bloomington Road,Centre Based Child Care,Yes,Yes,OAK R02,160 Coons Road,,Richmond Hill,Richmond Hill
611176.813,4853749.25,395,232863,ON Y va Sonoma Heights Community Park,,Child Care Centre,L4H 1T9,,,,Centre Based Child Care,No,No,ON Y 03,100 Sunset Ridge,,"Woodbridge, Ontario",Vaughan
625494.625,4859669.25,396,99517,Open Arms Preschool,ROSI Educational Services Inc.,Child Care Centre,L4C 2N9,(905) 508-1000,,Yonge Street & Crosby Avenue,Centre Based Child Care,Yes,Yes,OPEN 01,21 Bedford Park Avenue,,Richmond Hill,Richmond Hill
639233.158,4868850.3432,397,336998,Oscar Peterson YMCA Child Care,YMCA of Greater Toronto,Child Care Centre,L4A 0E7,(905) 640-7632,,Highway 48 & Hoover Park Drive,Centre Based Child Care,Yes,Yes,OSCAR01,850 Hoover Park Drive,,Stouffville,Whitchurch-Stouffville
612538.598,4851927.8319,398,224529,Our Lady of Fatima Child Care Centre,Social Enterprise for Canada,Child Care Centre,L4L 7G3,(289) 383-6854,,Rutherford St & Islington Ave,Centre Based Child Care,Yes,Yes,OUR L16,191 Crofters Road,,Woodbridge,Vaughan
623445.2164,4874281.619,399,349033,Aurora Children's Centre,,Child Care Centre,L4G 4C4,(905) 841-3422 ,Ext.104,Yonge Street & Bayview Avenue,Centre Based Child Care,Yes,Yes,AUROR05,185 Industrial Parkway North,,Aurora,Aurora
624480.656,4867841.999,400,75273,Our Lady of the Annunciation Child Care Centre,Our Lady of the Annunciation Child Care Centre,Child Care Centre,L4E 2L3,(905) 773-3283,,Yonge Street & Ashfield Drive,Centre Based Child Care,Yes,Yes,OUR L03,30 Bayswater Avenue,,Richmond Hill,Richmond Hill
622217.8313,4850065.1104,401,175937,Our Lady of the Rosary School Age Program,St. Joseph The Worker Child Care Centre Inc.,Child Care Centre,L4K 2E5,(905) 660-3527,,Dufferin Street & Centre Street,Centre Based Child Care,Yes,Yes,OUR L17,206 Glen Shields Avenue,,Concord,Vaughan
622278.8333,4867940.6042,402,74986,Our Lady of Hope Before & After School Program,Our Lady of the Annunciation Child Care Centre,Child Care Centre,L4E 4B8,(905) 773-4932,,Bathurst Street & Bloomington Road,Centre Based Child Care,Yes,Yes,OUR L06,80 Red Cardinal Trail,,Richmond Hill,Richmond Hill
621642.6344,4873145.186,403,187822,Our Lady of Grace Child Care Centre,Among Friends Day Care Centre,Child Care Centre,L4G 6C4,(905) 552-0610 ,Ext.3,Bathurst Street & Wellington Street,Centre Based Child Care,Yes,Yes,OUR L14,120 Aurora Heights Drive,,Aurora,Aurora
624192.4792,4883605.2926,404,406634,Our Lady of Good Counsel Children's Academy,York Professional Care & Education Inc.,Child Care Centre,L9N 0P6,(905) 478-1414,,Green lane and Leslie Street,Centre Based Child Care,Yes,Yes,OUR L21,801 Murrell Boulevard,,East Gwillimbury,East Gwillimbury
616841.219,4850813.5,405,263684,Over The Rainbow Children's Centre,"Over The Rainbow, Children's Centre Inc.",Child Care Centre,L4L 8G6,(905) 850-3553 ,Ext.228,Langstaff Road & Weston Road,Centre Based Child Care,Yes,Yes,OVER 02,285 Jevlan Drive ,Unit 2,Vaughan,Vaughan
639505.167,4861576.1231,406,12050,Little Readers Academy,2012280 Ontario Inc.,Child Care Centre,L6E 1A1,(905) 201-2700,,16th Avenue & Markham Road,Centre Based Child Care,No,Yes,LITTL17,2-9275 Markham Road,,Markham,Markham
640067.906,4868907.5,407,144908,Oxford Learning - Stouffville,2190581 Ontario Inc.,Child Care Centre,L4A 1H6,(905) 640-1020,,Ninth Line/Hoover Park,Centre Based Child Care,Yes,Yes,OXFOR08,11873 Ninth Line,,Stouffville,Whitchurch-Stouffville
638377.0186,4860015.2993,408,11844,Pals,605061 Ontario Ltd,Child Care Centre,L3P 7M8,(905) 552-0610 ,Ext.3,16th Avenue & McCowan Road,Centre Based Child Care,Yes,Yes,PALS 02,11 Cairns Avenue,,Markham,Markham
619435.739,4885223.9033,409,218581,Park Avenue Kids Club,York Professional Care & Education Inc.,Child Care Centre,L9N 1H5,(905) 726-0577,,Holland Landing Rd & Oriole Rd,Centre Based Child Care,Yes,Yes,PARK 03,36 Sunrise Street,,East Gwillimbury,East Gwillimbury
639908.875,4855567.0,410,51995,Parkland Child Care Centre,Family Day Care Services,Child Care Centre,L3S 3B8,(905) 472-9685,,Markham Road & Denison Road,Centre Based Child Care,Yes,Yes,PARKL01,18 Coxworth Avenue,,Markham,Markham
635454.6575,4858491.6893,411,24856,Parkview YMCA School Age,YMCA of Greater Toronto,Child Care Centre,L3R 1V6,(289) 338-8200,,Fred Varley Drive & Fonthill Boulevard,Centre Based Child Care,Yes,Yes,PARKV02,22 Fonthill Boulevard,,Markham,Markham
633079.3056,4858158.0212,412,54143,Pastimes,605061 Ontario Ltd,Child Care Centre,L3R 7W8,(905) 479-0166,,16th Avenue & Warden Avenue,Centre Based Child Care,Yes,Yes,PASTI02,60 Coledale Road,,Unionville,Markham
621677.6902,4878494.0535,413,205637,BrightPath Newmarket Childcare Centre,Brightpath Kids Corp.,Child Care Centre,L3Y 7R8,(905) 853-6662,,Davis and Yonge,Centre Based Child Care,Yes,Yes,BRIGH05,"17310 Yonge Street, ",Unit 3,Newmarket,Newmarket
620429.4047,4854905.2805,414,419983,Brightpath Rutherford,Brightpath Kids Corp.,Child Care Centre,L4K 5T6,(905) 417-9440,,Keele Street & Rutherford Road,Centre Based Child Care,Yes,Yes,BRIGH03,2077 Rutherford Road,,Vaughan,Vaughan
615637.688,4848665.5,415,169829,Brightpath Trowers,Brightpath Kids Corp.,Child Care Centre,L4L 7K5,(905) 264-1255,,Hwy 7 and Whitmore Rd.,Centre Based Child Care,Yes,Yes,BRIGH04,90 Trowers Road,,Vaughan,Vaughan
623176.6714,4873723.1917,416,128973,PEL Petit Bateau - Aurora,Preschool Petit Bateau Inc.,Child Care Centre,L4G 3K4,(905) 717-6736,,Yonge Street & Wellington Street,Centre Based Child Care,Yes,Yes,PEL P01,90 Walton Drive,,Aurora,Aurora
631464.031,4857776.5,417,44890,Peoples Christian Academy Early Learning Centre,Peoples Christian Academy (PCA) Inc.,Child Care Centre,L3R 6G3,(416) 733-2010 ,Ext.110,Woodbine Avenue & 16th Avenue,Centre Based Child Care,No,No,PEOPL05,245 Renfrew Drive,,Markham,Markham
620442.8615,4880474.5175,418,377954,Phoebe Gilman School Age Program,Denison Child Care,Child Care Centre,L9N 0C1,(905) 715-8251,,Green Lane & Woodspring Avenue,Centre Based Child Care,Yes,Yes,PHOEB01,145 Harvest Hills Boulevard,,East Gwillimbury,East Gwillimbury
614388.8455,4854584.549,419,353682,Upper Canada Child Care at Pierre Berton PS,Upper Canada Creative Child Care Centres of Ontari,Child Care Centre,L4H 0X9,(905) 303-7042,,Major Mac/Weston,Centre Based Child Care,Yes,Yes,UPPER33,470 Via Campanile,,Vaughan,Vaughan
613606.9388,4850403.4047,420,266952,Pine Grove YMCA School Age,YMCA of Greater Toronto,Child Care Centre,L4L 1R2,(416) 602-8141,,Islington Avenue & Willis Road,Centre Based Child Care,Yes,Yes,PINE 04,86 Gamble Street,,Woodbridge,Vaughan
620789.03,4880300.0,421,176733,Pinocchio,13101304 Canada Inc.,Child Care Centre,L3X 2L5,(226) 448-8557,,Yonge Street & Green Lane East,Home Based  Child Care,Yes,Yes,PINOC01,392 Wood Duck Lane,,Newmarket,Newmarket
624673.469,4874422.0,422,230352,Play Laugh Learn Childcare Centre,Play Laugh Learn Ltd.,Child Care Centre,L4G 0R5,(905) 503-1500,,Bayview Avenue & Wellington Street,Centre Based Child Care,Yes,Yes,PLAY 16,9 Borealis Avenue,,Aurora,Aurora
621362.3947,4857599.7428,423,366496,Playcare Early Learning Centre Inc.,Playcare Early Learning Centre Inc.,Child Care Centre,L6A 0A9,(289) 553-7529,,Major Mackenzie Drive & Dufferin Street,Centre Based Child Care,Yes,Yes,PLAYC01,1530 Major Mackenzie Drive West ,Units 9-11,Vaughan,Vaughan
625984.274,4852394.51,424,147156,Polka Dot Preschool,Polka Dot Preschool Inc.,Child Care Centre,L4J 1G5,(905) 370-0014,,Yonge Street & Centre Street,Centre Based Child Care,Yes,No,POLKA02,271 Centre Street,,Thornhill,Vaughan
642187.958,4858569.354,425,337348,Polka Dot Academy Montessori Daycare,POLKA-DOT- HOUSE INC.,Child Care Centre,L6B 0P2,(647) 339-5656,,Ninth Line & Copper Creek Drive,Centre Based Child Care,Yes,Yes,POLKA03,"66 Copper Creek Drive; ",Unit 101&102,Markham,Markham
620816.505,4879942.009,426,223564,Poplar Bank Before & After School Program,Denison Child Care,Child Care Centre,L3X 2X1,(905) 953-1850,,Yonge Street/Bonshaw Ave,Centre Based Child Care,Yes,Yes,POPLA01,400 Woodspring Avenue,,Newmarket,Newmarket
615550.2723,4856707.6491,427,366903,Songbirds Montessori School – Vaughan,Precious Beginnings Children's Centre Limited,Child Care Centre,L4H 0J5,(905) 417-8383,,Major Mackenzie Drive W & Weston Road,Centre Based Child Care,No,Yes,SONGB02,10375 Weston Road,,Vaughan,Vaughan
638700.281,4859653.5,428,14944,Pris-T-Gis Montessori School,,Child Care Centre,L3P 1W2,(905) 886-7747,,McCowan Road & Highway 7,Centre Based Child Care,No,No,PRIS-01,150 Bullock Drive ,Unit 3,Markham,Markham
618593.7583,4856287.3666,429,156601,Preschool Petit Bateau-Maple,Preschool Petit Bateau Inc.,Child Care Centre,L6A 1Y3,(905) 417-5131,,Major Mackenzie Drive & Keele Street,Centre Based Child Care,Yes,Yes,PRESC02,79 Avro Road,,Maple,Vaughan
623093.9994,4896665.825,430,159932,Upper Canada Child Care at Prince of Peace CES,Upper Canada Creative Child Care Centres of Ontari,Child Care Centre,L4P 3E9,(905) 989-2696,,The Queensway/Ravenshoe,Centre Based Child Care,Yes,Yes,UPPER34,181 Glenwoods Avenue,,Keswick,Georgina
624306.9443,4879262.062,431,193507,Prince Charles YMCA School Age,YMCA of Greater Toronto,Child Care Centre,L3Y 1W9,(289) 338-8400,,Prospect Street & Srigley Street,Centre Based Child Care,Yes,Yes,PRINC04,684 Srigley Street,,Newmarket,Newmarket
631502.4622,4858454.0475,432,7462,Pris-T-Gis Montessori School (West) Campus Inc.,,Child Care Centre,L3R 0K9,(905) 470-7747,,16th Avenue & Woodbine Avenue,Centre Based Child Care,No,No,PRIS-02,2977 16th Avenue,,Markham,Markham
612627.288,4848863.565,433,270970,Promised Future Inc.,Promised Future Inc.,Child Care Centre,L4L 3K8,(905) 851-8980,,Kipling Avenue & Kipling,Nursery School Child Care,Yes,Yes,PROMI01,350 Woodbridge Avenue ,Unit 4,Woodbridge,Vaughan
622904.1523,4878082.8723,434,258524,Upper Canada Child Care at Rogers PS,Upper Canada Creative Child Care Centres of Ontari,Child Care Centre,L3Y 1G6,(905) 898-0803,,Mulock Drive & Yonge Street,Centre Based Child Care,Yes,Yes,UPPER35,256 Rogers Road,,Newmarket,Newmarket
634873.8275,4854394.4329,435,317382,Queens Montessori Academy,Brightpath Kids Corp.,Child Care Centre,L3R 3Y4,(905) 944-0077,,Warden Avenue & Denison Street,Centre Based Child Care,Yes,Yes,QUEEN05,1151 Denison Street,,Markham,Markham
624073.667,4887971.7448,436,130676,Queensville YMCA,YMCA of Greater Toronto,Child Care Centre,L0G 1R0,(905) 836-9342,,Leslie Street & Queensville Side Road,Centre Based Child Care,Yes,Yes,QUEEN06,20317 Leslie Street,,Queensville,East Gwillimbury
623020.188,4897886.2614,437,143336,R.L. Graham Childcare,York Professional Care & Education Inc.,Child Care Centre,L4P 3M8,(905) 535-0570,,Biscayne Boulevard & The Queensway,Centre Based Child Care,Yes,Yes,R.L. 03,70 Biscayne Boulevard,,Keswick,Georgina
637167.6084,4861755.1135,438,64269,Radiant Way Montessori School,Anahita Enterprises Inc.,Child Care Centre,L3P 3J3,(416) 953-0391,,McCowan Road & Bur Oak Avenue,Centre Based Child Care,Yes,Yes,RADIA05,9718 McCowan Road,,Markham,Markham
639929.375,4860018.0,439,25778,Rainbows,605061 Ontario Ltd,Child Care Centre,L3P 2S7,(905) 479-0166,,Highway 7 & Highway 48,Centre Based Child Care,Yes,Yes,RAINB05,21 Franklin Street,,Markham,Markham
623228.0794,4873066.8169,440,178680,Rainbow Visionary Early Learning Centre,Rainbow Visionary inc.,Child Care Centre,L4G 1H7,(647) 673-0544,,,Centre Based Child Care,No,Yes,RAINB06,77 Wellington Street East,,Aurora,Aurora
637715.5049,4855702.6758,441,41068,Randall Child Care Centre,Family Day Care Services,Child Care Centre,L3S 1E2,(905) 474-1392,,Brimley Road & Denison Road,Centre Based Child Care,Yes,Yes,RANDA01,50 Randall Avenue,,Markham,Markham
641047.0983,4860644.8833,442,46502,Reesor Park Before and After School Age,YMCA of Greater Toronto,Child Care Centre,L4C 2P6,(905) 205-0001,,Wootten Way North & Highway 7,Centre Based Child Care,Yes,Yes,REESO04,69 Wootten Way North,,Markham,Markham
622199.063,4871194.0,443,140911,Regency Acres Kid's Club,York Professional Care & Education Inc.,Child Care Centre,L4G 2C7,(905) 503-0260,,Murray Dr/Yonge Street,Centre Based Child Care,Yes,Yes,REGEN01,123 Murray Drive,,Aurora,Aurora
627467.781,4858792.0,444,103292,Reggio Kids,Reggio Kids Inc.,Child Care Centre,L4C 9X7,(905) 508-5437,,Bayview Avenue & Major Mackenzie Drive,Centre Based Child Care,Yes,Yes,REGGI01,9785 Bayview Avenue,,Richmond Hill,Richmond Hill
627469.656,4860190.5,445,95892,Richmond Rose Club,Le Club Child Care Program,Child Care Centre,L4S 1S7,(905) 881-8585,,Bayview Avenue & Major Mackenzie Drive,Centre Based Child Care,Yes,Yes,RICHM02,160 Frank Endean Avenue,,Richmond Hill,Richmond Hill
624877.9168,4875387.8433,446,368982,Upper Canada Child Care at Rick Hansen PS,Upper Canada Creative Child Care Centres of Ontari,Child Care Centre,L4G 0J6,(905) 841-6227,,Bayview Avenue & Wellington Avenue,Centre Based Child Care,Yes,Yes,UPPER36,490 Mavrinac Boulevard,,Aurora,Aurora
635663.9646,4888832.3366,447,363996,Robert Munsch Kids Club,York Professional Care & Education Inc.,Child Care Centre,L0G 1M0,(905) 727-0450,,King Road & Centre Street,Centre Based Child Care,Yes,Yes,ROBER02,395 King Street East,,Mount Albert,East Gwillimbury
629068.6021,4853653.3583,448,66831,Rocking Horse Day Nursery,877386 Ontario Ltd.,Child Care Centre,L3T 6L2,(905) 764-3933,,Bayview Avenue & John Street,Centre Based Child Care,Yes,Yes,ROCKI01,21 Guardsman Road,,Thornhill,Markham
619508.5475,4857315.6906,449,356947,Roots Day Care,Roots Education Inc.,Child Care Centre,L6A 3Y9,(905) 832-1686,,Major Mackenzie Drive & Keele Street,Centre Based Child Care,Yes,Yes,ROOTS01,10195 Keele Street,,Maple,Vaughan
624844.3492,4856450.2806,450,112911,Rose Lawn School Age Program,Family Day Care Services,Child Care Centre,L4G 6E6,(905) 780-0769,,Carville Road & Avenue Road,Centre Based Child Care,Yes,Yes,ROSE 01,422 Carrville Road,,Richmond Hill,Richmond Hill
624755.8872,4852723.8932,451,247896,Upper Canada Child Care at Rosedale Heights PS,Upper Canada Creative Child Care Centres of Ontari,Child Care Centre,L4J 6Y8,(905) 771-6820,,Bathurst Street & Centre Street,Centre Based Child Care,Yes,Yes,UPPER37,300 Rosedale Heights Drive,,Thornhill,Vaughan
625070.5996,4857247.8901,452,109437,Ross Doan Child Care Centre,Family Day Care Services,Child Care Centre,L4C 3T9,(905) 780-0769,,Weldrick Avenue & Avenue Road,Centre Based Child Care,Yes,Yes,ROSS 03,101 Weldrick Road West,,Richmond Hill,Richmond Hill
643265.2854,4861108.7566,453,401154,Rouge Park YMCA Child Care,YMCA of Greater Toronto,Child Care Centre,L6B 0Y1,(905) 943-9587,,Donald Cousens Parkway and riverlands Avenue,Centre Based Child Care,Yes,Yes,ROUGE01,568 Riverlands Avenue,,Markham,Markham
631255.251,4860289.0,454,50,Royal Cachet Montessori School - Markham,Royal Cachet Montessori School Ltd.,Child Care Centre,L6C 1H7,(905) 888-7700,,Woodbine Avenue & Major MacKenzie Drive,Centre Based Child Care,Yes,No,ROYAL09,9921 Woodbine Avenue,,Markham,Markham
639253.8396,4869236.805,455,350648,Royal Cachet Montessori School  - Stouffville,Royal Cachet Montessori School Stouffville Ltd.,Child Care Centre,L4A 0Y2,(905) 640-8088,,Hoover Park Drive & Sandiford Drive,Centre Based Child Care,Yes,No,ROYAL11,160 Mostar Street,,Stouffville,Whitchurch-Stouffville
630038,4856125,456,114797,Safari Kid @Bayview Elite Learning Centre 2,Golden 88 Investments Ltd.,Child Care Centre,L4B 3B6,(905) 882-4809,,Leslie Street & Highway 7,Centre Based Child Care,Yes,Yes,SAFAR08,9011 Leslie Street ,Unit 107,Richmond Hill,Richmond Hill
625445.5576,4859307.5381,457,411103,Safari Kid On Yonge,Safari Kid Canada Inc.,Child Care Centre,L4C 3B6,(647) 517-4508,,Yonge Street & Major Mackenzie Drive,Centre Based Child Care,Yes,Yes,SAFAR05,10200 Yonge Street ,Unit 1-3,Richmond Hill,Richmond Hill
637128.7836,4861475.2735,458,351908,Safari Kid Markham,9311521 Canada Limited,Child Care Centre,L3P 8M1,(905) 887-6788,,Bur Oak Avenue & McCowan Road,Centre Based Child Care,Yes,Yes,SAFAR17,9610 McCowan Road,,Markham,Markham
621351.6161,4869759.1516,459,260603,Safari Kid South Aurora,Big Eyes Education Inc.,Child Care Centre,L4G 6X8,(416) 837-1846,,Bloomington & Bathurst,Centre Based Child Care,Yes,Yes,SAFAR21,330 McClellan Way:,Unit 7-10,Aurora,Aurora
630038,4856125,460,114797,Safari Kid Richmond Hill South,Safari Kid Canada Inc.,Child Care Centre,L4B 3B6,(905) 882-4809,,HWY 7/404/Leslie,Centre Based Child Care,Yes,Yes,SAFAR22,9011 Leslie Street ,Unit 104,Richmond Hill,Richmond Hill
637909.174,4861952.978,461,336320,Upper Canada Child Care at San Lorenzo Ruiz CES,Upper Canada Creative Child Care Centres of Ontari,Child Care Centre,L6E 0E1,(905) 294-2714,,16th Avenue & McCowan Road,Centre Based Child Care,Yes,Yes,UPPER38,840 Bur Oak Avenue,,Markham,Markham
610967.253,4849530.6259,462,257638,San Marco Before & After School Program,Kids Can Doodle Before And After School Program,Child Care Centre,L4L 6H3,(416) 434-7816,,Highway 7 & Martingrove Road,Centre Based Child Care,Yes,Yes,SAN M01,250 Coronation Street,,Woodbridge,Vaughan
614321.4319,4848686.2894,463,120650,Scholar Montessori Academy,1462488 Ontario Limited,Child Care Centre,L4L 2S2,(905) 265-1959,,Highway 7 & Pine Valley Drive,Centre Based Child Care,Yes,Yes,SCHOL04,4697 Highway 7 2nd Floor,,Woodbridge,Vaughan
616668.781,4851677.5,464,203094,Scholar Montessori Academy - Langstaff,1462488 Ontario Limited,Child Care Centre,L4L 9A8,(905) 856-3426,,Weston Rd & Langstaff,Centre Based Child Care,Yes,Yes,SCHOL02,3650 Langstaff Road ,Unit 1-5,Woodbridge,Vaughan
606138.8334,4872613.3875,465,129396,Schomberg Village Child Care Centre,Centered on Children Child Care Centre,Child Care Centre,L0G 1T0,(647) 284-5437,,Highway 27 & Main Street,Centre Based Child Care,Yes,Yes,SCHOM02,21 Main Street PO BOX 123,,Schomberg,Whitchurch-Stouffville
623607.1513,4856748.8853,466,186963,Schwartz/Reisman Centre Daycare and Preschool,Schwartz / Reisman Centre,Child Care Centre,L6A 3Z8,(905) 303-1821 ,Ext.3018,Bathurst Street & Rutherford Road,Centre Based Child Care,Yes,Yes,SCHWA03,9600 Bathurst Street,,Vaughan,Vaughan
640251.8991,4869949.0045,467,197702,Share And Care Child Care Centre,Share And Care Child Care Centre Ltd.,Child Care Centre,L4A 4H1,(905) 554-0924,,Main Street & 19th Line,Centre Based Child Care,Yes,Yes,SHARE01,10 Albert Street,,Stouffville,Whitchurch-Stouffville
624464.7943,4853268.4213,468,219439,Sharei Tzion Day Care,Shaarei Zion Community Centre,Child Care Centre,L4J 8L5,(647) 501-5437,,Bathurst Street & Flamingo Road,Centre Based Child Care,Yes,Yes,SHARE03,8001 Bathurst Street,,Thornhill,Vaughan
628341.894,4861637.77,469,318645,Shining Stars Child Care Center Inc.,Shining Stars Child Care Center Inc.,Child Care Centre,L4S 0B5,(905) 737-9100,,Elgin Mills Road & Leslie Street,Centre Based Child Care,Yes,Yes,SHINI06,1305 Elgin Mills Rd E,,Richmond Hill,Richmond Hill
634046.466,4907276.1245,470,220430,Shoberry's 2 Daycare Centre,1280537 Ontario Inc.,Child Care Centre,L0E 1R0,(905) 722-7715,,Highway 48/Park Rd,Centre Based Child Care,Yes,Yes,SHOBE05,26995 Highway 48,,Sutton,Georgina
617415.5965,4852722.41,471,352462,Eyes Koala Kidz Child Care,Shriji Entertainment Ltd.,Child Care Centre,L4K 4V4,(905) 760-2922 ,Ext.2,Edgerley Boulevard & Bass Pro Mills Drive,Centre Based Child Care,No,Yes,EYES 03,"960 Edgeley Boulevard South; ",Unit 2,Vaughan,Vaughan
624002.97,4860714.0,472,92832,Silver Pines Junior Y,YMCA of Greater Toronto,Child Care Centre,L4C 9J2,(905) 508-6698,,Yonge Street & Elgin Mills Road,Centre Based Child Care,Yes,Yes,SILVE04,112 Stave Crescent,,Richmond Hill,Richmond Hill
628274.156,4860016.5,473,96809,Silver Stream Before & After School Program,Le Club Child Care Program,Child Care Centre,L4S 2K9,(905) 881-8585,,Bayview Avenue & Major Mackenzie Drive,Centre Based Child Care,Yes,Yes,SILVE02,180 Farmstead Road,,Richmond Hill,Richmond Hill
611036.9278,4847369.5379,474,244815,SimplySmart Child Care Centre-Hwy 27,2749255 Ontario Inc.,Child Care Centre,L4L 4M5,(905) 851-0051 ,Ext.1,Highway 7 & 27,Centre Based Child Care,Yes,Yes,SIMPL01,"7681 Highway 27, ",Unit 18,Vaughan,Vaughan
630700.1324,4861020.957,475,364086,Upper Canada Child Care at Nokiidaa PS,Upper Canada Creative Child Care Centres of Ontari,Child Care Centre,L6C 0J4,(905) 887-4993,,Major MacKenzie Drive & Woodbine Avenue,Centre Based Child Care,Yes,Yes,UPPER54,45 Murison Drive,,Markham,Markham
640858.9255,4857743.7213,476,57371,Sir Richard W. Scott B & A School Program,The Village – Children’s Programs,Child Care Centre,L3S 3S8,(647) 295-8697,,14th Avenue & 9th Line,Centre Based Child Care,Yes,Yes,SIR R03,90 Roxbury Street,,Markham,Markham
631037.969,4861634.409,477,318864,Upper Canada Child Care at Sir Wilfrid Laurier PS,Upper Canada Creative Child Care Centres of Ontari,Child Care Centre,L6C 3H6,(905) 887-7927,,Woodbine Avenue & Elgin Mills Road,Centre Based Child Care,Yes,Yes,UPPER39,160 Hazelton Ave,,Markham,Markham
626867.076,4857142.7911,478,108858,Sixteenth (16th) Avenue Children's Academy,York Professional Care & Education Inc.,Child Care Centre,L4C 7A9,(905) 884-8588,,16th Avenue and Yonge Street,Centre Based Child Care,Yes,Yes,SIXTE01,400 16th Avenue,,Richmond Hill,Richmond Hill
640679.938,4870316.5,479,266258,Small Town Montessori Pre-School Inc.,Small Town Montessori Pre-School Inc.,Child Care Centre,L4A 1E3,(905) 642-6600,,Church Sreet & Main Street,Centre Based Child Care,Yes,No,SMALL04,34 Church Street,,Stouffville,Whitchurch-Stouffville
623946.8284,4867807.6355,480,75663,Small Steps Early Learning Centre,2139639 Ontario Limited,Child Care Centre,L4E 0K5,(905) 313-1122,,Yonge Street and King Road,Centre Based Child Care,Yes,Yes,SMALL07,"13321 Yonge Street, ",unit 106,Richmond Hill,Richmond Hill
637938.1995,4858947.576,481,17199,Wesley Christian Early Learning Centre,Some Place Special Christian Day Care and Academy,Child Care Centre,L3P 1M4,(905) 201-8461,,McCowan Road & Highway 7,Centre Based Child Care,Yes,Yes,WESLE01,22 Heritage Road,,Markham,Markham
618565.3562,4857212.7375,482,165518,Songbirds Montessori School - Maple,2803229 ONTARIO INC,Child Care Centre,L6A 2W2,(416) 450-3656,,Major Mackenzie Road & Keele Street,Centre Based Child Care,No,Yes,SONGB01,20 Cranston Park Ave Suite 12-14,,Maple,Vaughan
638933.0464,4860480.1465,483,374270,EarlyON Springdale Park,,EarlyON Program,L3P 6M6,(905) 471-1620,,,Centre Based Child Care,No,No,EARL112,45 Norwich Drive,,"Markham, ON",Markham
639540.656,4870345.0,484,209781,St. Katharine Drexel B&A,The Village – Children’s Programs,Child Care Centre,L4A 1E4,(905) 471-8180,,Millard Street & Ninth Line,Centre Based Child Care,Yes,No,ST. K01,333 Glad Park Avenue,,Stouffville,Whitchurch-Stouffville
615866.332,4856773.108,485,336268,St Mary of the Angels,,Child Care Centre,L4H 0E4,(905) 859-9941,,Weston Rd and Teston Rd,Centre Based Child Care,No,No,ST MA01,351 Vellore Park Ave,,Woodbridge,Vaughan
631377.7333,4852494.9442,486,1117,St. Michael Child Care Centre,Among Friends Day Care Centre,Child Care Centre,L3T 4R6,(905) 552-0610 ,Ext.3,Don Mills Raod & Steeles Avenue,Centre Based Child Care,Yes,Yes,ST. M36,41 Simonston Boulevard,,Thornhill,Markham
639704.25,4859462.5,487,13025,St. Andrew's Co-operative Playschool,St. Andrew's Co-operative Playschool Inc.,Child Care Centre,L3P 1X5,(905) 472-1996,,Highway 48 & Highway 7,Centre Based Child Care,Yes,No,ST. A01,32 Main Street North,,Markham,Markham
624221.188,4857880.5,488,107005,St. Anne's School Age Program,YMCA of Greater Toronto,Child Care Centre,L4C 7N1,(905) 508-6698,,Bathurst Street & Major Mackenzie Drive,Centre Based Child Care,Yes,Yes,ST. A17,105 Don Head Village Boulevard,,Richmond Hill,Richmond Hill
610757.4019,4850731.3504,489,222206,St. Angela Merici,Kids Can Doodle Before And After School Program,Child Care Centre,L4H 1C3,(416) 434-9873,,Martingrove Road & Langstaff Road,Centre Based Child Care,Yes,Yes,ST. A18,8881 Martingrove Avenue,,Woodbridge,Vaughan
611678.907,4852642.47,490,259301,St. Andrew School Age Program,Among Friends Day Care Centre,Child Care Centre,L4H 1G5,(905) 552-0610 ,Ext.3,Rutherford Road & Islington Avenue,Centre Based Child Care,Yes,Yes,ST. A13,151 Forest Fountain Drive,,Woodbridge,Vaughan
615616.813,4854060.0,491,163540,St. Agnes of Assisi Child Care,Among Friends Day Care Centre,Child Care Centre,L4H 2A9,(905) 552-0610 ,Ext.3,Weston Road & Rutherford Road,Centre Based Child Care,Yes,Yes,ST. A12,120 La Rocca Avenue,,Woodbridge,Vaughan
627347.906,4854105.5,492,60005,St. Anthony Child Care Centre,Among Friends Day Care Centre,Child Care Centre,L3T 3L3,(905) 552-0610,,Yonge Street & Royal Orchard Boulevard,Centre Based Child Care,Yes,Yes,ST. A14,141 Kirk Drive,,Thornhill,Markham
640922.7052,4871012.4117,493,166112,St. Brigid Child Care,Among Friends Day Care Centre,Child Care Centre,L4A 5S2,(905) 552-0610,,Millard Street & 9th Line,Centre Based Child Care,Yes,Yes,ST. B06,223 Millard Street,,Stouffville,Whitchurch-Stouffville
630173.188,4907426.0,494,161748,Upper Canada Child Care at St. Bernadette CES,Upper Canada Creative Child Care Centres of Ontari,Child Care Centre,L0E 1R0,(905) 722-6734,,Dalton Road/Baseline,Centre Based Child Care,Yes,Yes,UPPER41,5279 Black River Road,,Sutton,Georgina
640045.705,4869296.645,495,366312,Upper Canada Child Care at St. Brendan CES,Upper Canada Creative Child Care Centres of Ontari,Child Care Centre,L4A 0Z6,(905) 642-0820,,9th Line/Main St,Centre Based Child Care,Yes,Yes,UPPER42,751 Hoover Park Drive,,Stouffville,Whitchurch-Stouffville
637403.9912,4854542.4399,496,8521,Upper Canada Child Care at St. Benedict CES,Upper Canada Creative Child Care Centres of Ontari,Child Care Centre,L3R 7E4,(905) 513-9081,,Steeles/Brimley,Centre Based Child Care,Yes,Yes,UPPER40,50 Aldergrove Drive,,Unionville,Markham
624771.813,4856772.75,497,111419,St. Charles Garnier Before and After School Progra,Family Day Care Services,Child Care Centre,L4C 5H5,(905) 508-7671,,Avenue Road & Carrville Road,Centre Based Child Care,Yes,Yes,ST. C02,16 Castlerock Drive,,Richmond Hill,Richmond Hill
614808.9273,4848252.1793,498,149028,St. Catherine of Sienna,,Child Care Centre,L4L 3J5,(905) 265-7458,,Terra Road & Pine Valley Drive,Centre Based Child Care,Yes,Yes,ST. C04,80 Terra Road,,Woodbridge,Vaughan
621015.4885,4856243.8692,499,346514,St. Cecilia School Age Program,Community of Maple Child Care Services,Child Care Centre,L6A 4P3,(905) 553-5752,,Keele Street & Rutherford Road,Centre Based Child Care,Yes,Yes,ST. C10,300 Peter Rupert Avenue,,Maple,Vaughan
611941.656,4849023.5,500,170456,St. Clement Before and After School,St. Gabriel Child Care Centre of Woodbridge,Child Care Centre,L4L 3Y1,(647) 618-3359,,Martin Grove Road & Highway 7,Centre Based Child Care,Yes,Yes,ST. C08,40 Bainbridge Avenue,,Vaughan,Vaughan
615658.75,4852672.25,501,207677,Upper Canada Child Care at St. Clare CES,Upper Canada Creative Child Care Centres of Ontari,Child Care Centre,L4L 8J5,(905) 850-5569,,Weston Road & Rutherford Road,Centre Based Child Care,Yes,Yes,UPPER43,391 Velmar Drive,,Woodbridge,Vaughan
619011.3201,4857223.4906,502,139911,St. David Day Care Centre for School Age Children,Among Friends Day Care Centre,Child Care Centre,L6A 3J7,(905) 552-0610,,Major Mackenzie Drive & Keele Street,Centre Based Child Care,Yes,Yes,ST. D03,240 Killian Road,,Maple,Vaughan
616383.3852,4854031.1992,503,210512,St. Emily Child Care,Among Friends Day Care Centre,Child Care Centre,L4H 2K8,(905) 552-0610,,Weston Road & Rutherford Road,Centre Based Child Care,Yes,Yes,ST. E07,60 Vellore Woods Boulevard,,Woodbridge,Vaughan
638304.7295,4860165.9167,504,70928,St. Edward Before & After School Program,The Village – Children’s Programs,Child Care Centre,L3P 7M8,(905) 294-8548,,McCowan Road & 16th Avenue,Centre Based Child Care,Yes,Yes,ST. E04,33 Cairns Drive,,Markham,Markham
624900.6422,4881574.5005,505,168401,St. Elizabeth Seton,,Child Care Centre,L3Y 8B3,(905) 265-7458,,Leslie Street/Yonge,Centre Based Child Care,Yes,Yes,ST. E08,960 Leslie Valley Drive,,Newmarket,Newmarket
637643.3399,4855937.4942,506,27376,St. Francis Xavier Before & After Child Care Prog.,Family Day Care Services,Child Care Centre,L3S 1Y4,(905) 472-9685,,Highglen Avenue & Brimley Road,Centre Based Child Care,Yes,Yes,ST. F01,223 Highglen Avenue,,Markham,Markham
615796.4285,4850551.1546,507,177246,St. Gabriel Child Care Centre,St. Gabriel Child Care Centre of Woodbridge,Child Care Centre,L4L 5S4,(905) 850-3358,,Weston Road & Highway 7,Centre Based Child Care,Yes,Yes,ST. G01,91 Fiori Drive,,Woodbridge,Vaughan
615960.9688,4851878.7686,508,240554,St. Gregory the Great Before & After School Program,St. Gabriel Child Care Centre of Woodbridge,Child Care Centre,L4L 6Z6,(905) 850-3358,,Weston Road & Langstaff Road,Centre Based Child Care,Yes,Yes,ST. G02,140 Greenpark Boulevard,,Woodbridge,Vaughan
619033.1161,4857572.2596,509,353662,St. Joan of Arc Child Care Centre,Community of Maple Child Care Services,Child Care Centre,L6A 1W9,(905) 832-7768,,Keele Street & Major Mackenzie Drive,Centre Based Child Care,Yes,Yes,ST. J01,1 St. Joan of Arc Avenue,,Maple,Vaughan
616057.875,4851111.5,510,126562,St. John Bosco Child Care Centre of Woodbridge,St. John Bosco Child Care Centre of Woodbridge,Child Care Centre,L4L 5N9,(905) 850-4618,,Weston Road & Langstaff Road,Centre Based Child Care,Yes,Yes,ST. J02,199 Belview Avenue,,Woodbridge,Vaughan
623110.568,4850978.3401,511,199175,St. Joseph The Worker Child Care Centre Inc.,St. Joseph The Worker Child Care Centre Inc.,Child Care Centre,L4J 5Y6,(905) 660-3527,,Centre Street & Dufferin Street,Centre Based Child Care,Yes,Yes,ST. J03,475 Brownridge Drive,,Thornhill,Vaughan
627122.719,4858557.5,512,103999,St. Joseph's Children's Academy,York Professional Care & Education Inc.,Child Care Centre,L4C 2H4,(905) 780-9857,,Bayview Avenue & Weldrick Road East,Centre Based Child Care,Yes,Yes,ST. J21,301 Roney Avenue,,Richmond Hill,Richmond Hill
622281.22,4871122.9522,513,143083,St. Joseph's Kids Club - Aurora,York Professional Care & Education Inc.,Child Care Centre,L4G 2E8,(905) 503-0260,,Murry Dr & Yonge St.,Centre Based Child Care,Yes,Yes,ST. J17,2 Glass Drive,,Aurora,Aurora
616864.9122,4856671.2796,514,265408,Upper Canada Child Care at St. James CES,Upper Canada Creative Child Care Centres of Ontari,Child Care Centre,L6A 3J7,(905) 832-7287,,Jane Street & Major Mackenzie,Centre Based Child Care,Yes,Yes,UPPER44,171 Mast Road,,Maple,Vaughan
621988.0021,4876259.2842,515,307401,Upper Canada Child Care at St. John Chrysostom CES,Upper Canada Creative Child Care Centres of Ontari,Child Care Centre,L3X 2S6,(905) 836-7291,,Mulock Drive & Yonge Street,Centre Based Child Care,Yes,Yes,UPPER46,800 Joe Persechini Drive,,Newmarket,Newmarket
623954.874,4874635.5,516,129630,St. Jerome YMCA Child Care,YMCA of Greater Toronto,Child Care Centre,L4G 7P3,(905) 751-1189,,Wellington Street & Bayview Avenue,Centre Based Child Care,Yes,Yes,ST. J11,20 Bridgenorth Drive,,Aurora,Aurora
642726.9445,4861948.8318,517,389856,St. Joseph Childrens Program,The Village – Children’s Programs,Child Care Centre,L6B 0J7,(905) 209-8886,,Markham Road & Highway 7,Centre Based Child Care,Yes,Yes,ST. J13,388 Whites Hill Avenue,,Markham,Markham
640282.625,4862644.75,518,21407,St. Julia Billiart School Age Program,The Village – Children’s Programs,Child Care Centre,L6E 1X5,(905) 209-1245,,9th Line & 16th Avenue,Centre Based Child Care,Yes,Yes,ST. J14,2070 Bur Oak Avenue,,Markham,Markham
633091.7887,4858487.515,519,71803,St. Justin Martyr Before & After School Program,The Village – Children’s Programs,Child Care Centre,L3R 8K4,(905) 471-8180,,Warden Avenue & Highway 7,Centre Based Child Care,Yes,Yes,ST. J15,140 Hollingham Road,,Unionville,Markham
624472.623,4860053.6312,520,96616,St. Mary Immaculate Before & After School Program,Kids Can Doodle Before And After School Program,Child Care Centre,L4C 9N9,(416) 254-6406,,Yonge Street & Oxford Street,Centre Based Child Care,Yes,Yes,ST. M05,161 Regent Street,,Richmond Hill,Richmond Hill
635237.25,4854039.0,521,38651,St. Mary of Leuca Daycare,Daughters of St. Mary Leuca,Child Care Centre,L3R 3J4,(905) 475-2536,,Steeles Avenue & Birchmount Road,Centre Based Child Care,Yes,Yes,ST. M34,290 Risebrough Circuit,,Markham,Markham
639540.656,4870345.0,522,209781,St. Marks Child Care Centre - Stouffville,Among Friends Day Care Centre,Child Care Centre,L4A 1E4,(905) 552-0610 ,Ext.3,Stouffville Road & 9th Line,Centre Based Child Care,Yes,Yes,ST. M31,333 Glad Park Avenue,,Stouffville,Whitchurch-Stouffville
608772.8592,4862523.5721,523,225714,Upper Canada Child Care at St. Mary CES,Upper Canada Creative Child Care Centres of Ontari,Child Care Centre,L0G 1N0,(905) 859-7814,,Highway 27 & King Road,Centre Based Child Care,Yes,Yes,UPPER47,75 Greenside Drive,,Nobleton,King
623723.7101,4863213.0758,524,83740,St. Marguerite D'Youville,Among Friends Day Care Centre,Child Care Centre,L4E 4L2,(905) 552-0610,,Yonge Street & Gamble Road,Centre Based Child Care,Yes,Yes,ST. M30,121 Rollinghill Road,,Richmond Hill,Richmond Hill
632313.2547,4859282.6402,525,49343,St. Monica Child Care Centre,Kids Connection Care & Education,Child Care Centre,L6C 1V1,(905) 887-9120,,Woodbine & 16th Ave,Centre Based Child Care,Yes,Yes,ST. M25,290 Calvert Road,,Markham,Markham
615866.332,4856773.108,526,336268,St. Mary of the Angels Child Care Centre,Among Friends Day Care Centre,Child Care Centre,L4N 0E4,(905) 552-0610 ,Ext.3,Major MacKenzie Drive & Weston Road,Centre Based Child Care,Yes,Yes,ST. M32,351 Vellore Park Avenue,,Woodbridge,Vaughan
614505.2412,4853609.7549,527,369422,St. Michael the Archangel School Age Program,Community of Maple Child Care Services,Child Care Centre,L4H 3K5,(905) 553-0104,,Rutherford Road & Pine Valley Drive,Centre Based Child Care,Yes,Yes,ST. M22,161 Via Campanile,,Vaughan,Vaughan
613216.6534,4847563.9742,528,137325,St. Mark's Child Care Centre,St. Mark's Child Care Centre,Child Care Centre,L4L 1Y5,(905) 851-4851,,Highway 7 & Kipling Avenue,Centre Based Child Care,Yes,Yes,ST. M16,7465 Kipling Avenue Building 2,,Woodbridge,Vaughan
613644.0,4850751.5,529,221803,St. Margaret Mary Before & After School Program,St. Gabriel Child Care Centre of Woodbridge,Child Care Centre,L4L 2W8,(647) 987-3358,,Islington Avenue & Langstaff Road,Centre Based Child Care,Yes,Yes,ST. M21,30 Margaret Mary Road,,Vaughan,Vaughan
611809.688,4848123.75,530,259814,St. Peter's Child Care Centre,Sisters of the Sacred Heart of the Incarnate Word,Child Care Centre,L4L 2C6,(905) 851-2422,,Martingrove Road & Highway 7,Centre Based Child Care,Yes,Yes,ST. P03,7784 Martingrove Road,,Woodbridge,Vaughan
611342.75,4853335.75,531,249783,Upper Canada Child Care at St. Padre Pio CES,Upper Canada Creative Child Care Centres of Ontari,Child Care Centre,L4H 1W9,(905) 893-2623,,Major Mackenzie Drive & Islington Avenue,Centre Based Child Care,Yes,Yes,UPPER48,770 Napa Valley Avenue,,Woodbridge,Vaughan
605273.0551,4872840.5804,532,304495,St. Patrick Before and After School Program,Centered on Children Child Care Centre,Child Care Centre,L0G 1T0,(416) 697-7739,,Highway 27 & Highway 9,Centre Based Child Care,Yes,Yes,ST. P08,51 Western Avenue,,Schomberg,King
638875.813,4858807.0,533,14338,St. Patrick Before & After School Program,The Village – Children’s Programs,Child Care Centre,L3P 1B6,(647) 962-7903,,McCowan Road & Highway 7,Centre Based Child Care,Yes,Yes,ST. P09,5607 Highway 7,,Markham,Markham
622555.063,4877522.25,534,115434,St. Paul School Age Program,Community of Maple Child Care Services,Child Care Centre,L3Y 1B2,(905) 895-7575,,,Centre Based Child Care,Yes,No,ST. P10,140 William Roe Blvd,,Newmarket,Newmarket
619319.1768,4860845.0813,535,367762,St. Raphael of the Archangel Child Care Centre,Among Friends Day Care Centre,Child Care Centre,L6A 3T6,(905) 552-0610 ,Ext.3,Keele Street & Kirby Road,Centre Based Child Care,Yes,Yes,ST. R05,131 Ravineview Drive,,Maple,Vaughan
629661.156,4853536.5,536,32088,Upper Canada Child Care at St. Rene Goupil-St. Luke CES,Upper Canada Creative Child Care Centres of Ontari,Child Care Centre,L3T 6K7,(905) 889-1627,,John/Leslie,Centre Based Child Care,Yes,Yes,UPPER49,135 Green Lane,,Thornhill,Markham
610637.563,4852891.5,537,130254,St. Stephen Child Care,Among Friends Day Care Centre,Child Care Centre,L4H 1Y8,(905) 552-0610,,Islington Avenue & Rutherford Road,Centre Based Child Care,Yes,Yes,ST. S03,451 Napa Valley Avenue,,Woodbridge,Vaughan
621158.875,4900706.5,538,131770,Upper Canada Child Care at St. Thomas Aquinas CES,Upper Canada Creative Child Care Centres of Ontari,Child Care Centre,L4P 3C8,(905) 476-0026,,Metro Road/Church,Centre Based Child Care,Yes,Yes,UPPER50,262 Old Homestead Road,,Keswick,Georgina
615306.7722,4854972.7336,539,249985,Upper Canada Child Care at St. Veronica CES,Upper Canada Creative Child Care Centres of Ontari,Child Care Centre,L4H 2S8,(905) 653-4859,,Major Mackenzie Drive & Weston Road,Centre Based Child Care,Yes,Yes,UPPER51,171 Maria Antonia Road,,Woodbridge,Vaughan
626408.885,4858125.648,540,328740,Steel Kids' Day Care-Richmond Hill,Steel Kids' Day Care-Richmond Hill,Child Care Centre,L4C 9Y9,(905) 508-7423,,Yonge Street & Weldrick Road,Centre Based Child Care,Yes,Yes,STEEL01,105 Weldrick Road East,,Richmond Hill,Richmond Hill
627705.813,4857111.5,541,416273,Step by Step Learning Academy,Step by Step Learning Academy Inc.,Child Care Centre,L4B 3M9,(905) 747-0001,,,Centre Based Child Care,Yes,Yes,STEP 03,9116 Bayview Avenue,,Richmond Hill,Richmond Hill
625393.7767,4878015.3334,542,395457,Stickwood Walker Child Care Centre,Denison Child Care,Child Care Centre,L3X 3E7,(905) 836-0144,,Mulock Drive & Leslie Street,Centre Based Child Care,Yes,Yes,STICK01,605 Fernbank Road,,Newmarket,Newmarket
625048.2751,4877088.3034,543,226984,Stonehaven Before and After School Program,York Child Development and Family Services Inc.,Child Care Centre,L3X 2K3,(905) 716-6189,,Bayview Avenue/Stonehaven Ave,Centre Based Child Care,Yes,Yes,STONE01,875 Stonehaven Avenue,,Newmarket,Newmarket
636858.4915,4861141.4518,544,336997,Stonebridge Before & After School Program,YMCA of Greater Toronto,Child Care Centre,L4C 2P6,(416) 454-5625,,16th Avenue & Ninth Line,Centre Based Child Care,Yes,Yes,STONE04,168 Stonebridge Drive,,Markham,Markham
627776.875,4854218.5,545,72314,Upper Canada Child Care at Stornoway Cresent PS,Upper Canada Creative Child Care Centres of Ontari,Child Care Centre,L3T 3X7,(905) 707-6805,,John/ Bayview Avenue,Centre Based Child Care,Yes,Yes,UPPER52,36 Stornoway Crescent,,Thornhill,Markham
641425.4786,4870396.9782,546,211085,Stouffville Village Child Care Centre,Graydon Hall Nursery Schools Ltd.,Child Care Centre,L4A 6A8,(905) 640-0997,,Main Street & 10th Line,Centre Based Child Care,Yes,Yes,STOUF11,6601 Main Street,,Stouffville,Whitchurch-Stouffville
623159.1872,4878522.2368,547,163220,Stuart Scott YMCA School Age,YMCA of Greater Toronto,Child Care Centre,L3Y 4K5,(647) 963-9989,,Eagle Street & Lorne Avenue,Centre Based Child Care,Yes,Yes,STUAR02,247 Lorne Avenue,,Newmarket,Newmarket
633968.313,4854127.5,548,69754,Sunrise Montessori School,1963104 Ontario Inc.,Child Care Centre,L3R 3J8,(905) 477-2833,,Warden and Denison,Centre Based Child Care,Yes,Yes,SUNRI04,180 Amber Street,,Markham,Markham
621097.188,4872839.0,549,260729,Talent Montessori & Day Nursery,Talent Montessori & Day Nursery Inc.,Child Care Centre,L4G 5C1,(905) 503-8080,,Yonge Street & Wellington Street,Centre Based Child Care,Yes,Yes,TALEN01,69 McLeod Drive ,Unit 4-5,Aurora,Aurora
625370.063,4859570.5,550,99919,Team Child Care Center,Team Childcare Center LTD.,Child Care Centre,L4C 3B8,(416) 912-5737,,Yonge Street & Major Mackenzie Dr E,Centre Based Child Care,No,Yes,TEAM 01,10300 Yonge Street,,Richmond Hill,Richmond Hill
615486.75,4848828.828,551,247465,Tender Treasures Montessori School,Tender Treasures Montessori School of Woodbridge Inc.,Child Care Centre,L4L 5Y3,(905) 264-3129,,Highway 7 & Marycroft Drive,Centre Based Child Care,Yes,Yes,TENDE03,171 Marycroft Avenue,,Vaughan,Vaughan
621368.589,4876451.849,552,175128,Terry Fox School Age,Denison Child Care,Child Care Centre,L3X 2T1,(905) 715-8271,,Sawmill Valley Rd/Yonge Street,Centre Based Child Care,Yes,Yes,TERRY01,161 Sawmill Valley Drive,,Newmarket,Newmarket
616791.075,4857688.288,553,336996,Upper Canada Child Care at Teston Village PS,Upper Canada Creative Child Care Centres of Ontari,Child Care Centre,L6A 3G1,(905) 417-4920,,Teston Road & Jane Street,Centre Based Child Care,Yes,Yes,UPPER53,80 Murray Farm Lane,,Vaughan,Vaughan
623441.09,4866676.6563,554,76017,The Children's Montessori Academy,The Children's Montessori Academy And Private,Child Care Centre,L4E 2W2,(905) 773-1234,,Yonge Street & King Road,Centre Based Child Care,No,No,THE C08,201 King Road,,Richmond Hill,Richmond Hill
612035.1058,4852896.8568,555,366499,Sister Carmelina's Preschool Academy,The Congregation of the Passionist Sisters of San Paolo Della Croce,Child Care Centre,L4H 3C4,(905) 552-1431,,Islington Avenue & Rutherford Road,Centre Based Child Care,Yes,Yes,SISTE03,1431 Clarence Street,,Woodbridge,Vaughan
624941.5,4861831.25,556,87490,The Early Years Day Care Centre,The Early Years Day Care Centre Ltd.,Child Care Centre,L4S 1H9,(905) 787-1502,,Yonge Street and Brookside Road,Centre Based Child Care,Yes,Yes,THE E46,11130 Yonge Street ,Unit 1,Richmond Hill,Richmond Hill
624941.5,4861831.25,557,87490,The Early Years,The Early Years Day Care Centre Ltd.,Child Care Centre,L4S 1H9,(905) 787-1502,,Yonge Street and Brookside Road,Centre Based Child Care,Yes,Yes,THE E47,11130 Yonge Street ,Unit 2,Richmond Hill,Richmond Hill
624925.0729,4850229.9001,558,196371,The Joe Dwek Ohr Haemet Early Years,The Joe Dwek Ohr Haemet Sephardic School,Child Care Centre,L4J 8K3,(905) 669-7653 ,Ext.225,Bathurst Street & Steeles Avenue West,Centre Based Child Care,Yes,Yes,THE J01,7026 Bathurst Street,,Thornhill,Vaughan
622385.7222,4879090.1253,559,250088,The Moppett School Day Care,516068 Ontario Ltd.,Child Care Centre,L3Y 4R7,(905) 898-4391,,Davis Drive/Parkside,Centre Based Child Care,Yes,Yes,THE M03,47 Parkside Drive,,Newmarket,Newmarket
623386.6056,4878912.4908,560,353562,The Magic Kingdom Learning Centre,The Magic Kingdom Learning Centre Inc.,Child Care Centre,L3Y 4C1,(905) 836-4350,,Main Street & Botsford Street,Centre Based Child Care,Yes,Yes,THE M07,179 Church Street,,Newmarket,Newmarket
640919.6095,4870259.3196,561,242251,The Progressive Montessori Academy Inc.- South Campus,The Progressive Montessori Academy Inc.,Child Care Centre,L4A 1G4,(416) 220-8070,,Park Drive & Main Street,Nursery School Child Care,Yes,No,THE P01,6411 Main Street,,Stouffville,Whitchurch-Stouffville
628660.25,4853143.25,562,2687,Thornhill Child Care Centre,Family Day Care Services,Child Care Centre,L3T 4P1,(905) 881-3129,,Bayview Avenue & John Street,Centre Based Child Care,Yes,Yes,THORN01,7755 Bayview Avenue,,Thornhill,Markham
626462.7625,4852421.3811,563,184662,Thornhill Nursery School & Kindergarten,Thornhill Nursery School,Child Care Centre,L4J 1Y9,(905) 889-4543,,Centre Street & Yonge Street,Centre Based Child Care,Yes,No,THORN02,140 Brooke Street,,Thornhill,Vaughan
622754.1667,4853422.698,564,166481,Thornhill Woods Daycare,2171466 Ontario Ltd.,Child Care Centre,L4J 0E1,(905) 886-4386,,Langstaff Street & Highway 7,Centre Based Child Care,Yes,Yes,THORN03,1200 Highway 7 ,Unit 10,Vaughan,Vaughan
622157.6095,4854830.8601,565,369462,Thornhill Woods Daycare - Dufferin,2349479 Ontario Ltd.,Child Care Centre,L4J 0H9,(905) 889-4386,,Dufferin Street & Autumn Hill Drive,Centre Based Child Care,Yes,Yes,THORN07,9001 Dufferin Street ,Unit 5A,Thornhill,Vaughan
623247.5991,4894966.8808,566,251424,EarlyON Thornlodge Park,,EarlyON Program,L4P 4E5,(905) 476-3834,,Joe Dales drive and Thornlodge Drive,Centre Based Child Care,No,No,EARL122,117 Joe Dales drive,,Kesiwck,Georgina
622066.6098,4854192.9323,567,206596,TIKI'S EDUCATION CENTRE INC,TIKI'S EDUCATION CENTRE INC,Child Care Centre,L4K 5C5,(437) 880-0870,,Confederation & Dufferin Street,Centre Based Child Care,Yes,Yes,TIKI 01,29 Floral Parkway Suite 2 Building B,,Concord,Vaughan
624320.156,4876357.5,568,251690,Tiny Hoppers - Newmarket,2430508 Ontario Inc.,Child Care Centre,L3X 2M2,(905) 251-7722,,Brooker Ridge & Bayview Avenue,Centre Based Child Care,Yes,Yes,TINY 10,525 Brooker Ridge ,Unit 10,Newmarket,Newmarket
640252.688,4870103.75,569,266267,Tiny Bubbles Childcare,Monika Arpasi o/a Tiny Bubbles Childcare,Child Care Centre,L4A 1A6,(905) 591-4121,,Main Street & Albert Street,Centre Based Child Care,Yes,Yes,TINY 09,6128-6130 Main Street,,Stouffville,Whitchurch-Stouffville
614818.4686,4855304.7211,570,389343,Tiny Treasures Learning and Child Care Centre Inc.,Tiny Treasures Learning and Child Care Centre Inc.,Child Care Centre,L4H 4G1,(905) 879-8469,,Major Mackenzie Drive & Vellore Avenue,Centre Based Child Care,Yes,Yes,TINY 11,"3971 Major Mackenzie Drive; ",Unit 4 and 5,Woodbridge,Vaughan
619003.8047,4860079.0413,571,212670,Together We Grow Learning and Child Care Centre,Together We Grow Learning & Childcare Centre Inc.,Child Care Centre,L6A 1S1,(905) 832-8688,,Teston Road & Keele Street,Centre Based Child Care,Yes,Yes,TOGET01,11191 Keele Street,,Maple,Vaughan
629135.044,4853408.626,572,311661,Torah Tots Nursery,Chabad Lubavitch of Markham,Child Care Centre,L3T 6K6,(905) 886-0420 ,Ext.225,Bayview Avenue & Steeles Avenue,Centre Based Child Care,Yes,Yes,TORAH02,83 Green Lane,,Thornhill,Markham
636104.829,4854969.565,573,64212,Town Centre Montessori Private Schools,Town Centre Group Inc.,Child Care Centre,L3R 0V3,(905) 474-3434,,Kennedy Road & Denison Street,Centre Based Child Care,No,Yes,TOWN 08,76 Amarillo Avenue,,Markham,Markham
628154.9649,4855505.6406,574,118054,Lauremont Schools,Lauremont Schools,Child Care Centre,L4B 3M7,(905) 889-6882 ,Ext.2229,Bayview Avenue & Highway 7,Centre Based Child Care,No,No,LAURE01,8569 Bayview Avenue,,Richmond Hill,Richmond Hill
622630.7759,4863495.3808,575,368213,Tower Hill Child Care Centre,Tower Hill Child Care Centre Inc.,Child Care Centre,L4E 0T8,(905) 237-7360 ,Ext.221,Bathurst Street & Tower Hill Road,Centre Based Child Care,Yes,Yes,TOWER04,370 Tower Hill Road,,Richmond Hill,Richmond Hill
630277.25,4856206.5,576,114025,City of Richmond Hill - Community Services Department,Town of Richmond Hill,Child Care Centre,L4B 3P4,(905) 771-9996 ,Ext.6563,East Beaver Creek Drive & Highway 7,Centre Based Child Care,Yes,No,CITY 12,225 East Beaver Creek Road 8th floor,,Richmond Hill,Richmond Hill
623514.1817,4877683.8948,577,184710,"Town of Newmarket; Recreation & Culture",Corporation of the Town of Newmarket,Child Care Centre,L3Y 4X7,(905) 895-5193,,Mulock Drive & Bayview Avenue,Centre Based Child Care,Yes,No,TOWN 21,395 Mulock Drive  PO BOX 328 Station Main,,Newmarket,Newmarket
624199.7415,4873792.5443,578,349002,Town of Aurora,The Corporation of the Town of Aurora,Child Care Centre,L4G 6J1,(905) 726-4770 ,Ext.3502,Bayview Avenue & Wellington Street,Centre Based Child Care,Yes,No,TOWN 20,100 John West Way,,Aurora,Aurora
633626.868,4857258.7016,579,364122,City of Markham Recreation Program,The Corporation of the City of Markham,Child Care Centre,L3R 9W3,(905) 477-7000,,Warden Avenue & Highway 7,Centre Based Child Care,Yes,No,CITY 11,101 Town Centre Boulevard,,Markham,Markham
640817.143,4869739.1695,580,351402,Town of Whitchurch Stouffville - Leisure Centre,The Corporation of the Town of Whitchurch-Stouffville,Child Care Centre,L4A 4K1,(905) 642-7529 ,Ext.5324,Main Street & Park Drive South,Centre Based Child Care,Yes,No,TOWN 19,2 Park Drive,,Stouffville,Whitchurch-Stouffville
623888.313,4862210.25,581,86303,Trillium Woods Before & After School Program,Le Club Child Care Program,Child Care Centre,L4S 2P3,(905) 881-8585,,Gamble Road & Bathurst Street,Centre Based Child Care,Yes,Yes,TRILL01,18 Alamo Heights Drive,,Richmond Hill,Richmond Hill
635579.9303,4855582.9041,582,20834,Trillium School,Trilac Educational Enterprise Limited,Child Care Centre,L3R 0J2,(905) 946-1181,,Kennedy Road & 14th Avenue,Centre Based Child Care,Yes,Yes,TRILL04,4277 14th Avenue,,Markham,Markham
631622.3802,4858404.9956,583,63311,Trinity Montessori School,1191238 Ontario Limited,Child Care Centre,L3R 0K1,(905) 948-8993,,Woodbine Avenue & 16th Avenue,Centre Based Child Care,No,No,TRINI01,9211 Woodbine Avenue,,Markham,Markham
624214.234,4877604.334,584,374462,Two Trees Child Care Centre Inc.,Two Trees Child Care Centre Inc.,Child Care Centre,L3Y 8R9,(289) 803-3020,,Bayview Avenue & Mulock Drive,Centre Based Child Care,Yes,Yes,TWO T14,570 Mulock Drive ,Unit 1,Newmarket,Newmarket
635824.844,4858158.0,585,21644,Unionville Co-Op Nursery School,Unionville Co-Operative Nursery School Incorporated,Child Care Centre,L3R 2G3,(905) 474-0403,,Highway 7 & Kennedy Road,Nursery School Child Care,Yes,Yes,UNION11,131 Main Street,,Unionville,Markham
637096.344,4857343.0,586,43853,Unionville Meadows School-Age Childcare,High Birch Childcare & Learning Centre Inc.,Child Care Centre,L3R 5C8,(905) 479-3993,,Highway 7 & Kennedy Road,Centre Based Child Care,Yes,Yes,UNION03,355 South Unionville Avenue,,Markham,Markham
634360.8896,4858947.7782,587,23522,Unionville Discovery Preschool,Unionville Discovery Preschool Inc.,Child Care Centre,L3R 1Z9,(905) 477-8377,,Village Parkway Drive & Carlton Road,Centre Based Child Care,Yes,Yes,UNION08,100 Carlton Road ,Unit 1,Markham,Markham
635273.1755,4860343.9782,588,42861,Unionville Montessori School Church,1938420 Ontario Inc.,Child Care Centre,L6C 1N6,(905) 474-9888,,Kennedy Road & 16th Avenue,Centre Based Child Care,No,No,UNION12,9400 Kennedy Road North,,Markham,Markham
635328.1078,4859877.6657,589,46126,Unionville Montessori School South,1938420 Ontario Inc.,Child Care Centre,L3R 0M1,(905) 474-9888 ,Ext.203,Kennedy Road & 16th Avenue,Centre Based Child Care,No,No,UNION13,4484 16th Avenue East,,Markham,Markham
622146.7878,4872664.2337,590,126706,Upper Canada Child Care at Wellington PS,Upper Canada Creative Child Care Centres of Ontari,Child Care Centre,L4P 2P3,(905) 727-9622,,Wellington Street West/Yonge,Centre Based Child Care,Yes,Yes,UPPER01,125 Wellington Street West,,Aurora,Aurora
616925.678,4851829.1,591,273349,Uptown Montessori School,Uptown Montessori School Inc.,Child Care Centre,L4L 9T1,(905) 882-3090,,Langstaff Road & Weston Road,Centre Based Child Care,Yes,Yes,UPTOW02,61 Creditview Road ,Unit 2,Woodbridge,Vaughan
616375.3882,4853789.239,592,389409,Vaughan Kids Daycare Inc. 1,Vaughan Kids Daycare Inc.,Child Care Centre,L4H 3T7,(905) 417-3633,,Vellore Woods Avenue & Rutherford Road,Centre Based Child Care,Yes,Yes,VAUGH18,135 Hawkview Boulevard,,Vaughan,Vaughan
619950.6394,4856925.2278,593,340142,Vaughan City Hall YMCA Child Care,YMCA of Greater Toronto,Child Care Centre,L6A 1T1,(905) 832-5204,,Major Mackenzie Drive West & Keele Street,Centre Based Child Care,Yes,Yes,VAUGH07,2141 Major Mackenzie Drive,,Maple,Vaughan
616432.8029,4853799.8223,594,389410,Vaughan Kids Daycare Inc.- 2,Vaughan Kids Daycare Inc.,Child Care Centre,L4H 3T7,(905) 417-3633,,Rutherford Road & Hghway 400,Centre Based Child Care,Yes,Yes,VAUGH20,145 Hawkview Boulevard ,Unit 3,Vaughan,Vaughan
612698.3273,4848212.3613,595,149370,Vaughan Montessori School,Vaughan Montessori School Inc.,Child Care Centre,L4L 1T3,(905) 851-8881,,Highway 7 & Kipling Avenue,Centre Based Child Care,Yes,Yes,VAUGH32,5316 Highway 7,,Woodbridge,Vaughan
616137.688,4854908.5,596,249627,Vellore Woods Before & After School Program,Le Club Child Care Program,Child Care Centre,L4H 2T9,(905) 881-8585,,Weston Rd & Major Mackenzie Dr,Centre Based Child Care,Yes,Yes,VELLO01,115 Starling Boulevard,,Woodbridge,Vaughan
631110.4841,4860873.4553,597,39858,Victoria Square Schoolhouse Early Childhood Education Centre,6855181 Canada Inc.,Child Care Centre,L6C 1J1,(905) 534-2201,,Major MacKenzie Drive & Highway 404,Centre Based Child Care,Yes,Yes,VICTO05,10137 Victoria Square Boulevard,,Markham,Markham
630442.7646,4862794.9209,598,394063,Upper Canada Child Care Victoria Square PS,Upper Canada Creative Child Care Centres of Ontari,Child Care Centre,L6C 0G5,(905) 534-4600,,Elgin Mills Road & Woodbine Avenue,Centre Based Child Care,Yes,Yes,UPPER55,50 Prince of Wales Drive,,Markham,Markham
629312.6463,4859618.4009,599,99666,Victoria Education Centre - Leslie Street,Victoria Education Centre Inc.,Child Care Centre,L4B 3Y3,(905) 770-7888,,Leslie Street & Major Mackenzie Drive,Centre Based Child Care,Yes,Yes,VICTO09,9901 Leslie Street,,Richmond Hill,Richmond Hill
624786.629,4873205.1583,600,305117,Victoria Montessori School,2512567 Ontario Inc.,Child Care Centre,L4G 6X9,(905) 726-2110,,Bayview Aveune & Wellington Street East,Centre Based Child Care,Yes,Yes,VICTO10,14 Stone Road,,Aurora,Aurora
622805.3641,4858671.1874,601,402773,Upper Canada Child Care Viola Desmond PS,Upper Canada Creative Child Care Centres of Ontari,Child Care Centre,L6A 4W7,(905) 553-1240,,Bathurst & Major Mackenzie,Centre Based Child Care,Yes,Yes,UPPER56,25 Farrell Road,,Maple,Vaughan
618870.7109,4860742.8,602,262239,Shining Light Montessori,Bertret Corporation,Child Care Centre,L6A 4E1,(905) 832-2045,,Keele Street & Kirby Road,Centre Based Child Care,Yes,Yes,SHINI04,11399 Keele Street ,Unit 1,Vaughan,Vaughan
626177.188,4855069.0,603,118622,VOV Academy of Learning & Montessori School,Voice of the Vedas Cultural Sabha Inc.,Child Care Centre,L4C 6Z4,(905) 886-1724,,Yonge Street/Garden Ave,Centre Based Child Care,Yes,Yes,VOV A02,8640 Yonge Street,,Richmond Hill,Richmond Hill
626793.4225,4859218.9274,604,100932,Walter Scott First Base,YMCA of Greater Toronto,Child Care Centre,L4C 1J2,(905) 303-6260,,Bayview Avenue & Major Mackenzie Drive,Centre Based Child Care,Yes,Yes,WALTE03,500 Major MacKenzie Drive East,,Richmond Hill,Richmond Hill
616171.243,4857412.918,605,343027,We Are Family Children's Centre Vaughan,We Are Family Children's Centre Vaughan Inc.,Child Care Centre,L4H 0Z4,(416) 751-8222,,Teston Road & Highway 400,Centre Based Child Care,Yes,Yes,WE AR01,551 Cityview Boulevard ,Unit 10-14,Woodbridge,Vaughan
622970.049,4860044.676,606,336968,We Care Childcare,We Care Childcare Ltd.,Child Care Centre,L6A 4S9,(905) 832-3000,,Bathurst Street & Teston Road,Centre Based Child Care,Yes,Yes,WE CA01,815 Teston Road,,Maple,Vaughan
620986.6681,4884688.9145,607,254031,Wee Watch  Private Home Day Care - Newmarket,Main Street Day Care Services Inc.,Child Care Centre,L9N 1E8,(905) 953-9902,,Yonge Street & Beckett,Home Based  Child Care,Yes,Yes,WEE W01,9 McQuaid Court,,Holland Landing,East Gwillimbury
620855.625,4849334.0,608,156117,Wee Watch - Terrace Woods,Terrace Woods Day Care Services Inc.,Child Care Centre,L4K 1Z8,(647) 933-1153,,Weston Road & Langstaff Road,Home Based  Child Care,Yes,Yes,WEE W06,"7250 Keele Street, ",Unit 387,Vaughan,Vaughan
632901.813,4857589.0,609,45165,Wee Watch - Trothen Circle Day Care Services,Trothen Circle Day Care Services Inc.,Child Care Centre,L3R 9X7,(905) 479-5789,,Rodick Road & Apple Creek Boulevard,Home Based  Child Care,Yes,Yes,WEE W09,445 Apple Creek Boulevard Suite 201,,Markham,Markham
632901.813,4857589.0,610,45165,Wee Watch Private Home Day Care - Unionville,The York Region Day Care Hotline Inc.,Child Care Centre,L3R 9X7,(905) 479-9671,,Apple Creek Boulevard & Rodick Road,Home Based  Child Care,Yes,Yes,WEE W04,445 Apple Creek Boulevard Suite 201,,Markham,Markham
640995.688,4869241.5,611,268962,Upper Canada Child Care at Wendat Village PS,Upper Canada Creative Child Care Centres of Ontari,Child Care Centre,L4A 0J8,(905) 640-6306,,Reeves Way Boulevard & Hoover Park Drive,Centre Based Child Care,Yes,Yes,UPPER57,99 Reeves Way Boulevard,,Stouffville,Whitchurch-Stouffville
624573.374,4850690.5,612,137437,Westminster First Base,YMCA of Greater Toronto,Child Care Centre,L4J 2P3,(416) 471-8111,,Milner Gate & Mullen Drive,Centre Based Child Care,Yes,Yes,WESTM03,366 Mullen Drive,,Thornhill,Vaughan
622839.288,4899760.8124,613,211737,Upper Canada Child Care at W.J. Watson PS,Upper Canada Creative Child Care Centres of Ontari,Child Care Centre,L4P 3P2,(905) 476-5437,,Woodbine Avenue & Wexford Drive,Centre Based Child Care,Yes,Yes,UPPER58,162 Carrick Avenue,,Keswick,Georgina
631269.7658,4871560.4653,614,220740,Whitchurch Highlands YMCA Before and After School Program,YMCA of Greater Toronto,Child Care Centre,L4A 7X5,(905) 640-7632,,Warden Avenue & Bloomington Road,Centre Based Child Care,Yes,Yes,WHITC01,13812 Warden Avenue,,Whitchurch-Stouffville,Whitchurch-Stouffville
641222.4024,4859436.7205,615,18565,Upper Canada Child Care at William Armstrong PS,Upper Canada Creative Child Care Centres of Ontari,Child Care Centre,L3P 3G6,(905) 471-4099,,Highway 7 & Markham Road,Centre Based Child Care,Yes,Yes,UPPER59,11 Major Buttons Drive,,Markham,Markham
628823.7328,4854127.0018,616,33944,Willowbrook YMCA School Age,YMCA of Greater Toronto,Child Care Centre,L3T 4X6,(905) 832-5204,,Bayview Avenue & John Street,Centre Based Child Care,Yes,Yes,WILLO04,45 Willowbrook Avenue,,Thornhill,Markham
623316.0606,4852242.9511,617,213671,Upper Canada Child Care at Wilshire ES,Upper Canada Creative Child Care Centres of Ontari,Child Care Centre,L4J 7S8,(905) 709-2273,,Dufferin/Centre St,Centre Based Child Care,Yes,Yes,UPPER60,265 Beverly Glen Boulevard,,Thornhill,Vaughan
622468.313,4867802.75,618,75306,Windham Ridge YMCA Before & After School Age Program,YMCA of Greater Toronto,Child Care Centre,L4E 3Y4,(416) 561-5900,,Yonge Street & Bloomington Road,Centre Based Child Care,Yes,Yes,WINDH02,32 Red Cardinal Trail,,Richmond Hill,Richmond Hill
622964.0253,4872639.1476,619,148890,Wisdom Village Montessori School,Wisdom Village Montessori School Inc.,Child Care Centre,L4G 1M3,(647) 622-2138,,Yonge St & Wellington St E,Centre Based Child Care,No,No,WISDO01,15117 Yonge Street ,Unit 1,Aurora,Aurora
631556.21,4855659.18,620,18631,Wishing Well Montessori Schools,,Child Care Centre,L3R 9R4,(905) 470-9751,,Highway 7 & Woodbine Avenue,Centre Based Child Care,No,Yes,WISHI01,30 - 455 Cochrane Drive,,Markham,Markham
638585.5601,4862022.1886,621,337387,Upper Canada Child Care at Wismer PS,Upper Canada Creative Child Care Centres of Ontari,Child Care Centre,L6E 1E6,(905) 202-4310,,16th Avenue & Highway 48,Centre Based Child Care,Yes,Yes,UPPER61,171 Mingay Avenue,,Markham,Markham
622260.2419,4849147.746,622,357022,Wonderland Day Care Inc.,Wonderland Home Day Care Inc.,Child Care Centre,L4K 1E8,(905) 760-9607,,Steeles Avenue/Alness Street,Centre Based Child Care,Yes,Yes,WONDE01,1301 Alness Street,,Vaughan,Vaughan
618119.036,4852763.703,623,259693,Wonderland Child Care Centre,2264821 Ontario Inc.,Child Care Centre,L4K 2M9,(289) 597-5737,,Jane Street & Rutherford Road,Centre Based Child Care,Yes,Yes,WONDE04,8750 Jane Street ,Unit 18,Concord,Vaughan
613071.625,4848458.5,624,200932,Woodbridge Public School Child Care Centre,Centered on Children Child Care Centre,Child Care Centre,L4L 1J7,(647) 746-5437,,Hwy # 7 & Kipling Avenue,Centre Based Child Care,Yes,Yes,WOODB02,60 Burwick Avenue,,Woodbridge,Vaughan
642114.189,4860697.4953,625,63689,Woodhaven Junior Y,YMCA of Greater Toronto,Child Care Centre,L6B 1E1,(905) 472-3320 ,Ext.534,Highway 7 & 9th Line,Centre Based Child Care,Yes,Yes,WOODH02,380 Church Street,,Markham,Markham
634538.1841,4855391.3576,626,296880,Yip's Music & Montessori School (Markham),Yip's Children's Choral & Performing Arts Centre,Child Care Centre,L3R 9Y1,(905) 513-0955 ,Ext.2300,Warden Avenue & 14th Avenue,Centre Based Child Care,No,Yes,YIP S02,28 Crown Steel Drive ,Unit 19,Markham,Markham
637062.313,4855929.0,627,47612,Yip's Music & Montessori School - Unionville,Yip's Music & Montessori Elementary Private School Inc.,Child Care Centre,L3R 8G2,(905) 752-0275 ,Ext.2200,14th Avenue & Brimley Road,Centre Based Child Care,No,Yes,YIP S05,100 Lee Avenue,,Unionville,Markham
624483.938,4858641.75,628,103123,Mackenzie Health Child Care & Early Learning Centre,Mackenzie Health,Child Care Centre,L4C 4Z3,(905) 883-1212 ,Ext.3996,Bathurst Street & Major Mackenzie Drive,Centre Based Child Care,Yes,Yes,MACKE02,10 Trench Street,,Richmond Hill,Richmond Hill
622912.531,4872868.0,629,138448,York Professional Care & Education - PHDC,York Professional Care & Education Inc.,Child Care Centre,L4G 1L8,(905) 841-1314 ,Ext.332,Yonge Street & Wellington Street,Home Based  Child Care,Yes,Yes,YORK 02,15203 Yonge Street,,Aurora,Aurora
633761.164,4889681.896,630,194676,York Professional Adventure Camp,York Professional Care & Education Inc.,Child Care Centre,L0G 1M0,(905) 841-1314 ,Ext.321,Highway 48 and Mount Albert Side Road,Centre Based Child Care,Yes,No,YORK 13,19794 Highway 48,,Mount Albert,East Gwillimbury
628987.3646,4861251.4636,631,90126,York Montessori School,2121410 Ontario Inc.,Child Care Centre,L4S 1P1,(905) 508-2000,,Leslie Street & Elgin Mills Road,Centre Based Child Care,Yes,No,YORK 14,10533 Leslie Street,,Richmond Hill,Richmond Hill
642650.6428,4857974.2166,632,40320,York Montessori Private School,York Montessori Private School Inc.,Child Care Centre,L6B 1A8,(905) 294-4415,,14th Avenue & Boxgrove by-pass (9th line),Centre Based Child Care,Yes,Yes,YORK 08,6890 14th Avenue,,Markham,Markham
635915.5769,4889399.9071,633,391331,York Home Childcare Agency Inc,,Child Care Centre,L0G 1M0,(416) 930-5437,,Mount Albert Road & Yok Durham Line,Home Based  Child Care,No,No,YORK 15,16 Ridge Gate Crescent,,Mount Albert,East Gwillimbury
625732.3324,4851286.1643,634,198337,Yorkhill YMCA Childcare,YMCA of Greater Toronto,Child Care Centre,L4J 5K2,(905) 482-2242,,Bathurst Street & Clark Avenue,Centre Based Child Care,Yes,Yes,YORKH05,350 Hilda Avenue,,Thornhill,Vaughan
625155.156,4851941.5,635,168033,Kayla's Children Centre,Kayla's Children Centre,Child Care Centre,L4J 8C9,(905) 738-5542 ,Ext.225,Bathurst Street & Clark Avenue,Centre Based Child Care,Yes,Yes,KAYLA01,36 Atkinson Avenue,,Thornhill,Vaughan
616535.5796,4851740.5917,636,221899,Zoe's Tender Years Child Care Centre,Zoe's Tender Years Childcare Inc.,Child Care Centre,L4L 9R4,(905) 851-6005 ,Ext.221,Weston Road & Langstaff Road,Centre Based Child Care,Yes,Yes,ZOE S01,8551 Weston Road ,Unit 7-8,Woodbridge,Vaughan
